{"version": 0.6, "generator": "Overpass API 0.7.62.8 e802775f", "osm3s": {"timestamp_osm_base": "2025-12-07T20:57:30Z", "copyright": "The data included in this document is from www.openstreetmap.org. The data is made available under ODbL."}, "elements": [{"type": "node", "id": 928550280, "lat": 28.6407045, "lon": 77.2105994, "tags": {"amenity": "restaurant", "cuisine": "international", "diet:vegetarian": "yes", "name": "Hotel Metropolis", "outdoor_seating": "yes", "tourism": "hotel"}}, {"type": "node", "id": 928567979, "lat": 28.635243, "lon": 77.2196937, "tags": {"amenity": "restaurant", "diet:vegan": "yes", "diet:vegetarian": "yes", "disused": "yes", "name": "Piccadelhi"}}, {"type": "node", "id": 1241932078, "lat": 28.6333595, "lon": 77.2083619, "tags": {"amenity": "restaurant", "ele": "235.41", "name": "Bangla Foods", "source:ele": "gpx"}}, {"type": "node", "id": 1556466158, "lat": 28.6253844, "lon": 77.2181175, "tags": {"addr:city": "New Delhi", "amenity": "restaurant", "cuisine": "thai", "name": "Spice Route"}}, {"type": "node", "id": 1563325267, "lat": 28.6297269, "lon": 77.2320267, "tags": {"amenity": "restaurant", "name": "Nathus Sweets"}}, {"type": "node", "id": 1563325307, "lat": 28.629465, "lon": 77.2318985, "tags": {"amenity": "restaurant", "cuisine": "north_indian;south_indian;chinese", "name": "Bengali Sweet House", "phone": "+91-11-2335-3310;+91-11-2331-9224", "tables": "18"}}, {"type": "node", "id": 1940318525, "lat": 28.6409319, "lon": 77.2137081, "tags": {"amenity": "restaurant", "name": "Club India Restaurant"}}, {"type": "node", "id": 1940318549, "lat": 28.641034, "lon": 77.213836, "tags": {"amenity": "restaurant", "name": "New Mt. Everest Restaurant"}}, {"type": "node", "id": 1966254717, "lat": 28.6169212, "lon": 77.225998, "tags": {"addr:housenumber": "1", "addr:street": "Ashoka Road, New Delhi", "amenity": "restaurant", "cuisine": "asian;indian", "name": "Andhra Bhawan Canteen", "name:ru": "\u041a\u0430\u0444\u0435 Andhra Pradesh Bhavan", "opening_hours": "Mo-Su 08:00-22:00, 00:00-15:00, 07:30-22:00"}}, {"type": "node", "id": 2327524028, "lat": 28.6323764, "lon": 77.2172154, "tags": {"addr:city": "New Delhi", "amenity": "restaurant", "cuisine": "asian;chinese;thai", "name": "Berco's"}}, {"type": "node", "id": 2591114289, "lat": 28.6306895, "lon": 77.2160507, "tags": {"addr:city": "New Delhi", "addr:housename": "Mohan Singh Place", "addr:postcode": "110001", "addr:street": "Baba Kharak Singh Marg", "addr:suburb": "Connaught Place", "amenity": "restaurant", "brand": "Indian Coffee House", "brand:wikidata": "Q3595301", "check_date": "2024-12-23", "contact:phone": "+91-11-2334-2994", "cuisine": "coffee_shop;indian", "diet:vegetarian": "yes", "level": "2", "name": "Indian Coffee House", "opening_hours": "08:30-21:00", "operator": "Indian Coffee Workers' Cooperative Society Limited", "outdoor_seating": "yes", "reservation": "no", "service:electricity": "ask", "start_date": "1957", "website": "http://indiancoffeehouse.com/", "wheelchair": "yes"}}, {"type": "node", "id": 2592537223, "lat": 28.6353527, "lon": 77.220063, "tags": {"addr:postcode": "110001", "air_conditioning": "yes", "amenity": "restaurant", "cuisine": "pizza;indian;burger;italian;chinese;sandwich;coffee_shop", "delivery": "yes", "diet:vegan": "yes", "diet:vegetarian": "yes", "name": "Hira Sweets", "opening_hours": "Mo-Su 08:00-23:00", "phone": "+91-97736 13336", "takeaway": "yes"}}, {"type": "node", "id": 2592537225, "lat": 28.6411417, "lon": 77.2137445, "tags": {"amenity": "restaurant", "name": "Sayam Roof Top Restaurant"}}, {"type": "node", "id": 2709534496, "lat": 28.6337495, "lon": 77.2230833, "tags": {"addr:city": "New Delhi", "addr:postcode": "110001", "addr:street": "Radial Road 6", "amenity": "restaurant", "capacity": "50", "name": "Keshav Restaurant", "opening_hours": "Mo-Su 10:00-18:00", "phone": "+91-90154-84272"}}, {"type": "node", "id": 3242109311, "lat": 28.6409844, "lon": 77.2137687, "tags": {"amenity": "restaurant", "cuisine": "indian", "name": "The Exotic Rooftop Restaurant", "opening_hours": "Mo-Su 08:00-23:00"}}, {"type": "node", "id": 3250376814, "lat": 28.6414451, "lon": 77.2132453, "tags": {"amenity": "restaurant", "cuisine": "korean", "name": "\uc27c\ud130", "name:en": "Shimtur", "name:fr": "Shimtur"}}, {"type": "node", "id": 3269429079, "lat": 28.6403009, "lon": 77.2131013, "tags": {"addr:housenumber": "4986", "addr:street": "Ramdwara Road", "amenity": "restaurant", "diet:vegetarian": "yes", "name": "Tadka", "name:es": "Tadka", "opening_hours": "Mo-Su 09:00-22:30"}}, {"type": "node", "id": 3704734413, "lat": 28.6309879, "lon": 77.2197896, "tags": {"addr:city": "New Delhi", "amenity": "restaurant", "brand": "Nando's", "brand:wikidata": "Q3472954", "cuisine": "chicken;portuguese", "diet:vegetarian": "yes", "name": "Nando's", "opening_hours": "Mo-Su 11:30-00:30"}}, {"type": "node", "id": 4069815728, "lat": 28.6342635, "lon": 77.2190699, "tags": {"addr:housename": "B", "addr:housenumber": "B-23", "addr:place": "Connaught Place", "addr:postcode": "110001", "addr:street": "Inner Circle", "air_conditioning": "yes", "amenity": "restaurant", "diet:vegan": "yes", "diet:vegetarian": "yes", "indoor_seating": "yes", "level": "0", "name": "The Colonnade", "outdoor_seating": "no", "smoking": "separated", "wheelchair": "no"}}, {"type": "node", "id": 4069858894, "lat": 28.6352724, "lon": 77.220127, "tags": {"amenity": "restaurant", "diet:vegan": "yes", "diet:vegetarian": "yes", "name": "Gola"}}, {"type": "node", "id": 4122592291, "lat": 28.6334275, "lon": 77.2080471, "tags": {"amenity": "restaurant", "name": "Odeon sweets"}}, {"type": "node", "id": 4211994391, "lat": 28.6410445, "lon": 77.2105515, "tags": {"amenity": "restaurant", "name": "Malhotra"}}, {"type": "node", "id": 4219631340, "lat": 28.6410923, "lon": 77.2126799, "tags": {"amenity": "restaurant", "name": "Sam's Cafe"}}, {"type": "node", "id": 4338105559, "lat": 28.6337656, "lon": 77.2213244, "tags": {"addr:block": "D", "addr:city": "New Delhi", "addr:housenumber": "26/28", "addr:postcode": "110001", "addr:street": "Radial Road No.6", "amenity": "restaurant", "cuisine": "regional", "level": "0", "name": "Zaffran", "name:ca": "Zaffran"}}, {"type": "node", "id": 4338129371, "lat": 28.6303156, "lon": 77.2206535, "tags": {"addr:city": "New Delhi", "addr:housenumber": "N-96", "addr:postcode": "110001", "addr:street": "2nd Floor, Munshi Lal Building, Connaught Place", "amenity": "restaurant", "cuisine": "regional", "diet:vegetarian": "yes", "name": "Barbeque Nation"}}, {"type": "node", "id": 4341101093, "lat": 28.6411171, "lon": 77.2144269, "tags": {"amenity": "restaurant", "name": "Nepali Food"}}, {"type": "node", "id": 4350522692, "lat": 28.6408661, "lon": 77.2103053, "tags": {"amenity": "restaurant", "name": "Malhotra"}}, {"type": "node", "id": 4389398989, "lat": 28.6303463, "lon": 77.217545, "tags": {"addr:city": "New Delhi", "addr:housenumber": "13", "addr:street": "Sansad Marg", "amenity": "restaurant", "cuisine": "punjabi", "name": "Pind Balluchi", "name:es": "Pind Baluchi", "name:fa": "\u067e\u06cc\u0646\u062f \u0628\u0644\u0648\u0686\u06cc", "opening_hours": "Mo-Su 12:00-23:00", "website": "https://www.pindballuchi.com/"}}, {"type": "node", "id": 4391613189, "lat": 28.6298048, "lon": 77.2204846, "tags": {"addr:housename": "Atmaram Mansion, Scindia House", "addr:place": "Connaught Place", "addr:unit": "Shop 9A", "amenity": "restaurant", "name": "Rajdhani", "website": "https://www.rajdhani.co.in/"}}, {"type": "node", "id": 4401493065, "lat": 28.6420621, "lon": 77.2179887, "tags": {"amenity": "restaurant", "name": "Neelam Restaurant"}}, {"type": "node", "id": 4460479219, "lat": 28.6328293, "lon": 77.2172007, "tags": {"addr:city": "New Delhi", "amenity": "restaurant", "diet:vegan": "yes", "diet:vegetarian": "yes", "name": "Fa Yian The Chinese Restaurant", "website": "http://www.fayian.com"}}, {"type": "node", "id": 4565027989, "lat": 28.6412137, "lon": 77.2147624, "tags": {"amenity": "restaurant", "name": "Wow Cafe", "name:en": "Wow Cafe", "name:ko": "\uc640\uc6b0\uce74\ud398 \ud55c\uc2dd\ub2f9"}}, {"type": "node", "id": 4599840390, "lat": 28.6415909, "lon": 77.2155347, "tags": {"amenity": "restaurant", "name:ko": "\uc778\ub3c4\ubc29\ub791\uae30"}}, {"type": "node", "id": 4654555590, "lat": 28.6452167, "lon": 77.2110064, "tags": {"amenity": "restaurant", "name": "U-Like", "name:en": "U-Like"}}, {"type": "node", "id": 4656714717, "lat": 28.6424044, "lon": 77.2103819, "tags": {"amenity": "restaurant", "name": "NATRAJ restaurant", "name:en": "NATRAJ restaurant"}}, {"type": "node", "id": 4679882984, "lat": 28.6298227, "lon": 77.2205834, "tags": {"amenity": "restaurant", "name": "Biryani Blues"}}, {"type": "node", "id": 4710223395, "lat": 28.6482081, "lon": 77.2336645, "tags": {"addr:postcode": "110006", "amenity": "restaurant", "name": "Alslam Chicken", "name:en": "Alslam Chicken"}}, {"type": "node", "id": 4711571792, "lat": 28.6336538, "lon": 77.2211826, "tags": {"amenity": "restaurant", "name": "Embassy Restaurant ( Samosa)", "name:en": "Embassy Restaurant ( Samosa)", "phone": "01123416434"}}, {"type": "node", "id": 4715157790, "lat": 28.6423302, "lon": 77.2182562, "tags": {"amenity": "restaurant", "name": "Malabar Hotel", "name:en": "Malabar Hotel"}}, {"type": "node", "id": 4715157791, "lat": 28.642273, "lon": 77.218265, "tags": {"amenity": "restaurant", "name": "Hotel Madras Dx", "name:en": "Hotel Madras Dx", "name:kn": "\u0cb9\u0ccb\u0c9f\u0cc6\u0cb2\u0ccd \u0cae\u0ca1\u0ccd\u0cb0\u0cbe\u0cb8\u0ccd \u0ca1\u0cc0\u0cb2\u0c95\u0ccd\u0cb8\u0ccd"}}, {"type": "node", "id": 4715162190, "lat": 28.6424057, "lon": 77.2182489, "tags": {"addr:housenumber": "113", "addr:street": "Amir Kaur Market", "amenity": "restaurant", "description": "In side road of Babu Ram Solanki Marg near railway station", "name": "Hyderabadi Dum Biriyaani", "name:en": "Hyderabadi Dum Biriyaani", "phone": "+919717334256"}}, {"type": "node", "id": 4715173889, "lat": 28.6424536, "lon": 77.2182429, "tags": {"amenity": "restaurant", "name": "South Indian Foods", "name:en": "South Indian Foods"}}, {"type": "node", "id": 4772064342, "lat": 28.6319603, "lon": 77.2078492, "tags": {"amenity": "restaurant", "name": "Safari Restro Lounge"}}, {"type": "node", "id": 4772753924, "lat": 28.6405446, "lon": 77.217099, "tags": {"amenity": "restaurant", "cuisine": "indian", "diet:vegetarian": "yes", "name": "Rishi Vaishno Dhaba", "name:en": "Rishi Vaishno Dhaba"}}, {"type": "node", "id": 4773105444, "lat": 28.6409944, "lon": 77.2127435, "tags": {"amenity": "restaurant", "name": "Sonu", "name:hi": "Sonu"}}, {"type": "node", "id": 4783668221, "lat": 28.6299114, "lon": 77.2172701, "tags": {"amenity": "restaurant", "cuisine": "indian", "name": "Kwality", "name:de": "Kwality", "name:en": "Kwality", "name:hi": "Kwality", "survey:date": "2023-01-22"}}, {"type": "node", "id": 4857522521, "lat": 28.6411046, "lon": 77.2135151, "tags": {"amenity": "restaurant", "diet:vegetarian": "yes", "name": "Everest kitchen", "name:en": "Everest Caf\u00e9", "name:fr": "Everest Caf\u00e9"}}, {"type": "node", "id": 4908782321, "lat": 28.6418156, "lon": 77.2126057, "tags": {"amenity": "restaurant", "name": "Kathmandu Food Cafe", "name:en": "Kathmandu Food Cafe"}}, {"type": "node", "id": 4959734021, "lat": 28.6353146, "lon": 77.2206088, "tags": {"amenity": "restaurant", "diet:vegetarian": "yes", "name": "Lazeez Affaire"}}, {"type": "node", "id": 4959734022, "lat": 28.6333695, "lon": 77.2212936, "tags": {"amenity": "restaurant", "name": "Kovil", "name:en": "Kovil"}}, {"type": "node", "id": 4959768821, "lat": 28.630182, "lon": 77.2204075, "tags": {"amenity": "restaurant", "cuisine": "indian", "diet:vegetarian": "yes", "name": "Radjhani Thali", "name:en": "Radjhani Thali"}}, {"type": "node", "id": 4985058921, "lat": 28.6409867, "lon": 77.2108048, "tags": {"amenity": "restaurant", "name": "Thalee", "name:en": "Thalee", "name:fr": "Thalee"}}, {"type": "node", "id": 5017491421, "lat": 28.6275145, "lon": 77.2198691, "tags": {"addr:city": "New Delhi", "amenity": "restaurant", "brand": "Pizza Hut", "brand:wikidata": "Q191615", "cuisine": "pizza", "name": "Pizza Hut", "name:en": "Pizza Hut"}}, {"type": "node", "id": 5017912424, "lat": 28.6307517, "lon": 77.2205444, "tags": {"amenity": "restaurant", "cuisine": "indian", "name": "Mughlai Junction", "name:en": "Mughlai Junction", "opening_hours": "Mo-Su 12:00-23:00", "website": "http://mughlaihunction.com"}}, {"type": "node", "id": 5073788621, "lat": 28.6249108, "lon": 77.2194157, "tags": {"amenity": "restaurant", "name": "saravan bhavan", "name:en": "saravan bhavan"}}, {"type": "node", "id": 5109849421, "lat": 28.6341541, "lon": 77.218784, "tags": {"addr:housename": "B", "addr:place": "Connaught Place", "addr:postcode": "110001", "air_conditioning": "no", "amenity": "restaurant", "diet:vegan": "yes", "diet:vegetarian": "yes", "indoor_seating": "yes", "level": "1", "name": "The Immigrant Cafe", "outdoor_seating": "no", "smoking": "yes", "wheelchair": "no"}}, {"type": "node", "id": 5323174525, "lat": 28.6408832, "lon": 77.213014, "tags": {"amenity": "restaurant"}}, {"type": "node", "id": 5329504729, "lat": 28.6353446, "lon": 77.2203635, "tags": {"addr:block": "K", "addr:city": "New Delhi", "addr:housenumber": "15", "addr:neighbourhood": "Connaught Place", "addr:postcode": "110001", "air_conditioning": "yes", "amenity": "restaurant", "bar": "no", "branch": "Connaught Place", "brand": "Sagar Ratna", "check_date": "2024-09-17", "contact:facebook": "sagarratnaofficial", "cuisine": "indian", "diet:lactose_free": "yes", "diet:vegan": "yes", "diet:vegetarian": "yes", "image:menu": "d5c7fef7-7a20-4fee-92e2-b98c9c8bf758", "image:menu:0": "d1e87968-6f95-4826-87a7-221a8199360b", "image:menu:1": "3c754826-eb60-42b1-a0d8-67023b2329f4", "image:menu:2": "91010955-0ee4-4ed5-a373-df46286f6d81", "image:menu:3": "31813afa-4dbb-48eb-a5b0-64e602a9f843", "image:menu:4": "7c962b49-4088-4b14-bd86-bcee4ea70d98", "image:menu:5": "cd0420cc-d125-47ac-8bdb-3a6ee352b415", "image:menu:6": "a18ef6e5-43ee-4b5b-bdf6-e2a35b11bbe1", "image:menu:7": "da144236-2143-4bb6-979b-b2ecc69864b6", "internet_access": "no", "level": "0;1", "name": "Sagar Ratna", "name:hi": "\u0938\u093e\u0917\u0930 \u0930\u0924\u094d\u0928\u093e", "opening_hours": "08:00-23:00", "operator": "M/s Sagar Ratna Restaurants Pvt Ltd", "outdoor_seating": "no", "panoramax": "0429c2c4-bab1-44a4-88bd-43afbcde61b9", "panoramax:0": "1fd58a46-2970-4414-b75c-954acc43cc66", "panoramax:1": "aaca5a4b-377f-4651-bc28-12d3407a01c2", "panoramax:2": "2b440358-fb82-4a12-bb6d-b7a3dbe3e0bc", "payment:cash": "yes", "payment:credit_cards": "yes", "payment:debit_cards": "yes", "payment:upi": "yes", "phone": "+91 11 4737 7300", "smoking": "no", "source": "survey", "start_date": "1986", "takeaway": "yes", "toilets": "yes", "toilets:access": "customers", "toilets:fee": "no", "toilets:level": "1", "toilets:wheelchair": "no", "website": "https://www.sagarratna.in", "wheelchair": "no"}}, {"type": "node", "id": 5488627982, "lat": 28.6411123, "lon": 77.2136081, "tags": {"amenity": "restaurant", "diet:vegetarian": "yes", "name": "Krishna Cafe", "wheelchair": "no"}}, {"type": "node", "id": 5567990903, "lat": 28.6269167, "lon": 77.2328582, "tags": {"amenity": "restaurant"}}, {"type": "node", "id": 5634524438, "lat": 28.6291804, "lon": 77.219755, "tags": {"addr:city": "New Delhi", "amenity": "restaurant", "cuisine": "indian", "name": "Pind Balluchi", "phone": "07686948952", "website": "https://www.pindballuchi.com/"}}, {"type": "node", "id": 5647754113, "lat": 28.6315666, "lon": 77.2223238, "tags": {"amenity": "restaurant", "brand": "Chili's", "brand:wikidata": "Q1072948", "cuisine": "tex-mex", "diet:vegetarian": "yes", "name": "Chili's", "official_name": "Chili's Grill & Bar"}}, {"type": "node", "id": 5656397310, "lat": 28.633169, "lon": 77.2179864, "tags": {"addr:housename": "A", "amenity": "restaurant", "diet:vegan": "yes", "diet:vegetarian": "yes", "name": "Rodeo"}}, {"type": "node", "id": 5784310848, "lat": 28.6339281, "lon": 77.217254, "tags": {"addr:block": "G", "addr:housenumber": "4;5;6", "amenity": "restaurant", "diet:vegan": "yes", "diet:vegetarian": "yes", "name": "Oriental Garden Chinese"}}, {"type": "node", "id": 5784312104, "lat": 28.6337075, "lon": 77.2169847, "tags": {"addr:housenumber": "G09", "addr:street": "D00", "amenity": "restaurant", "diet:vegetarian": "yes", "name": "Xero degrees", "website": "https://www.xerodegrees.com/"}}, {"type": "node", "id": 5792388053, "lat": 28.6271703, "lon": 77.2197132, "tags": {"addr:city": "New Delhi", "addr:street": "Janpath", "amenity": "restaurant", "cuisine": "south_indian", "diet:lacto_vegetarian": "yes", "diet:vegan": "yes", "name": "Padmanabham"}}, {"type": "node", "id": 5864629285, "lat": 28.632007, "lon": 77.2176823, "tags": {"amenity": "restaurant", "name": "Sharavana Bhavan", "name:en": "Sharavana Bhavan"}}, {"type": "node", "id": 6047921386, "lat": 28.6410202, "lon": 77.2126034, "tags": {"amenity": "restaurant", "diet:vegetarian": "yes", "name": "Diamond restaurant"}}, {"type": "node", "id": 6094909115, "lat": 28.6407001, "lon": 77.211572, "tags": {"amenity": "restaurant", "name": "Grand Singh restaurant"}}, {"type": "node", "id": 6161686838, "lat": 28.6353515, "lon": 77.2190315, "tags": {"amenity": "restaurant", "diet:vegan": "yes", "diet:vegetarian": "yes", "name": "Mother India"}}, {"type": "node", "id": 6161689896, "lat": 28.6323784, "lon": 77.2213733, "tags": {"addr:block": "E", "addr:housenumber": "15", "amenity": "restaurant", "bar": "no", "check_date": "2023-12-07", "cuisine": "coffee_shop", "indoor_seating": "yes", "level": "0", "name": "United Coffee House", "outdoor_seating": "no", "smoking": "no"}}, {"type": "node", "id": 6161690529, "lat": 28.6350577, "lon": 77.2181263, "tags": {"amenity": "restaurant", "diet:vegan": "yes", "diet:vegetarian": "yes", "name": "V\u00e9da", "operator": "The Billiardiers"}}, {"type": "node", "id": 6161690588, "lat": 28.6344013, "lon": 77.2214575, "tags": {"air_conditioning": "yes", "amenity": "restaurant", "diet:vegan": "yes", "diet:vegetarian": "yes", "indoor_seating": "yes", "name": "Unplugged Courtyard", "outdoor_seating": "no"}}, {"type": "node", "id": 6161987878, "lat": 28.6291307, "lon": 77.2197582, "tags": {"amenity": "restaurant", "brand": "Hard Rock Cafe", "brand:wikidata": "Q918151", "cuisine": "american", "name": "Hard Rock Cafe", "takeaway": "yes"}}, {"type": "node", "id": 6161987883, "lat": 28.6298758, "lon": 77.2210617, "tags": {"alcohol": "yes", "amenity": "restaurant", "diet:lacto_vegetarian": "yes", "diet:vegan": "yes", "drink:beer": "yes", "drink:vodka": "yes", "drink:wine": "yes", "indoor_seating": "yes", "name": "Local", "outdoor_seating": "no"}}, {"type": "node", "id": 6224257207, "lat": 28.627319, "lon": 77.2326929, "tags": {"air_conditioning": "yes", "amenity": "restaurant", "indoor_seating": "yes", "level": "0", "name": "Triveni Terrace Cafe", "outdoor_seating": "yes", "self_service": "yes"}}, {"type": "node", "id": 6278067985, "lat": 28.6347294, "lon": 77.2203803, "tags": {"air_conditioning": "yes", "amenity": "restaurant", "cuisine": "rajasthani", "diet:vegan": "yes", "diet:vegetarian": "yes", "indoor_seating": "yes", "level": "0", "name": "Rajasthali", "opening_hours": "Mo-Su 12:00-16:00 \"lunch\", 19:00-23:00 \"dinner\"", "outdoor_seating": "no", "wheelchair": "no"}}, {"type": "node", "id": 6278106187, "lat": 28.6325274, "lon": 77.2223125, "tags": {"amenity": "restaurant", "name": "Hotmess"}}, {"type": "node", "id": 6328795085, "lat": 28.6317221, "lon": 77.22247, "tags": {"amenity": "restaurant", "cuisine": "indian", "name": "Bagundi"}}, {"type": "node", "id": 6495330876, "lat": 28.6342714, "lon": 77.2192315, "tags": {"addr:housename": "B-25", "addr:place": "Connaught Place", "addr:postcode": "110001", "air_conditioning": "yes", "alcohol": "yes", "amenity": "restaurant", "diet:vegan": "yes", "diet:vegetarian": "yes", "indoor_seating": "yes", "level": "0", "name": "Zen", "opening_hours": "PH,Mo-Su 11:30-19:45", "outdoor_seating": "no", "smoking": "separated", "wheelchair": "limited"}}, {"type": "node", "id": 6495346838, "lat": 28.6342817, "lon": 77.2190663, "tags": {"addr:housename": "B", "addr:place": "Connaught Place", "addr:postcode": "110001", "air_conditioning": "no", "amenity": "restaurant", "diet:vegan": "yes", "diet:vegetarian": "yes", "indoor_seating": "yes", "level": "1", "name": "The Big Chill", "outdoor_seating": "no", "smoking": "yes"}}, {"type": "node", "id": 6657141286, "lat": 28.6409128, "lon": 77.2136434, "tags": {"amenity": "restaurant", "internet_access": "wlan", "name": "Bistrot 55"}}, {"type": "node", "id": 6676143713, "lat": 28.6305595, "lon": 77.2212797, "tags": {"amenity": "restaurant", "cuisine": "indian;pizza", "diet:vegetarian": "yes", "internet_access": "no", "name": "The Art House Cafe", "opening_hours": "Mo-Su 10:00-01:00", "toilets": "yes", "wheelchair": "limited"}}, {"type": "node", "id": 6707994776, "lat": 28.634703, "lon": 77.2205246, "tags": {"addr:block": "C", "addr:housenumber": "42/2", "addr:place": "Connaught Place", "addr:postcode": "110001", "addr:street": "Middle Circle", "amenity": "restaurant", "contact:email": "info@shakesquare.co.in", "contact:facebook": "https://www.facebook.com/Shake-Square-Connaught-Place-242986939074737", "contact:instagram": "https://www.instagram.com/shakesquare", "contact:website": "http://shakesquare.co.in", "cuisine": "shake;ice_cream;italian;salad;noodles;pizza;pasta", "diet:vegan": "yes", "diet:vegetarian": "only", "drink:shake": "yes", "level": "0;1", "name": "Shake Square", "operator": "M/s SS Milk Products", "seats": "23", "smoking": "no", "wheelchair": "no"}}, {"type": "node", "id": 6792923897, "lat": 28.6209452, "lon": 77.2180853, "tags": {"addr:city": "New Delhi", "addr:housenumber": "19", "addr:street": "Ashoka Road", "amenity": "restaurant", "cuisine": "italian", "name": "Sorento", "name:ru": "\u0421\u043e\u0440\u0435\u043d\u0442\u043e", "opening_hours": "Mo-Su 12:30-14:45, 19:00-23:45"}}, {"type": "node", "id": 7041400209, "lat": 28.6344467, "lon": 77.2220056, "tags": {"amenity": "restaurant", "diet:vegan": "yes", "diet:vegetarian": "yes", "indoor_seating": "yes", "name": "Sandoz", "outdoor_seating": "no"}}, {"type": "node", "id": 7044903485, "lat": 28.6345679, "lon": 77.2219125, "tags": {"amenity": "restaurant", "diet:vegan": "yes", "diet:vegetarian": "yes", "indoor_seating": "yes", "name": "Minar", "outdoor_seating": "no", "survey:date": "2023-01-24"}}, {"type": "node", "id": 7083796923, "lat": 28.6350184, "lon": 77.2195254, "tags": {"addr:housename": "H", "addr:housenumber": "9", "addr:place": "Connaught Place", "addr:postcode": "110001", "air_conditioning": "yes", "amenity": "restaurant", "bar": "yes", "contact:phone": "+91 11 2332 0081;+91 11 4152 8042", "contact:website": "https://toninoindia.com/", "cuisine": "italian", "diet:vegan": "yes", "diet:vegetarian": "yes", "drink:beer": "served", "drink:wine": "served", "level": "1", "name": "Caff\u00e8 Tonino", "toilets": "yes", "toilets:access": "customers", "wheelchair": "no"}}, {"type": "node", "id": 7110019814, "lat": 28.6345219, "lon": 77.2225088, "tags": {"amenity": "restaurant", "diet:vegan": "yes", "diet:vegetarian": "yes", "indoor_seating": "yes", "name": "National Restaurant", "outdoor_seating": "no"}}, {"type": "node", "id": 7222985985, "lat": 28.6411587, "lon": 77.2134007, "tags": {"addr:street": "1176 Main Bazar", "amenity": "restaurant", "internet_access": "wlan", "name": "Singh\u2019s caf\u00e9 & restaurant"}}, {"type": "node", "id": 8151189839, "lat": 28.6287272, "lon": 77.2229395, "tags": {"addr:full": "Antriksh Bhavan, 22, KG Marg, Barakhamba, New Delhi, Delhi", "amenity": "restaurant", "name": "Parikrama - The Revolving Restaurant", "website": "www.thewoofytails.com"}}, {"type": "node", "id": 9037075910, "lat": 28.6304553, "lon": 77.2198235, "tags": {"amenity": "restaurant", "diet:vegetarian": "yes", "name": "Nik Baker's"}}, {"type": "node", "id": 9239861666, "lat": 28.6303516, "lon": 77.2207134, "tags": {"amenity": "restaurant", "level": "2", "name": "Barbeque Nation", "wheelchair": "limited"}}, {"type": "node", "id": 9239861671, "lat": 28.6303321, "lon": 77.2206386, "tags": {"amenity": "restaurant", "name": "Blues", "operator": "Regent Restaurant"}}, {"type": "node", "id": 9239861673, "lat": 28.6303565, "lon": 77.22068, "tags": {"addr:housename": "Munshilal Building", "addr:street": "Outer Circle", "addr:unit": "N-61;N-62", "amenity": "restaurant", "contact:phone": "+91-96505-09371;+91-96505-09376;+91-96505-09364", "level": "1", "name": "Castle's Barbeque", "wheelchair": "limited"}}, {"type": "node", "id": 9239861674, "lat": 28.6303371, "lon": 77.2206681, "tags": {"amenity": "restaurant", "level": "1", "name": "Taste of China", "operator": "Regent Restaurant", "wheelchair": "no"}}, {"type": "node", "id": 9239861686, "lat": 28.6302128, "lon": 77.2201334, "tags": {"amenity": "restaurant", "diet:vegetarian": "yes", "level": "1", "name": "Ardor 2.1", "wheelchair": "no"}}, {"type": "node", "id": 9279741263, "lat": 28.6303457, "lon": 77.2208085, "tags": {"addr:city": "New Delhi", "addr:housenumber": "N-19", "addr:place": "Connaught Place", "addr:postcode": "110001", "addr:street": "Outer Circle", "amenity": "restaurant", "contact:phone": "+91 11 4321 5555", "cuisine": "South Indian;North Indian;Chinese", "name": "DS Dosa Factory"}}, {"type": "node", "id": 10116901517, "lat": 28.6421676, "lon": 77.2373339, "tags": {"amenity": "restaurant", "cuisine": "indian", "name": "Kallu Nihari"}}, {"type": "node", "id": 10570234009, "lat": 28.6254773, "lon": 77.2184377, "tags": {"amenity": "restaurant", "cuisine": "italian", "name": "San Gimignano"}}, {"type": "node", "id": 10579381741, "lat": 28.6323157, "lon": 77.2226574, "tags": {"amenity": "restaurant", "diet:vegetarian": "yes", "name": "Chido"}}, {"type": "node", "id": 10674115159, "lat": 28.6412498, "lon": 77.2359617, "tags": {"amenity": "restaurant", "diet:vegetarian": "only", "name": "Bhaja Govindam"}}, {"type": "node", "id": 10773291097, "lat": 28.6346728, "lon": 77.2180409, "tags": {"amenity": "restaurant", "cuisine": "indian", "diet:vegan": "yes", "diet:vegetarian": "yes", "name": "Dasaprakash"}}, {"type": "node", "id": 10905351895, "lat": 28.6346501, "lon": 77.2195319, "tags": {"alcohol": "yes", "amenity": "restaurant", "diet:vegan": "yes", "diet:vegetarian": "yes", "level": "1", "name": "Harlequin"}}, {"type": "node", "id": 10910516588, "lat": 28.6336017, "lon": 77.2221648, "tags": {"air_conditioning": "yes", "amenity": "restaurant", "check_date": "2025-10-15", "cuisine": "south_indian", "diet:vegan": "yes", "diet:vegetarian": "yes", "internet_access": "no", "level": "0;1;2", "name": "Andhra Canteen", "name:en": "Andhra Canteen", "name:hi": "\u0906\u0902\u0927\u094d\u0930\u093e \u0915\u0948\u0928\u094d\u091f\u0940\u0928", "toilets": "yes"}}, {"type": "node", "id": 10924124873, "lat": 28.6330893, "lon": 77.2221821, "tags": {"addr:block": "M", "addr:city": "New Delhi", "addr:housenumber": "41/2", "amenity": "restaurant", "bar": "yes", "cuisine": "asian;japanese", "diet:vegan": "yes", "diet:vegetarian": "yes", "level": "0", "name": "Mount Fuji"}}, {"type": "node", "id": 10936327541, "lat": 28.6349675, "lon": 77.2201154, "tags": {"amenity": "restaurant", "diet:vegan": "yes", "diet:vegetarian": "yes", "internet_access": "yes", "internet_access:fee": "no", "level": "1", "name": "Ghoomar", "opening_hours:kitchen": "Mo-Su 12:00-17:00; Mo-Su 19:00-23:00", "takeaway": "yes", "wheelchair": "no"}}, {"type": "node", "id": 11064409807, "lat": 28.6342696, "lon": 77.2190501, "tags": {"air_conditioning": "yes", "amenity": "restaurant", "cuisine": "punjabi", "diet:lacto_vegetarian": "yes", "diet:ovo_vegetarian": "yes", "diet:vegan": "yes", "diet:vegetarian": "yes", "indoor_seating": "yes", "level": "0", "name": "Dhaba", "outdoor_seating": "no", "smoking": "separated", "toilets": "yes"}}, {"type": "node", "id": 11074617538, "lat": 28.6294189, "lon": 77.2261819}, {"type": "node", "id": 11074617539, "lat": 28.629424, "lon": 77.2259569}, {"type": "node", "id": 11074617540, "lat": 28.6295097, "lon": 77.2260188}, {"type": "node", "id": 11074617541, "lat": 28.6293333, "lon": 77.2261201}, {"type": "node", "id": 11242857871, "lat": 28.6429888, "lon": 77.2214491, "tags": {"amenity": "restaurant", "level": "0", "name": "Nazeer Foods"}}, {"type": "node", "id": 11242857873, "lat": 28.6430383, "lon": 77.2214437, "tags": {"amenity": "restaurant", "level": "0", "name": "IRCTC Food Plaza", "operator": "Indian Railway Catering and Tourism Corporation Ltd."}}, {"type": "node", "id": 11242865005, "lat": 28.642164, "lon": 77.2215364, "tags": {"amenity": "restaurant", "cuisine": "indian", "level": "0", "name": "Jan-Aahar", "operator": "Indian Railway Catering and Tourism Corporation Ltd."}}, {"type": "node", "id": 11252471885, "lat": 28.6331447, "lon": 77.2179838, "tags": {"addr:street": "Connaught Place", "amenity": "restaurant", "diet:vegan": "yes", "diet:vegetarian": "yes", "name": "Diggin"}}, {"type": "node", "id": 11397955923, "lat": 28.6321001, "lon": 77.2213271, "tags": {"amenity": "restaurant", "cuisine": "chinese;thai", "diet:vegetarian": "yes", "drink:alcohol": "served", "level": "2", "name": "Berco's"}}, {"type": "node", "id": 11397955924, "lat": 28.6321251, "lon": 77.2212883, "tags": {"amenity": "restaurant", "cuisine": "north_indian;italian;lebanese", "diet:vegetarian": "yes", "drink:alcohol": "served", "level": "1", "name": "QBA"}}, {"type": "node", "id": 11443228736, "lat": 28.6337331, "lon": 77.221063}, {"type": "node", "id": 11443228737, "lat": 28.6337492, "lon": 77.2210868}, {"type": "node", "id": 11443228743, "lat": 28.6338237, "lon": 77.2210075}, {"type": "node", "id": 11443228761, "lat": 28.6338065, "lon": 77.220985}, {"type": "node", "id": 11449298391, "lat": 28.6315631, "lon": 77.2162842, "tags": {"amenity": "restaurant", "contact:mobile": "+91-9090-7070-83", "contact:phone": "+91-11-4143-5007", "cuisine": "south_indian", "level": "0;1", "name": "Bheemeshwara", "opening_hours": "Mo-Su 07:00-23:00", "operator": "Ashlyn Restaurant LLP"}}, {"type": "node", "id": 11449298392, "lat": 28.6315236, "lon": 77.2161783, "tags": {"amenity": "restaurant", "contact:mobile": "+91-8468-00-5769", "contact:website": "https://www.bikkganebiryani.com", "name": "Bikkgane Biryani"}}, {"type": "node", "id": 11601991069, "lat": 28.6410098, "lon": 77.2104547, "tags": {"amenity": "restaurant", "cuisine": "indian", "diet:vegetarian": "yes", "name": "Swagat"}}, {"type": "node", "id": 11633581169, "lat": 28.6459236, "lon": 77.215431, "tags": {"amenity": "restaurant", "name": "Brahmin's Pure veg"}}, {"type": "node", "id": 11637362094, "lat": 28.6332625, "lon": 77.2166944, "tags": {"addr:block": "G", "addr:housenumber": "19", "addr:street": "D00", "amenity": "restaurant", "name": "The Art of Dumpling", "short_name": "TAOD"}}, {"type": "node", "id": 11637392885, "lat": 28.6343435, "lon": 77.2204201}, {"type": "node", "id": 11637392886, "lat": 28.6341829, "lon": 77.2204153}, {"type": "node", "id": 11637392892, "lat": 28.6342681, "lon": 77.2201477}, {"type": "node", "id": 11637392896, "lat": 28.634284, "lon": 77.2200667}, {"type": "node", "id": 11637392897, "lat": 28.6343104, "lon": 77.2201522}, {"type": "node", "id": 11637392901, "lat": 28.6343891, "lon": 77.2203308}, {"type": "node", "id": 11637392902, "lat": 28.6343087, "lon": 77.2205111}, {"type": "node", "id": 11637392906, "lat": 28.6343253, "lon": 77.2200786}, {"type": "node", "id": 11637392907, "lat": 28.6344231, "lon": 77.2201993}, {"type": "node", "id": 11637392909, "lat": 28.6342321, "lon": 77.2202699}, {"type": "node", "id": 11637392911, "lat": 28.6342662, "lon": 77.2201402}, {"type": "node", "id": 11637392912, "lat": 28.6342072, "lon": 77.2203579}, {"type": "node", "id": 11638313541, "lat": 28.6345495, "lon": 77.2206082}, {"type": "node", "id": 11638313542, "lat": 28.6345372, "lon": 77.2206325}, {"type": "node", "id": 11638313543, "lat": 28.6346025, "lon": 77.2206432}, {"type": "node", "id": 11638313544, "lat": 28.6346269, "lon": 77.2205953}, {"type": "node", "id": 11638313545, "lat": 28.6346516, "lon": 77.2206116}, {"type": "node", "id": 11638313546, "lat": 28.6346149, "lon": 77.2206837}, {"type": "node", "id": 11764334602, "lat": 28.6324882, "lon": 77.2161512, "tags": {"addr:city": "New Delhi", "addr:full": "P-15/90, Connaught Circle, New Delhi - 110001", "addr:postcode": "110001", "addr:street": "Outer Circle", "air_conditioning": "yes", "amenity": "restaurant", "brand": "Naivedyam", "changing_table": "no", "contact:phone": "+91-11-4059-1444;+91-11-4059-2444", "cuisine": "indian;southern_indian", "diet:sugar_free": "yes", "diet:vegan": "limited", "diet:vegetarian": "yes", "dog": "no", "fixme": "Freeform tag `cuisine` used, to be doublechecked", "indoor_seating": "yes", "level": "0;1", "name": "Naivedyam", "outdoor_seating": "no", "smoking": "no", "takeaway": "yes", "toilets": "yes", "toilets:fee": "no", "toilets:gender_segregated": "yes", "toilets:hands_drying": "paper_towel", "toilets:handwashing": "yes", "toilets:level": "0", "toilets:wheelchair": "no", "wheelchair": "no"}}, {"type": "node", "id": 11795527561, "lat": 28.6289157, "lon": 77.2197583, "tags": {"amenity": "restaurant", "name": "Gokulam"}}, {"type": "node", "id": 11795614249, "lat": 28.6284596, "lon": 77.2197378, "tags": {"amenity": "restaurant", "brand": "Punjab Grill", "brand:wikidata": "Q124374761", "cuisine": "north_indian", "delivery": "yes", "name": "Punjab Grill", "takeaway": "yes"}}, {"type": "node", "id": 11801338398, "lat": 28.6391042, "lon": 77.2084744, "tags": {"amenity": "restaurant", "bar": "no", "level": "0", "name": "Bikanervala", "shop": "yes"}}, {"type": "node", "id": 11805134682, "lat": 28.639207, "lon": 77.2083127, "tags": {"amenity": "restaurant", "bar": "no", "level": "0", "name": "Fat Tiger"}}, {"type": "node", "id": 11808931822, "lat": 28.6481858, "lon": 77.2001834, "tags": {"amenity": "restaurant", "brand": "California Burrito", "brand:wikidata": "Q124374596", "cuisine": "mexican", "name": "California Burrito"}}, {"type": "node", "id": 11868892366, "lat": 28.6296858, "lon": 77.2260475, "tags": {"amenity": "restaurant", "level": "0", "name": "Foodiez", "outdoor_seating": "yes", "wheelchair": "no"}}, {"type": "node", "id": 11869013790, "lat": 28.6289688, "lon": 77.2247681, "tags": {"air_conditioning": "yes", "amenity": "restaurant", "level": "0", "name": "Foodieez", "outdoor_seating": "no", "seats": "10", "wheelchair": "no"}}, {"type": "node", "id": 11937020351, "lat": 28.6260814, "lon": 77.2330264, "tags": {"amenity": "restaurant", "name": "Himachal Bhawan Dining Hall", "opening_hours": "Mo-Su 08:00-22:00"}}, {"type": "node", "id": 11982517643, "lat": 28.6329669, "lon": 77.2226585, "tags": {"amenity": "restaurant", "level": "1", "name": "The House Of Commons", "wheelchair": "no"}}, {"type": "node", "id": 11982519975, "lat": 28.6329706, "lon": 77.2226985, "tags": {"amenity": "restaurant", "bar": "yes", "cuisine": "indian", "level": "0", "name": "The G.T. Road", "wheelchair": "yes"}}, {"type": "node", "id": 11982519987, "lat": 28.633035, "lon": 77.2226864, "tags": {"amenity": "restaurant", "cuisine": "indian", "level": "0", "name": "The Imperial Spice", "wheelchair": "yes"}}, {"type": "node", "id": 12016180634, "lat": 28.6429981, "lon": 77.2221821, "tags": {"amenity": "restaurant", "bar": "no", "cuisine": "indian", "level": "0", "noname": "yes", "takeaway": "yes"}}, {"type": "node", "id": 12054358703, "lat": 28.6344804, "lon": 77.2175301, "tags": {"amenity": "restaurant", "bar": "yes", "cuisine": "chinese", "level": "0", "name": "Flavours Of China"}}, {"type": "node", "id": 12422394301, "lat": 28.6307181, "lon": 77.2204376, "tags": {"addr:housenumber": "Block N 33/8", "addr:street": "Middle Circle", "amenity": "restaurant", "cuisine": "chinese;indian", "name": "Tirumala", "opening_hours": "Mo-Su 11:00-23:00", "phone": "+91 93540 95653"}}, {"type": "node", "id": 12718410901, "lat": 28.6457847, "lon": 77.216007, "tags": {"amenity": "restaurant", "cuisine": "indian", "name": "Cafe  Vagabond by Saffron", "website": "https://www.tripadvisor.de/Restaurant_Review-g304551-d1379255-Reviews-Cafe_Vagabond-New_Delhi_National_Capital_Territory_of_Delhi.html"}}, {"type": "node", "id": 12896513992, "lat": 28.6324913, "lon": 77.2067022, "tags": {"amenity": "restaurant", "name": "Gulshan Da Dhaba"}}, {"type": "node", "id": 12896534719, "lat": 28.6326424, "lon": 77.2066112, "tags": {"amenity": "restaurant", "level": "0", "name": "Flavours of Chaap"}}, {"type": "node", "id": 12896559854, "lat": 28.6330218, "lon": 77.2084316, "tags": {"air_conditioning": "yes", "amenity": "restaurant", "baby_feeding": "no", "name": "Kaleva All day Diner Family Restaurant", "opening_hours": "Mo-Su 08:30-22:30; PH closed", "smoking": "no", "takeaway": "yes", "wheelchair": "yes"}}, {"type": "node", "id": 12896614406, "lat": 28.6324936, "lon": 77.2066109, "tags": {"amenity": "restaurant", "level": "0", "name": "Dayal Da Dhaba"}}, {"type": "node", "id": 12977503231, "lat": 28.6316962, "lon": 77.2209454, "tags": {"amenity": "restaurant", "name": "The Host"}}, {"type": "node", "id": 12977565249, "lat": 28.6307787, "lon": 77.2207013, "tags": {"amenity": "restaurant", "cuisine": "indian", "name": "Gupta Foods"}}, {"type": "node", "id": 13124486537, "lat": 28.6410473, "lon": 77.214, "tags": {"amenity": "restaurant", "name": "Fire & Ice"}}, {"type": "node", "id": 13137839701, "lat": 28.6429879, "lon": 77.2117488, "tags": {"amenity": "restaurant", "cuisine": "indian"}}, {"type": "node", "id": 13322042901, "lat": 28.642225, "lon": 77.2143627, "tags": {"amenity": "restaurant", "name": "Satguru Dhaba"}}, {"type": "node", "id": 13335517602, "lat": 28.6422224, "lon": 77.2182015, "tags": {"amenity": "restaurant", "name": "Karan South Indian"}}, {"type": "way", "id": 1193078528, "nodes": [11074617541, 11074617538, 11074617540, 11074617539, 11074617541], "tags": {"amenity": "restaurant", "building": "commercial", "building:levels": "2", "cuisine": "south_indian;thai", "diet:lacto_vegetarian": "yes", "diet:vegan": "yes", "level": "0", "name": "Juggernaut", "roof:shape": "flat", "smoking": "outside", "toilets": "yes", "toilets:access": "customers", "wikimedia_commons": "File:Juggernaut,_Barakhamba_Road.jpg"}}, {"type": "way", "id": 1233269501, "nodes": [11443228737, 11443228743, 11443228761, 11443228736, 11443228737], "tags": {"addr:block": "D", "addr:city": "New Delhi", "addr:postcode": "110001", "addr:street": "Inner Circle", "addr:suburb": "Connaught Place", "addr:unit": "19;20", "amenity": "restaurant", "diet:vegan": "yes", "diet:vegetarian": "yes", "drink:alcohol": "served", "level": "1", "name": "Warehouse Caf\u00e9", "opening_hours": "Mo-Su 12:00-01:00", "operator": "Sukhija Bar and Grill Private Limited", "wheelchair": "limited"}}, {"type": "way", "id": 1251938028, "nodes": [11637392897, 11637392911, 11637392896, 11637392906, 11637392897], "tags": {"amenity": "restaurant", "level": "2", "name": "Wok In The Cloud"}}, {"type": "way", "id": 1251938029, "nodes": [11637392901, 11637392909, 11637392892, 11637392907, 11637392901], "tags": {"addr:block": "C", "addr:city": "New Delhi", "addr:housenumber": "35", "addr:street": "Inner Circle", "addr:suburb": "Connaught Place", "amenity": "restaurant", "contact:mobile": "+91-98118-71448;+91-690-9090-905", "drink:alcohol": "served", "level": "2", "name": "Dr. Zombie"}}, {"type": "way", "id": 1251938032, "nodes": [11637392912, 11637392885, 11637392902, 11637392886, 11637392912], "tags": {"addr:block": "C", "addr:city": "Delhi", "addr:housenumber": "37", "addr:postcode": "110001", "addr:street": "Inner Circle", "addr:suburb": "Connaught Place", "amenity": "restaurant", "check_date": "2023-12-22", "level": "2", "name": "Openhouse Cafe", "phone": "+91-99996-11332;+91-99996-11334;+91-85878-37260"}}, {"type": "way", "id": 1252056678, "nodes": [11638313544, 11638313545, 11638313546, 11638313542, 11638313541, 11638313543, 11638313544], "tags": {"amenity": "restaurant", "level": "2", "name": "Cafe MRP"}}]}