{"version": 0.6, "generator": "Overpass API 0.7.62.8 e802775f", "osm3s": {"timestamp_osm_base": "2025-12-07T21:19:00Z", "copyright": "The data included in this document is from www.openstreetmap.org. The data is made available under ODbL."}, "elements": [{"type": "node", "id": 306425282, "lat": 25.6320975, "lon": 86.2255523, "tags": {"addr:city": "Sonma", "addr:district": "Begusarai", "addr:postcode": "848201", "addr:street": "vill- Sonma Besides gov ITI Sonma bakhri", "internet_access": "no", "name": "Sonma Pranpur halt", "operator": "ECR", "public_transport": "station", "railway": "station", "ref": "SOPR", "train": "yes", "wikidata": "Q63370170"}}, {"type": "node", "id": 760403003, "lat": 25.3143027, "lon": 86.5421536, "tags": {"name": "Ratanpur", "operator": "ER", "railway": "station", "ref": "RPUR", "wikidata": "Q63371429"}}, {"type": "node", "id": 1680698576, "lat": 25.6023987, "lon": 86.2611787, "tags": {"name": "Salauna", "operator": "ECR", "public_transport": "station", "railway": "station", "ref": "SLNA", "train": "yes", "wikidata": "Q63370171"}}, {"type": "node", "id": 1774717113, "lat": 25.5909912, "lon": 86.5993845, "tags": {"name": "Dhamara Ghat", "network": "IR", "operator": "ECR", "public_transport": "station", "railway": "station", "ref": "DHT", "wikidata": "Q63356111"}}, {"type": "node", "id": 1775412368, "lat": 25.2807992, "lon": 86.575343, "tags": {"name": "Bariarpur", "operator": "ER", "railway": "station", "ref": "BUP", "wikidata": "Q25549197"}}, {"type": "node", "id": 2088322614, "lat": 25.5531936, "lon": 86.586774, "tags": {"name": "Badla Ghat", "operator": "ECR", "railway": "station", "ref": "BHB", "wikidata": "Q63355825"}}, {"type": "node", "id": 4420548485, "lat": 25.4215995, "lon": 86.2600333, "tags": {"name": "Danauli Phulwaria", "network": "IR", "operator": "ECR", "public_transport": "station", "railway": "station", "ref": "DPL", "train": "yes", "wikidata": "Q63355493"}}, {"type": "node", "id": 4420548491, "lat": 25.4167398, "lon": 86.2056056, "tags": {"name": "Lakho Railway St.", "operator": "ECR", "public_transport": "station", "railway": "station", "ref": "LAK", "train": "yes", "wikidata": "Q63356584"}}, {"type": "node", "id": 5031332297, "lat": 25.3771111, "lon": 86.4813897, "tags": {"name": "Munger", "operator": "ER", "railway": "station", "ref": "MGR", "wikidata": "Q24952283"}}, {"type": "node", "id": 5768131377, "lat": 25.4260431, "lon": 86.3100328, "tags": {"name": "Lakhminia", "network": "IR", "operator": "ECR", "public_transport": "station", "railway": "station", "ref": "LKN", "train": "yes", "wikidata": "Q63356612"}}, {"type": "node", "id": 5875971960, "lat": 25.322627, "lon": 86.5328291, "tags": {"name": "Patam Halt", "network": "IR", "operator": "ER", "public_transport": "station", "railway": "station", "ref": "PATM", "wikidata": "Q63371427"}}, {"type": "node", "id": 5924641574, "lat": 25.4277676, "lon": 86.4387077, "tags": {"name": "Sabdalpur Junction", "operator": "ECR", "railway": "station", "ref": "SBDP"}}, {"type": "node", "id": 6154058674, "lat": 25.5555098, "lon": 86.3029513, "tags": {"name": "Imli", "operator": "ECR", "public_transport": "station", "railway": "station", "ref": "IMLI", "train": "yes", "wikidata": "Q63370173"}}, {"type": "node", "id": 6154058675, "lat": 25.51663, "lon": 86.3697846, "tags": {"name": "Olapur", "operator": "ECR", "public_transport": "station", "railway": "station", "ref": "OLP", "train": "yes", "wikidata": "Q63370175"}}, {"type": "node", "id": 7616870741, "lat": 25.4270239, "lon": 86.4003789, "tags": {"name": "Sahibpur Kamal Junction", "operator": "ECR", "public_transport": "station", "railway": "station", "ref": "SKJ", "train": "yes", "wikidata": "Q63357599"}}, {"type": "node", "id": 7616870760, "lat": 25.4675679, "lon": 86.4354461, "tags": {"name": "Umeshnagar", "network": "IR", "operator": "ECR", "public_transport": "station", "railway": "station", "ref": "UMNR", "train": "yes", "wikidata": "Q63355812"}}, {"type": "node", "id": 7617811856, "lat": 25.506425, "lon": 86.4663243, "tags": {"name": "Khagaria", "name:hi": "\u0916\u0917\u0921\u093c\u093f\u092f\u093e \u091c\u0902\u0915\u094d\u0936\u0928", "name:ja": "\u30ab\u30ac\u30ea\u30e4\u30fc", "operator": "ECR", "railway": "station", "ref": "KGG", "wikidata": "Q24931372", "wikipedia": "en:Khagaria Junction railway station"}}, {"type": "node", "id": 7629244950, "lat": 25.5091295, "lon": 86.555247, "tags": {"name": "Mansi Junction", "network": "IR", "operator": "ECR", "public_transport": "station", "railway": "station", "ref": "MNE", "wikidata": "Q63370165", "wikipedia": "en:Mansi Junction railway station"}}, {"type": "node", "id": 8042823442, "lat": 25.3866702, "lon": 86.4643002, "tags": {"name": "Munger Train Station", "note": "abandoned??", "operator": "ER", "public_transport": "station", "railway": "station", "train": "yes"}}, {"type": "node", "id": 12181093276, "lat": 25.3153535, "lon": 86.4933483, "tags": {"name": "Jamalpur Junction", "network": "Indian Railways", "operator": "Eastern Railway", "public_transport": "station", "railway": "station", "ref": "JMP", "train": "yes", "wikidata": "Q6127697", "wikipedia": "en:Jamalpur Junction railway station"}}, {"type": "node", "id": 12593544347, "lat": 25.3155065, "lon": 86.4925088}, {"type": "node", "id": 12593544348, "lat": 25.3154542, "lon": 86.4927199}, {"type": "node", "id": 12593544349, "lat": 25.3155876, "lon": 86.4927666}, {"type": "node", "id": 12593544350, "lat": 25.3154677, "lon": 86.4931589}, {"type": "node", "id": 12593544351, "lat": 25.3143615, "lon": 86.492772}, {"type": "node", "id": 12593544352, "lat": 25.3144997, "lon": 86.4922284}, {"type": "node", "id": 12593544353, "lat": 25.3145588, "lon": 86.4921781}, {"type": "node", "id": 12593544354, "lat": 25.3146435, "lon": 86.4922015}, {"type": "way", "id": 1360407326, "nodes": [12593544347, 12593544348, 12593544349, 12593544350, 12593544351, 12593544352, 12593544353, 12593544354, 12593544347], "tags": {"addr:city": "Jamalpur", "addr:district": "Munger", "addr:postcode": "811214", "addr:street": "Station Road", "internet_access": "yes", "internet_access:fee": "no", "name": "Jamalpur Railway Station", "public_transport": "station", "railway": "station", "train": "yes"}}]}