{"version": 0.6, "generator": "Overpass API 0.7.62.8 e802775f", "osm3s": {"timestamp_osm_base": "2025-12-07T20:35:58Z", "copyright": "The data included in this document is from www.openstreetmap.org. The data is made available under ODbL."}, "elements": [{"type": "node", "id": 616563684, "lat": 28.6460886, "lon": 77.2070915, "tags": {"amenity": "atm"}}, {"type": "node", "id": 928563678, "lat": 28.6345525, "lon": 77.2176037, "tags": {"amenity": "atm", "brand": "HDFC Bank", "brand:en": "HDFC Bank", "brand:wikidata": "Q631047", "currency:INR": "yes", "drive_through": "no", "indoor": "yes", "level": "0", "name": "HDFC Bank", "note": "Contributors are requested to not edit the \"brand\", \"brand:en\", \"brand:wikidata\", \"operator\", \"operator:en\" and \"operator:wikidata\" tags. (2025/02/19)", "opening_hours": "24/7", "operator": "HDFC Bank", "operator:en": "HDFC Bank", "operator:wikidata": "Q631047", "short_name": "HDFC"}}, {"type": "node", "id": 1191294665, "lat": 28.6295368, "lon": 77.2163244}, {"type": "node", "id": 1191294674, "lat": 28.6297558, "lon": 77.2163324}, {"type": "node", "id": 1191294680, "lat": 28.6292449, "lon": 77.2165202}, {"type": "node", "id": 1191294693, "lat": 28.6296734, "lon": 77.2162815}, {"type": "node", "id": 1191294724, "lat": 28.6295368, "lon": 77.2168501}, {"type": "node", "id": 1191294731, "lat": 28.6296451, "lon": 77.2167804}, {"type": "node", "id": 1191294732, "lat": 28.6296169, "lon": 77.2167562}, {"type": "node", "id": 1191294736, "lat": 28.6295439, "lon": 77.2163485}, {"type": "node", "id": 1191294747, "lat": 28.6297275, "lon": 77.2163861}, {"type": "node", "id": 1191294755, "lat": 28.6298452, "lon": 77.2165551}, {"type": "node", "id": 1191294784, "lat": 28.6297958, "lon": 77.2164344}, {"type": "node", "id": 1191294807, "lat": 28.629186, "lon": 77.2165899}, {"type": "node", "id": 1191294817, "lat": 28.6292331, "lon": 77.2164987}, {"type": "node", "id": 1966254710, "lat": 28.6168137, "lon": 77.225608, "tags": {"amenity": "atm", "brand": "Andhra Bank", "brand:wikidata": "Q2003476", "operator": "Andhra Bank", "operator:wikidata": "Q2003476"}}, {"type": "node", "id": 2327524046, "lat": 28.6272942, "lon": 77.2195527, "tags": {"amenity": "atm", "brand": "Yes Bank", "brand:wikidata": "Q2040394", "name": "Yes Bank", "operator": "Yes Bank", "operator:wikidata": "Q2040394"}}, {"type": "node", "id": 2327524049, "lat": 28.6278063, "lon": 77.2195823, "tags": {"amenity": "atm", "brand": "Central Bank of India", "brand:wikidata": "Q2007090", "name": "Central Bank of India", "operator": "Central Bank of India", "operator:wikidata": "Q2007090"}}, {"type": "node", "id": 2327524052, "lat": 28.6286284, "lon": 77.2197267, "tags": {"amenity": "atm", "brand": "ICICI Bank", "brand:en": "ICICI Bank", "brand:wikidata": "Q1653258", "currency:INR": "yes", "drive_through": "no", "indoor": "yes", "name": "ICICI Bank", "note": "Contributors are requested to not edit the \"brand\", \"brand:en\", \"brand:wikidata\", \"operator\", \"operator:en\" and \"operator:wikidata\" tags. (2025/02/19)", "opening_hours": "24/7", "operator": "ICICI Bank", "operator:en": "ICICI Bank", "operator:wikidata": "Q1653258", "short_name": "ICICI"}}, {"type": "node", "id": 2410180164, "lat": 28.6261056, "lon": 77.2197715, "tags": {"amenity": "atm", "brand": "State Bank of India", "brand:en": "State Bank of India", "brand:wikidata": "Q1340361", "currency:INR": "yes", "drive_through": "no", "indoor": "yes", "name": "State Bank of India", "note": "Contributors are requested to not edit the \"brand\", \"brand:en\", \"brand:wikidata\", \"operator\", \"operator:en\" and \"operator:wikidata\" tags. (2025/02/19)", "opening_hours": "24/7", "operator": "State Bank of India", "operator:en": "State Bank of India", "operator:wikidata": "Q1340361", "short_name": "SBI"}}, {"type": "node", "id": 2569698442, "lat": 28.641178, "lon": 77.2106033, "tags": {"amenity": "atm"}}, {"type": "node", "id": 3085540679, "lat": 28.6168699, "lon": 77.225769, "tags": {"amenity": "bank", "brand": "Andhra Bank", "brand:wikidata": "Q2003476", "name": "Andhra Bank", "name:en": "Andhra Bank", "website": "https://www.andhrabank.in"}}, {"type": "node", "id": 3185191993, "lat": 28.6413641, "lon": 77.2152163, "tags": {"amenity": "atm", "brand": "Yes Bank", "brand:wikidata": "Q2040394", "name": "Yes Bank", "operator": "Yes Bank", "operator:wikidata": "Q2040394"}}, {"type": "node", "id": 3269421783, "lat": 28.6412802, "lon": 77.2147522, "tags": {"amenity": "atm", "brand": "Axis Bank", "brand:wikidata": "Q2003549", "check_date": "2022-07-07", "name": "AXIS Bank", "operator": "Axis Bank", "operator:wikidata": "Q2003549"}}, {"type": "node", "id": 3558023276, "lat": 28.6480185, "lon": 77.1997651}, {"type": "node", "id": 3558023277, "lat": 28.648042, "lon": 77.199711}, {"type": "node", "id": 3558023279, "lat": 28.6482206, "lon": 77.1997561}, {"type": "node", "id": 3558023282, "lat": 28.6482725, "lon": 77.1999926}, {"type": "node", "id": 3558023287, "lat": 28.6483813, "lon": 77.1998015}, {"type": "node", "id": 3558167298, "lat": 28.6438717, "lon": 77.2095022}, {"type": "node", "id": 3558167310, "lat": 28.6438973, "lon": 77.2093425}, {"type": "node", "id": 3558167345, "lat": 28.6439886, "lon": 77.2095266}, {"type": "node", "id": 3558167364, "lat": 28.6440143, "lon": 77.2093669}, {"type": "node", "id": 3813668638, "lat": 28.6319496, "lon": 77.2217935, "tags": {"amenity": "bank", "atm": "yes", "brand": "Federal Bank", "brand:wikidata": "Q2044983", "name": "Federal Bank", "name:en": "Federal Bank", "operator": "Federal Bank", "website": "https://www.federalbank.co.in"}}, {"type": "node", "id": 3813671938, "lat": 28.6322316, "lon": 77.2223143, "tags": {"amenity": "bank", "atm": "yes", "brand": "State Bank of India", "brand:wikidata": "Q1340361", "name": "State Bank of India", "short_name": "SBI"}}, {"type": "node", "id": 4122535796, "lat": 28.6316863, "lon": 77.2166292, "tags": {"amenity": "atm"}}, {"type": "node", "id": 4122549692, "lat": 28.6311221, "lon": 77.2164451, "tags": {"amenity": "atm", "brand": "Kotak Mahindra Bank", "brand:wikidata": "Q2040404", "name": "Kotak Mahindra Bank", "opening_hours": "24/7", "operator": "Kotak Mahindra Bank", "operator:wikidata": "Q2040404"}}, {"type": "node", "id": 4122549693, "lat": 28.6294722, "lon": 77.2129442, "tags": {"amenity": "bank", "branch": "Capital Point", "brand": "Ratnakar Bank Limited", "brand:short": "RNL Bank"}}, {"type": "node", "id": 4122549695, "lat": 28.6334535, "lon": 77.207037, "tags": {"amenity": "atm", "cash_in": "no", "check_date": "2025-06-08", "name": "IndusInd Bank"}}, {"type": "node", "id": 4122549792, "lat": 28.6321307, "lon": 77.2163119, "tags": {"amenity": "bank"}}, {"type": "node", "id": 4122564391, "lat": 28.6294413, "lon": 77.212874, "tags": {"amenity": "atm", "check_date": "2023-12-15"}}, {"type": "node", "id": 4122592290, "lat": 28.6333793, "lon": 77.2076665, "tags": {"amenity": "bank"}}, {"type": "node", "id": 4341161389, "lat": 28.6316411, "lon": 77.2215631, "tags": {"amenity": "bank", "brand": "Punjab National Bank", "brand:wikidata": "Q2743499", "name": "Punjab National Bank", "name:en": "Punjab National Bank", "short_name": "PNB", "website": "https://www.pnbindia.in"}}, {"type": "node", "id": 4351002694, "lat": 28.644321, "lon": 77.2151897, "tags": {"amenity": "atm", "brand": "Yes Bank", "brand:wikidata": "Q2040394", "operator": "Yes Bank", "operator:wikidata": "Q2040394"}}, {"type": "node", "id": 4373353502, "lat": 28.6453308, "lon": 77.211746, "tags": {"amenity": "atm"}}, {"type": "node", "id": 4385547591, "lat": 28.6135345, "lon": 77.2184328, "tags": {"amenity": "atm"}}, {"type": "node", "id": 4435749475, "lat": 28.6223326, "lon": 77.2361501, "tags": {"addr:city": "Delhi", "addr:housenumber": "6", "addr:postcode": "110001", "addr:street": "Bhagwan Das Road", "amenity": "bank", "atm": "yes", "brand": "Canara Bank", "brand:en": "Canara Bank", "brand:hi": "\u0915\u0947\u0928\u0930\u093e \u092c\u0948\u0902\u0915", "brand:kn": "\u0c95\u0cc6\u0ca8\u0cb0\u0cbe \u0cac\u0ccd\u0caf\u0cbe\u0c82\u0c95\u0ccd", "brand:pa": "\u0a15\u0a47\u0a28\u0a30\u0a3e \u0a2c\u0a48\u0a02\u0a15", "brand:pnb": "\u06a9\u06cc\u0646\u0631\u0627 \u0628\u06cc\u0646\u06a9", "brand:ur": "\u06a9\u06cc\u0646\u0631\u0627 \u0628\u06cc\u0646\u06a9", "brand:wikidata": "Q2003777", "brand:wikipedia": "en:Canara Bank", "brand:wikipedia:pa": "\u0a15\u0a47\u0a28\u0a30\u0a3e \u0a2c\u0a48\u0a02\u0a15", "description": "Has a wheelchair ramp.", "name": "Canara Bank", "name:en": "Canara Bank", "name:hi": "\u0915\u0947\u0928\u0930\u093e \u092c\u0948\u0902\u0915", "name:kn": "\u0c95\u0cc6\u0ca8\u0cb0\u0cbe \u0cac\u0ccd\u0caf\u0cbe\u0c82\u0c95\u0ccd", "name:pa": "\u0a15\u0a47\u0a28\u0a30\u0a3e \u0a2c\u0a48\u0a02\u0a15", "name:pnb": "\u06a9\u06cc\u0646\u0631\u0627 \u0628\u06cc\u0646\u06a9", "name:ur": "\u06a9\u06cc\u0646\u0631\u0627 \u0628\u06cc\u0646\u06a9", "opening_hours": "Mo-Sa 10:00-14:00,14:30-15:30; Sa[2,4] closed; PH closed", "website": "https://www.canarabank.com/"}}, {"type": "node", "id": 4507814689, "lat": 28.6437322, "lon": 77.2095729, "tags": {"amenity": "atm"}}, {"type": "node", "id": 4541197689, "lat": 28.6266262, "lon": 77.2145324, "tags": {"amenity": "bank", "atm": "yes", "branch": "New Delhi", "brand": "State Bank of India", "brand:wikidata": "Q1340361", "name": "State Bank of India", "name:en": "State Bank of India", "short_name": "SBI"}}, {"type": "node", "id": 4713325589, "lat": 28.6246459, "lon": 77.2053756, "tags": {"amenity": "atm", "brand": "State Bank of India", "brand:en": "State Bank of India", "brand:wikidata": "Q1340361", "currency:INR": "yes", "drive_through": "no", "indoor": "yes", "note": "Contributors are requested to not edit the \"brand\", \"brand:en\", \"brand:wikidata\", \"operator\", \"operator:en\" and \"operator:wikidata\" tags. (2025/02/19)", "opening_hours": "24/7", "operator": "State Bank of India", "operator:en": "State Bank of India", "operator:wikidata": "Q1340361", "short_name": "SBI"}}, {"type": "node", "id": 4907281021, "lat": 28.6425769, "lon": 77.2193166, "tags": {"amenity": "atm", "check_date": "2023-08-27", "operator": "Union Bank"}}, {"type": "node", "id": 4907281121, "lat": 28.6425338, "lon": 77.2193198, "tags": {"amenity": "atm", "brand": "Bank of Baroda", "brand:wikidata": "Q2003797", "check_date": "2023-08-27", "operator": "Bank of Baroda", "operator:wikidata": "Q2003797"}}, {"type": "node", "id": 5068217450, "lat": 28.6296084, "lon": 77.2241064, "tags": {"amenity": "bank", "atm": "yes", "brand": "Kotak Mahindra Bank", "brand:wikidata": "Q2040404", "name": "Kotak Mahindra Bank"}}, {"type": "node", "id": 5068217831, "lat": 28.6291812, "lon": 77.2248562, "tags": {"amenity": "bank", "atm": "yes", "branch": "Barakhamba Road", "brand": "ICICI Bank", "brand:wikidata": "Q1653258", "name": "ICICI Bank", "operator": "ICICI Bank", "short_name": "ICICI"}}, {"type": "node", "id": 5068220704, "lat": 28.6296576, "lon": 77.2239758, "tags": {"amenity": "bank", "atm": "yes", "brand": "Standard Chartered", "brand:wikidata": "Q548278", "name": "Standard Chartered"}}, {"type": "node", "id": 5068221030, "lat": 28.6298916, "lon": 77.2237716, "tags": {"amenity": "bank", "brand": "HSBC", "brand:wikidata": "Q190464", "level": "1", "name": "HSBC"}}, {"type": "node", "id": 5068221252, "lat": 28.630268, "lon": 77.2232644, "tags": {"amenity": "bank", "brand": "Punjab National Bank", "brand:wikidata": "Q2743499", "name": "Punjab National Bank"}}, {"type": "node", "id": 5068221949, "lat": 28.6305309, "lon": 77.222709, "tags": {"amenity": "bank", "atm": "yes", "brand": "Axis Bank", "brand:wikidata": "Q2003549", "name": "Axis Bank"}}, {"type": "node", "id": 5068239400, "lat": 28.6293464, "lon": 77.2239496, "tags": {"amenity": "bank", "name": "ICICI Mutual Funds"}}, {"type": "node", "id": 5232386531, "lat": 28.6225443, "lon": 77.2360014, "tags": {"amenity": "bank", "atm": "yes", "brand": "Syndicate Bank", "brand:wikidata": "Q2004088", "level": "1", "name": "Syndicate Bank"}}, {"type": "node", "id": 5277323960, "lat": 28.6312513, "lon": 77.2218705, "tags": {"addr:housenumber": "N-46", "addr:place": "Connaught Circus", "addr:postcode": "110001", "amenity": "bank", "atm": "yes", "brand": "Punjab National Bank", "brand:wikidata": "Q2743499", "name": "Punjab National Bank"}}, {"type": "node", "id": 5277324909, "lat": 28.6314468, "lon": 77.2205311, "tags": {"amenity": "bank", "atm": "yes", "brand": "Union Bank of India", "brand:wikidata": "Q2004078", "name": "Union Bank of India", "opening_hours": "24/7 \"atm\""}}, {"type": "node", "id": 5338583878, "lat": 28.6248302, "lon": 77.2029725, "tags": {"amenity": "atm", "brand": "State Bank", "opening_hours": "24/7"}}, {"type": "node", "id": 5338584664, "lat": 28.6249115, "lon": 77.2010875, "tags": {"amenity": "atm", "brand": "Bank of Baroda", "brand:wikidata": "Q2003797", "opening_hours": "24/7", "operator": "Bank of Baroda", "operator:wikidata": "Q2003797"}}, {"type": "node", "id": 5342150559, "lat": 28.6292586, "lon": 77.2326727, "tags": {"amenity": "atm", "branch": "Bengali Market", "brand": "Central Bank of India", "brand:wikidata": "Q2007090", "opening_hours": "24/7", "operator": "Central Bank of India", "operator:wikidata": "Q2007090"}}, {"type": "node", "id": 5345521629, "lat": 28.6215414, "lon": 77.2192588, "tags": {"amenity": "atm", "brand": "Union Bank of India", "brand:wikidata": "Q2004078", "operator": "Union Bank of India", "operator:wikidata": "Q2004078"}}, {"type": "node", "id": 5345531970, "lat": 28.6236459, "lon": 77.2193948, "tags": {"amenity": "atm", "brand": "Axis Bank", "brand:wikidata": "Q2003549", "name": "Axis Bank", "operator": "Axis Bank", "operator:wikidata": "Q2003549"}}, {"type": "node", "id": 5368454824, "lat": 28.62898, "lon": 77.2173598, "tags": {"amenity": "atm", "brand": "Bank of Baroda", "brand:wikidata": "Q2003797", "name": "Bank of Baroda", "operator": "Bank of Baroda", "operator:wikidata": "Q2003797"}}, {"type": "node", "id": 5368463121, "lat": 28.6289357, "lon": 77.2174179, "tags": {"amenity": "bank", "brand": "Bank of Baroda", "brand:wikidata": "Q2003797", "name": "Bank of Baroda"}}, {"type": "node", "id": 5368544822, "lat": 28.6325492, "lon": 77.2080312, "tags": {"amenity": "atm"}}, {"type": "node", "id": 5545575717, "lat": 28.632967, "lon": 77.2179001, "tags": {"addr:housename": "A", "addr:place": "Connaught Place", "addr:unit": "9", "amenity": "bank", "atm": "yes", "brand": "Punjab National Bank", "brand:wikidata": "Q2743499", "name": "Punjab National Bank"}}, {"type": "node", "id": 5577533598, "lat": 28.6325327, "lon": 77.2179816, "tags": {"addr:housename": "A", "amenity": "atm", "brand": "ICICI Bank", "brand:en": "ICICI Bank", "brand:wikidata": "Q1653258", "currency:INR": "yes", "drive_through": "no", "indoor": "yes", "name": "ICICI Bank", "note": "Contributors are requested to not edit the \"brand\", \"brand:en\", \"brand:wikidata\", \"operator\", \"operator:en\" and \"operator:wikidata\" tags. (2025/02/19)", "opening_hours": "24/7", "operator": "ICICI Bank", "operator:en": "ICICI Bank", "operator:wikidata": "Q1653258", "short_name": "ICICI"}}, {"type": "node", "id": 5577534202, "lat": 28.632608, "lon": 77.2179719, "tags": {"addr:housename": "A", "amenity": "bank", "brand": "ICICI Bank", "brand:wikidata": "Q1653258", "name": "ICICI Bank", "opening_hours": "Mo-Fr 08:00-20:00, 09:00-18:00; Sa 09:30-17:00; PH off; Sa[2,4] off", "short_name": "ICICI"}}, {"type": "node", "id": 5647754778, "lat": 28.6317679, "lon": 77.2220318, "tags": {"amenity": "atm", "brand": "Oriental Bank of Commerce", "brand:wikidata": "Q367008", "name": "Oriental Bank of Commerce", "operator": "Oriental Bank of Commerce", "operator:wikidata": "Q367008"}}, {"type": "node", "id": 5647754781, "lat": 28.6317429, "lon": 77.222079, "tags": {"amenity": "bank", "brand": "Oriental Bank of Commerce", "brand:wikidata": "Q367008", "name": "Oriental Bank of Commerce"}}, {"type": "node", "id": 5784312103, "lat": 28.6336342, "lon": 77.2169575, "tags": {"addr:block": "G", "addr:housenumber": "13", "addr:street": "D00", "amenity": "bank", "atm": "yes", "brand": "State Bank of India", "brand:wikidata": "Q1340361", "name": "State Bank of India", "opening_hours": "Mo-Sa 10:00-16:00; Sa[2, 4] closed", "short_name": "SBI"}}, {"type": "node", "id": 5790140091, "lat": 28.6326368, "lon": 77.2167019, "tags": {"amenity": "bank", "atm": "yes", "brand": "Kotak Mahindra Bank", "brand:wikidata": "Q2040404", "name": "Kotak Mahindra Bank"}}, {"type": "node", "id": 5790140153, "lat": 28.6329277, "lon": 77.2173766, "tags": {"amenity": "atm", "brand": "Standard Chartered", "brand:wikidata": "Q548278", "name": "Standard Chartered", "operator": "Standard Chartered", "operator:wikidata": "Q548278"}}, {"type": "node", "id": 5792048840, "lat": 28.6298283, "lon": 77.213752, "tags": {"amenity": "bank", "brand": "Citibank", "brand:wikidata": "Q857063", "name": "Citibank", "short_name": "Citi"}}, {"type": "node", "id": 5799061869, "lat": 28.6297605, "lon": 77.217177, "tags": {"amenity": "bank", "branch": "Parliament Street", "brand": "ICICI Bank", "brand:wikidata": "Q1653258", "name": "ICICI Bank", "opening_hours": "24/7", "short_name": "ICICI"}}, {"type": "node", "id": 5799061871, "lat": 28.6297028, "lon": 77.2171284, "tags": {"amenity": "atm", "brand": "State Bank of India", "brand:en": "State Bank of India", "brand:short": "SBI", "brand:wikidata": "Q1340361", "currency:INR": "yes", "drive_through": "no", "indoor": "yes", "name": "State Bank of India", "note": "Contributors are requested to not edit the \"brand\", \"brand:en\", \"brand:wikidata\", \"operator\", \"operator:en\" and \"operator:wikidata\" tags. (2025/02/19)", "opening_hours": "24/7", "operator": "State Bank of India", "operator:en": "State Bank of India", "operator:wikidata": "Q1340361", "short_name": "SBI"}}, {"type": "node", "id": 5810592534, "lat": 28.6344151, "lon": 77.2182933, "tags": {"amenity": "atm", "brand": "Bank of Baroda", "brand:wikidata": "Q2003797", "name": "Bank of Baroda", "operator": "Bank of Baroda", "operator:wikidata": "Q2003797"}}, {"type": "node", "id": 5810928928, "lat": 28.641708, "lon": 77.2048736, "tags": {"amenity": "atm", "brand": "Punjab National Bank", "brand:short": "PNB", "brand:wikidata": "Q2743499", "opening_hours": "24/7", "operator": "Punjab National Bank", "operator:wikidata": "Q2743499"}}, {"type": "node", "id": 5913957887, "lat": 28.6290782, "lon": 77.2202827, "tags": {"amenity": "bank"}}, {"type": "node", "id": 6053796783, "lat": 28.6442725, "lon": 77.2006899, "tags": {"amenity": "bank", "atm": "yes", "brand": "Yes Bank", "brand:wikidata": "Q2040394", "level": "0", "name": "Yes Bank", "wheelchair": "no"}}, {"type": "node", "id": 6053796784, "lat": 28.6441263, "lon": 77.2010453, "tags": {"amenity": "bank", "atm": "yes", "branch": "Ram Tirath Nagar", "branch:hi": "\u0930\u093e\u092e\u0924\u0940\u0930\u094d\u0925 \u0928\u0917\u0930", "brand": "Central Bank of India", "brand:wikidata": "Q2007090", "name": "Central Bank of India"}}, {"type": "node", "id": 6161686839, "lat": 28.6352021, "lon": 77.2184123, "tags": {"amenity": "atm", "brand": "Yes Bank", "brand:wikidata": "Q2040394", "indoor": "yes", "name": "Yes Bank", "operator": "Yes Bank", "operator:wikidata": "Q2040394"}}, {"type": "node", "id": 6161689894, "lat": 28.6353937, "lon": 77.2196262, "tags": {"amenity": "atm", "brand": "Punjab & Sind Bank", "brand:en": "Punjab & Sind Bank", "brand:hi": "\u092a\u0902\u091c\u093e\u092c \u090f\u0923\u094d\u0921 \u0938\u093f\u0902\u0927 \u092c\u0948\u0902\u0915", "brand:pa": "\u0a2a\u0a70\u0a1c\u0a3e\u0a2c \u0a10\u0a02\u0a21 \u0a38\u0a3f\u0a70\u0a27 \u0a2c\u0a48\u0a02\u0a15", "brand:ur": "\u067e\u0646\u062c\u0627\u0628 \u0627\u06cc\u0646\u0688 \u0633\u0646\u062f\u06be \u0628\u06cc\u0646\u06a9", "brand:website": "https://punjabandsindbank.co.in/", "brand:wikidata": "Q2003302", "indoor": "yes", "name": "Punjab & Sind Bank", "name:en": "Punjab & Sind Bank", "name:hi": "\u092a\u0902\u091c\u093e\u092c \u090f\u0923\u094d\u0921 \u0938\u093f\u0902\u0927 \u092c\u0948\u0902\u0915", "name:pa": "\u0a2a\u0a70\u0a1c\u0a3e\u0a2c \u0a10\u0a02\u0a21 \u0a38\u0a3f\u0a70\u0a27 \u0a2c\u0a48\u0a02\u0a15", "name:ur": "\u067e\u0646\u062c\u0627\u0628 \u0627\u06cc\u0646\u0688 \u0633\u0646\u062f\u06be \u0628\u06cc\u0646\u06a9", "operator": "Punjab & Sind Bank", "operator:wikidata": "Q2003302"}}, {"type": "node", "id": 6161690528, "lat": 28.6352636, "lon": 77.2186749, "tags": {"amenity": "atm", "brand": "Canara Bank", "brand:en": "Canara Bank", "brand:hi": "\u0915\u0947\u0928\u0930\u093e \u092c\u0948\u0902\u0915", "brand:kn": "\u0c95\u0cc6\u0ca8\u0cb0\u0cbe \u0cac\u0ccd\u0caf\u0cbe\u0c82\u0c95\u0ccd", "brand:pa": "\u0a15\u0a47\u0a28\u0a30\u0a3e \u0a2c\u0a48\u0a02\u0a15", "brand:pnb": "\u06a9\u06cc\u0646\u0631\u0627 \u0628\u06cc\u0646\u06a9", "brand:ur": "\u06a9\u06cc\u0646\u0631\u0627 \u0628\u06cc\u0646\u06a9", "brand:wikidata": "Q2003777", "indoor": "yes", "name": "Canara Bank", "name:en": "Canara Bank", "name:hi": "\u0915\u0947\u0928\u0930\u093e \u092c\u0948\u0902\u0915", "name:kn": "\u0c95\u0cc6\u0ca8\u0cb0\u0cbe \u0cac\u0ccd\u0caf\u0cbe\u0c82\u0c95\u0ccd", "name:pa": "\u0a15\u0a47\u0a28\u0a30\u0a3e \u0a2c\u0a48\u0a02\u0a15", "name:pnb": "\u06a9\u06cc\u0646\u0631\u0627 \u0628\u06cc\u0646\u06a9", "name:ur": "\u06a9\u06cc\u0646\u0631\u0627 \u0628\u06cc\u0646\u06a9", "opening_hours": "24/7", "operator": "Canara Bank", "operator:wikidata": "Q2003777"}}, {"type": "node", "id": 6161690589, "lat": 28.6351302, "lon": 77.2210229, "tags": {"addr:housenumber": "K-8", "addr:postcode": "110001", "addr:street": "Minto Road", "amenity": "bank", "atm": "yes", "branch": "Minto Road", "brand": "Punjab National Bank", "brand:short": "PNB", "brand:wikidata": "Q2743499", "name": "Punjab National Bank"}}, {"type": "node", "id": 6161690590, "lat": 28.6352779, "lon": 77.21853, "tags": {"amenity": "atm", "brand": "IndusInd Bank", "brand:wikidata": "Q2040323", "indoor": "yes", "level": "0", "name": "IndusInd Bank", "opening_hours": "24/7", "operator": "IndusInd Bank", "operator:wikidata": "Q2040323"}}, {"type": "node", "id": 6203987737, "lat": 28.6331482, "lon": 77.2197969, "tags": {"amenity": "atm", "brand": "State Bank of India", "brand:en": "State Bank of India", "brand:short": "SBI", "brand:wikidata": "Q1340361", "currency:INR": "yes", "drive_through": "no", "indoor": "yes", "name": "State Bank of India", "note": "Contributors are requested to not edit the \"brand\", \"brand:en\", \"brand:wikidata\", \"operator\", \"operator:en\" and \"operator:wikidata\" tags. (2025/02/19)", "opening_hours": "24/7", "operator": "State Bank of India", "operator:en": "State Bank of India", "operator:wikidata": "Q1340361", "short_name": "SBI"}}, {"type": "node", "id": 6278105486, "lat": 28.632874, "lon": 77.2220034, "tags": {"amenity": "atm", "brand": "Oriental Bank of Commerce", "brand:wikidata": "Q367008", "name": "Oriental Bank of Commerce", "operator": "Oriental Bank of Commerce", "operator:wikidata": "Q367008"}}, {"type": "node", "id": 6278725085, "lat": 28.6412994, "lon": 77.215302, "tags": {"amenity": "atm", "brand": "ICICI Bank", "brand:en": "ICICI Bank", "brand:wikidata": "Q1653258", "currency:INR": "yes", "drive_through": "no", "indoor": "yes", "note": "Contributors are requested to not edit the \"brand\", \"brand:en\", \"brand:wikidata\", \"operator\", \"operator:en\" and \"operator:wikidata\" tags. (2025/02/19)", "opening_hours": "24/7", "operator": "ICICI Bank", "operator:en": "ICICI Bank", "operator:wikidata": "Q1653258", "short_name": "ICICI"}}, {"type": "node", "id": 6288110428, "lat": 28.6293059, "lon": 77.2319758, "tags": {"amenity": "bank", "atm": "no", "branch": "Bengali Market", "brand": "HDFC Bank", "brand:wikidata": "Q631047", "name": "HDFC Bank", "short_name": "HDFC"}}, {"type": "node", "id": 6288110429, "lat": 28.6293002, "lon": 77.2319976, "tags": {"amenity": "atm", "brand": "HDFC Bank", "brand:en": "HDFC Bank", "brand:wikidata": "Q631047", "currency:INR": "yes", "drive_through": "no", "indoor": "yes", "note": "Contributors are requested to not edit the \"brand\", \"brand:en\", \"brand:wikidata\", \"operator\", \"operator:en\" and \"operator:wikidata\" tags. (2025/02/19)", "opening_hours": "24/7", "operator": "HDFC Bank", "operator:en": "HDFC Bank", "operator:wikidata": "Q631047", "short_name": "HDFC"}}, {"type": "node", "id": 6288110436, "lat": 28.6293094, "lon": 77.232467, "tags": {"amenity": "atm", "brand": "IndusInd Bank", "brand:wikidata": "Q2040323", "opening_hours": "24/7", "operator": "IndusInd Bank", "operator:wikidata": "Q2040323"}}, {"type": "node", "id": 6385537606, "lat": 28.6198985, "lon": 77.2106056, "tags": {"addr:city": "New Delhi", "amenity": "bank", "atm": "yes", "branch": "Raisina Road", "brand": "Canara Bank", "brand:en": "Canara Bank", "brand:hi": "\u0915\u0947\u0928\u0930\u093e \u092c\u0948\u0902\u0915", "brand:kn": "\u0c95\u0cc6\u0ca8\u0cb0\u0cbe \u0cac\u0ccd\u0caf\u0cbe\u0c82\u0c95\u0ccd", "brand:pa": "\u0a15\u0a47\u0a28\u0a30\u0a3e \u0a2c\u0a48\u0a02\u0a15", "brand:pnb": "\u06a9\u06cc\u0646\u0631\u0627 \u0628\u06cc\u0646\u06a9", "brand:ur": "\u06a9\u06cc\u0646\u0631\u0627 \u0628\u06cc\u0646\u06a9", "brand:wikidata": "Q2003777", "brand:wikipedia": "en:Canara Bank", "brand:wikipedia:pa": "\u0a15\u0a47\u0a28\u0a30\u0a3e \u0a2c\u0a48\u0a02\u0a15", "name": "Canara Bank", "name:en": "Canara Bank", "name:hi": "\u0915\u0947\u0928\u0930\u093e \u092c\u0948\u0902\u0915", "name:kn": "\u0c95\u0cc6\u0ca8\u0cb0\u0cbe \u0cac\u0ccd\u0caf\u0cbe\u0c82\u0c95\u0ccd", "name:pa": "\u0a15\u0a47\u0a28\u0a30\u0a3e \u0a2c\u0a48\u0a02\u0a15", "name:pnb": "\u06a9\u06cc\u0646\u0631\u0627 \u0628\u06cc\u0646\u06a9", "name:ur": "\u06a9\u06cc\u0646\u0631\u0627 \u0628\u06cc\u0646\u06a9"}}, {"type": "node", "id": 6470072750, "lat": 28.6229665, "lon": 77.211944, "tags": {"amenity": "bank", "atm": "yes", "branch": "Sansad Marg", "brand": "UCO Bank", "brand:wikidata": "Q2005310", "level": "0", "name": "UCO Bank"}}, {"type": "node", "id": 6470184614, "lat": 28.6175605, "lon": 77.2125512, "tags": {"amenity": "atm"}}, {"type": "node", "id": 6495330848, "lat": 28.6345172, "lon": 77.2195629, "tags": {"addr:housename": "B", "addr:place": "Connaught Place", "addr:postcode": "110001", "amenity": "bank", "atm": "yes", "branch": "Connaught Place", "brand": "Bank of Maharashtra", "brand:wikidata": "Q2004304", "level": "1", "name": "Bank of Maharashtra"}}, {"type": "node", "id": 6495330865, "lat": 28.6345008, "lon": 77.219561, "tags": {"addr:housename": "B", "addr:place": "Connaught Place", "addr:postcode": "110001", "amenity": "atm", "brand": "Bank of Maharashtra", "brand:wikidata": "Q2004304", "level": "0", "name": "Bank of Maharashtra", "opening_hours": "24/7", "operator": "Bank of Maharashtra", "operator:wikidata": "Q2004304", "wheelchair": "no"}}, {"type": "node", "id": 6507308684, "lat": 28.6413467, "lon": 77.2053065, "tags": {"amenity": "atm", "brand": "Punjab National Bank", "brand:wikidata": "Q2743499", "check_date": "2024-05-04", "level": "0", "name": "Punjab National Bank", "opening_hours": "24/7", "operator": "Punjab National Bank", "operator:wikidata": "Q2743499", "wheelchair": "yes"}}, {"type": "node", "id": 6539240961, "lat": 28.6248081, "lon": 77.2193721, "tags": {"amenity": "atm", "brand": "State Bank of India", "brand:en": "State Bank of India", "brand:wikidata": "Q1340361", "currency:INR": "yes", "drive_through": "no", "indoor": "yes", "name": "State Bank of India", "note": "Contributors are requested to not edit the \"brand\", \"brand:en\", \"brand:wikidata\", \"operator\", \"operator:en\" and \"operator:wikidata\" tags. (2025/02/19)", "opening_hours": "24/7", "operator": "State Bank of India", "operator:en": "State Bank of India", "operator:wikidata": "Q1340361", "short_name": "SBI"}}, {"type": "node", "id": 6676417797, "lat": 28.6307089, "lon": 77.222185, "tags": {"amenity": "atm"}}, {"type": "node", "id": 6832945794, "lat": 28.6347114, "lon": 77.2217366, "tags": {"amenity": "bank", "atm": "yes", "brand": "Saraswat Bank", "survey:date": "2023-01-24"}}, {"type": "node", "id": 7043007385, "lat": 28.6348608, "lon": 77.2186893, "tags": {"amenity": "bank", "branch": "Connaught Circus", "brand": "Bank of India", "brand:wikidata": "Q2004439", "indoor": "yes", "name": "Bank of India", "operator": "Bank of India", "operator:wikidata": "Q2004439"}}, {"type": "node", "id": 7109534085, "lat": 28.6412335, "lon": 77.2144015, "tags": {"amenity": "bank", "brand": "Western Union", "brand:wikidata": "Q861042", "name": "Western Union & Express Money"}}, {"type": "node", "id": 7130326685, "lat": 28.6417766, "lon": 77.2104626, "tags": {"amenity": "atm", "check_date": "2025-01-22"}}, {"type": "node", "id": 7263014446, "lat": 28.6294081, "lon": 77.2221975, "tags": {"amenity": "bank", "branch": "Kasturba Gandhi Marg", "brand": "HDFC Bank", "brand:wikidata": "Q631047", "name": "HDFC Bank", "short_name": "HDFC"}}, {"type": "node", "id": 8151219535, "lat": 28.6244261, "lon": 77.2197964, "tags": {"addr:city": "New Delhi", "addr:full": "Chander Lok, 36, Janpath Rd, Peeraghari, HC Mathur Lane, New Delhi, Delhi", "amenity": "bank", "name": "Chanderlok Building Bank Of India Govt Business Department"}}, {"type": "node", "id": 8151219537, "lat": 28.6241327, "lon": 77.2139025, "tags": {"addr:city": "New Delhi", "addr:full": "10, Jeevan Deep Building, Sansad Marg, Janpath, Connaught Place, New Delhi, Delhi", "amenity": "bank", "brand": "Indian Overseas Bank", "brand:wikidata": "Q2003611", "name": "Indian Overseas Bank"}}, {"type": "node", "id": 8475049880, "lat": 28.6243135, "lon": 77.2301541, "tags": {"amenity": "bank", "branch": "Feroze Shah Road", "brand": "UCO Bank", "brand:wikidata": "Q2005310", "name": "UCO Bank"}}, {"type": "node", "id": 8982433114, "lat": 28.6274298, "lon": 77.2198655, "tags": {"amenity": "bank", "brand": "Yes Bank", "brand:wikidata": "Q2040394", "name": "Yes Bank"}}, {"type": "node", "id": 8982438640, "lat": 28.6282217, "lon": 77.2198897, "tags": {"amenity": "bank", "branch": "Janpath", "brand": "Canara Bank", "brand:en": "Canara Bank", "brand:hi": "\u0915\u0947\u0928\u0930\u093e \u092c\u0948\u0902\u0915", "brand:kn": "\u0c95\u0cc6\u0ca8\u0cb0\u0cbe \u0cac\u0ccd\u0caf\u0cbe\u0c82\u0c95\u0ccd", "brand:pa": "\u0a15\u0a47\u0a28\u0a30\u0a3e \u0a2c\u0a48\u0a02\u0a15", "brand:pnb": "\u06a9\u06cc\u0646\u0631\u0627 \u0628\u06cc\u0646\u06a9", "brand:ur": "\u06a9\u06cc\u0646\u0631\u0627 \u0628\u06cc\u0646\u06a9", "brand:wikidata": "Q2003777", "name": "Canara Bank", "name:en": "Canara Bank", "name:hi": "\u0915\u0947\u0928\u0930\u093e \u092c\u0948\u0902\u0915", "name:kn": "\u0c95\u0cc6\u0ca8\u0cb0\u0cbe \u0cac\u0ccd\u0caf\u0cbe\u0c82\u0c95\u0ccd", "name:pa": "\u0a15\u0a47\u0a28\u0a30\u0a3e \u0a2c\u0a48\u0a02\u0a15", "name:pnb": "\u06a9\u06cc\u0646\u0631\u0627 \u0628\u06cc\u0646\u06a9", "name:ur": "\u06a9\u06cc\u0646\u0631\u0627 \u0628\u06cc\u0646\u06a9"}}, {"type": "node", "id": 9038318509, "lat": 28.6349683, "lon": 77.2190751, "tags": {"addr:block": "H", "addr:housenumber": "54", "amenity": "bank", "branch": "Connaught Circus", "brand": "Canara Bank", "brand:en": "Canara Bank", "brand:hi": "\u0915\u0947\u0928\u0930\u093e \u092c\u0948\u0902\u0915", "brand:kn": "\u0c95\u0cc6\u0ca8\u0cb0\u0cbe \u0cac\u0ccd\u0caf\u0cbe\u0c82\u0c95\u0ccd", "brand:pa": "\u0a15\u0a47\u0a28\u0a30\u0a3e \u0a2c\u0a48\u0a02\u0a15", "brand:pnb": "\u06a9\u06cc\u0646\u0631\u0627 \u0628\u06cc\u0646\u06a9", "brand:ur": "\u06a9\u06cc\u0646\u0631\u0627 \u0628\u06cc\u0646\u06a9", "brand:wikidata": "Q2003777", "name": "Canara Bank", "name:en": "Canara Bank", "name:hi": "\u0915\u0947\u0928\u0930\u093e \u092c\u0948\u0902\u0915", "name:kn": "\u0c95\u0cc6\u0ca8\u0cb0\u0cbe \u0cac\u0ccd\u0caf\u0cbe\u0c82\u0c95\u0ccd", "name:pa": "\u0a15\u0a47\u0a28\u0a30\u0a3e \u0a2c\u0a48\u0a02\u0a15", "name:pnb": "\u06a9\u06cc\u0646\u0631\u0627 \u0628\u06cc\u0646\u06a9", "name:ur": "\u06a9\u06cc\u0646\u0631\u0627 \u0628\u06cc\u0646\u06a9"}}, {"type": "node", "id": 9182111845, "lat": 28.6258863, "lon": 77.213853, "tags": {"amenity": "atm", "brand": "State Bank of India", "brand:en": "State Bank of India", "brand:wikidata": "Q1340361", "currency:INR": "yes", "drive_through": "no", "indoor": "yes", "level": "0", "note": "Contributors are requested to not edit the \"brand\", \"brand:en\", \"brand:wikidata\", \"operator\", \"operator:en\" and \"operator:wikidata\" tags. (2025/02/19)", "opening_hours": "24/7", "operator": "State Bank of India", "operator:en": "State Bank of India", "operator:wikidata": "Q1340361", "short_name": "SBI"}}, {"type": "node", "id": 9202231252, "lat": 28.6348369, "lon": 77.219416, "tags": {"amenity": "atm", "brand": "Canara Bank", "brand:en": "Canara Bank", "brand:hi": "\u0915\u0947\u0928\u0930\u093e \u092c\u0948\u0902\u0915", "brand:kn": "\u0c95\u0cc6\u0ca8\u0cb0\u0cbe \u0cac\u0ccd\u0caf\u0cbe\u0c82\u0c95\u0ccd", "brand:pa": "\u0a15\u0a47\u0a28\u0a30\u0a3e \u0a2c\u0a48\u0a02\u0a15", "brand:pnb": "\u06a9\u06cc\u0646\u0631\u0627 \u0628\u06cc\u0646\u06a9", "brand:ur": "\u06a9\u06cc\u0646\u0631\u0627 \u0628\u06cc\u0646\u06a9", "brand:wikidata": "Q2003777", "name": "Canara Bank", "name:en": "Canara Bank", "name:hi": "\u0915\u0947\u0928\u0930\u093e \u092c\u0948\u0902\u0915", "name:kn": "\u0c95\u0cc6\u0ca8\u0cb0\u0cbe \u0cac\u0ccd\u0caf\u0cbe\u0c82\u0c95\u0ccd", "name:pa": "\u0a15\u0a47\u0a28\u0a30\u0a3e \u0a2c\u0a48\u0a02\u0a15", "name:pnb": "\u06a9\u06cc\u0646\u0631\u0627 \u0628\u06cc\u0646\u06a9", "name:ur": "\u06a9\u06cc\u0646\u0631\u0627 \u0628\u06cc\u0646\u06a9", "operator": "Canara Bank", "operator:wikidata": "Q2003777", "wheelchair": "no"}}, {"type": "node", "id": 9202231254, "lat": 28.6348361, "lon": 77.2194004, "tags": {"amenity": "bank", "branch": "Super Bazar", "brand": "Canara Bank", "brand:en": "Canara Bank", "brand:hi": "\u0915\u0947\u0928\u0930\u093e \u092c\u0948\u0902\u0915", "brand:kn": "\u0c95\u0cc6\u0ca8\u0cb0\u0cbe \u0cac\u0ccd\u0caf\u0cbe\u0c82\u0c95\u0ccd", "brand:pa": "\u0a15\u0a47\u0a28\u0a30\u0a3e \u0a2c\u0a48\u0a02\u0a15", "brand:pnb": "\u06a9\u06cc\u0646\u0631\u0627 \u0628\u06cc\u0646\u06a9", "brand:ur": "\u06a9\u06cc\u0646\u0631\u0627 \u0628\u06cc\u0646\u06a9", "brand:wikidata": "Q2003777", "name": "Canara Bank", "name:en": "Canara Bank", "name:hi": "\u0915\u0947\u0928\u0930\u093e \u092c\u0948\u0902\u0915", "name:kn": "\u0c95\u0cc6\u0ca8\u0cb0\u0cbe \u0cac\u0ccd\u0caf\u0cbe\u0c82\u0c95\u0ccd", "name:pa": "\u0a15\u0a47\u0a28\u0a30\u0a3e \u0a2c\u0a48\u0a02\u0a15", "name:pnb": "\u06a9\u06cc\u0646\u0631\u0627 \u0628\u06cc\u0646\u06a9", "name:ur": "\u06a9\u06cc\u0646\u0631\u0627 \u0628\u06cc\u0646\u06a9", "wheelchair": "no"}}, {"type": "node", "id": 9212682332, "lat": 28.6315961, "lon": 77.2230605, "tags": {"amenity": "atm", "brand": "ICICI Bank", "brand:en": "ICICI Bank", "brand:wikidata": "Q1653258", "currency:INR": "yes", "drive_through": "no", "indoor": "yes", "name": "ICICI Bank", "note": "Contributors are requested to not edit the \"brand\", \"brand:en\", \"brand:wikidata\", \"operator\", \"operator:en\" and \"operator:wikidata\" tags. (2025/02/19)", "opening_hours": "24/7", "operator": "ICICI Bank", "operator:en": "ICICI Bank", "operator:wikidata": "Q1653258", "short_name": "ICICI"}}, {"type": "node", "id": 9212682333, "lat": 28.6316309, "lon": 77.2230707, "tags": {"amenity": "bank", "atm": "no", "branch": "Gopal Das, Connaught Place", "brand": "ICICI Bank", "brand:wikidata": "Q1653258", "name": "ICICI Bank", "short_name": "ICICI"}}, {"type": "node", "id": 9214974875, "lat": 28.6286587, "lon": 77.225828, "tags": {"amenity": "bank", "atm": "yes", "brand": "DCB Bank"}}, {"type": "node", "id": 9234669613, "lat": 28.629755, "lon": 77.220236, "tags": {"amenity": "bank", "brand": "Punjab & Sind Bank", "brand:en": "Punjab & Sind Bank", "brand:hi": "\u092a\u0902\u091c\u093e\u092c \u090f\u0923\u094d\u0921 \u0938\u093f\u0902\u0927 \u092c\u0948\u0902\u0915", "brand:pa": "\u0a2a\u0a70\u0a1c\u0a3e\u0a2c \u0a10\u0a02\u0a21 \u0a38\u0a3f\u0a70\u0a27 \u0a2c\u0a48\u0a02\u0a15", "brand:ur": "\u067e\u0646\u062c\u0627\u0628 \u0627\u06cc\u0646\u0688 \u0633\u0646\u062f\u06be \u0628\u06cc\u0646\u06a9", "brand:website": "https://punjabandsindbank.co.in/", "brand:wikidata": "Q2003302", "name": "Punjab & Sind Bank", "name:en": "Punjab & Sind Bank", "name:hi": "\u092a\u0902\u091c\u093e\u092c \u090f\u0923\u094d\u0921 \u0938\u093f\u0902\u0927 \u092c\u0948\u0902\u0915", "name:pa": "\u0a2a\u0a70\u0a1c\u0a3e\u0a2c \u0a10\u0a02\u0a21 \u0a38\u0a3f\u0a70\u0a27 \u0a2c\u0a48\u0a02\u0a15", "name:ur": "\u067e\u0646\u062c\u0627\u0628 \u0627\u06cc\u0646\u0688 \u0633\u0646\u062f\u06be \u0628\u06cc\u0646\u06a9"}}, {"type": "node", "id": 9234681886, "lat": 28.6303447, "lon": 77.2220792, "tags": {"addr:postcode": "110001", "amenity": "bank", "branch": "ECE House", "brand": "Punjab National Bank", "brand:wikidata": "Q2743499", "name": "Punjab National Bank"}}, {"type": "node", "id": 10230373027, "lat": 28.6313034, "lon": 77.1980381, "tags": {"amenity": "bank", "brand": "Bank of India", "brand:wikidata": "Q2004439", "name": "Bank of India"}}, {"type": "node", "id": 10235163930, "lat": 28.6322114, "lon": 77.2225531, "tags": {"amenity": "bank", "brand": "Federal Bank", "brand:wikidata": "Q2044983", "name": "Federal Bank"}}, {"type": "node", "id": 10235176416, "lat": 28.6292891, "lon": 77.2320215, "tags": {"amenity": "atm"}}, {"type": "node", "id": 10235180871, "lat": 28.6322127, "lon": 77.2226314, "tags": {"amenity": "atm"}}, {"type": "node", "id": 10235182960, "lat": 28.6292119, "lon": 77.2322425, "tags": {"amenity": "atm", "brand": "Kotak Mahindra Bank", "brand:wikidata": "Q2040404", "level": "0", "name": "Kotak Mahindra Bank", "operator": "Kotak Mahindra Bank", "operator:wikidata": "Q2040404", "wheelchair": "no"}}, {"type": "node", "id": 10924124859, "lat": 28.6325263, "lon": 77.2222745, "tags": {"amenity": "bank", "branch": "New Delhi Connaught Circus M-11", "brand": "Canara Bank", "brand:en": "Canara Bank", "brand:hi": "\u0915\u0947\u0928\u0930\u093e \u092c\u0948\u0902\u0915", "brand:kn": "\u0c95\u0cc6\u0ca8\u0cb0\u0cbe \u0cac\u0ccd\u0caf\u0cbe\u0c82\u0c95\u0ccd", "brand:pa": "\u0a15\u0a47\u0a28\u0a30\u0a3e \u0a2c\u0a48\u0a02\u0a15", "brand:pnb": "\u06a9\u06cc\u0646\u0631\u0627 \u0628\u06cc\u0646\u06a9", "brand:ur": "\u06a9\u06cc\u0646\u0631\u0627 \u0628\u06cc\u0646\u06a9", "brand:wikidata": "Q2003777", "name": "Canara Bank", "name:en": "Canara Bank", "name:hi": "\u0915\u0947\u0928\u0930\u093e \u092c\u0948\u0902\u0915", "name:kn": "\u0c95\u0cc6\u0ca8\u0cb0\u0cbe \u0cac\u0ccd\u0caf\u0cbe\u0c82\u0c95\u0ccd", "name:pa": "\u0a15\u0a47\u0a28\u0a30\u0a3e \u0a2c\u0a48\u0a02\u0a15", "name:pnb": "\u06a9\u06cc\u0646\u0631\u0627 \u0628\u06cc\u0646\u06a9", "name:ur": "\u06a9\u06cc\u0646\u0631\u0627 \u0628\u06cc\u0646\u06a9"}}, {"type": "node", "id": 10940744609, "lat": 28.6334701, "lon": 77.2196893, "tags": {"amenity": "atm", "brand": "Punjab National Bank", "brand:wikidata": "Q2743499", "level": "-1", "operator": "Punjab National Bank", "operator:wikidata": "Q2743499", "wheelchair": "yes"}}, {"type": "node", "id": 11204948057, "lat": 28.6299855, "lon": 77.2260606, "tags": {"amenity": "bank", "branch": "Mid Corporate Branch, Barakhamba Road", "brand": "Canara Bank", "brand:en": "Canara Bank", "brand:hi": "\u0915\u0947\u0928\u0930\u093e \u092c\u0948\u0902\u0915", "brand:kn": "\u0c95\u0cc6\u0ca8\u0cb0\u0cbe \u0cac\u0ccd\u0caf\u0cbe\u0c82\u0c95\u0ccd", "brand:pa": "\u0a15\u0a47\u0a28\u0a30\u0a3e \u0a2c\u0a48\u0a02\u0a15", "brand:pnb": "\u06a9\u06cc\u0646\u0631\u0627 \u0628\u06cc\u0646\u06a9", "brand:ur": "\u06a9\u06cc\u0646\u0631\u0627 \u0628\u06cc\u0646\u06a9", "brand:wikidata": "Q2003777", "name": "Canara Bank", "name:en": "Canara Bank", "name:hi": "\u0915\u0947\u0928\u0930\u093e \u092c\u0948\u0902\u0915", "name:kn": "\u0c95\u0cc6\u0ca8\u0cb0\u0cbe \u0cac\u0ccd\u0caf\u0cbe\u0c82\u0c95\u0ccd", "name:pa": "\u0a15\u0a47\u0a28\u0a30\u0a3e \u0a2c\u0a48\u0a02\u0a15", "name:pnb": "\u06a9\u06cc\u0646\u0631\u0627 \u0628\u06cc\u0646\u06a9", "name:ur": "\u06a9\u06cc\u0646\u0631\u0627 \u0628\u06cc\u0646\u06a9"}}, {"type": "node", "id": 11443161937, "lat": 28.6323421, "lon": 77.2192589, "tags": {"amenity": "atm", "brand": "State Bank of India", "brand:en": "State Bank of India", "brand:wikidata": "Q1340361", "currency:INR": "yes", "drive_through": "no", "indoor": "yes", "note": "Contributors are requested to not edit the \"brand\", \"brand:en\", \"brand:wikidata\", \"operator\", \"operator:en\" and \"operator:wikidata\" tags. (2025/02/19)", "opening_hours": "24/7", "operator": "State Bank of India", "operator:en": "State Bank of India", "operator:wikidata": "Q1340361", "short_name": "SBI"}}, {"type": "node", "id": 11449298397, "lat": 28.6316678, "lon": 77.216355, "tags": {"amenity": "atm", "brand": "State Bank of India", "brand:en": "State Bank of India", "brand:wikidata": "Q1340361", "currency:INR": "yes", "drive_through": "no", "indoor": "yes", "level": "0", "note": "Contributors are requested to not edit the \"brand\", \"brand:en\", \"brand:wikidata\", \"operator\", \"operator:en\" and \"operator:wikidata\" tags. (2025/02/19)", "opening_hours": "24/7", "operator": "State Bank of India", "operator:en": "State Bank of India", "operator:wikidata": "Q1340361", "short_name": "SBI", "wheelchair": "no"}}, {"type": "node", "id": 11449298398, "lat": 28.6317223, "lon": 77.216345, "tags": {"amenity": "bank", "branch": "P Block, Connaught Circus", "brand": "State Bank of India", "brand:wikidata": "Q1340361", "name": "State Bank of India", "short_name": "SBI"}}, {"type": "node", "id": 11637330958, "lat": 28.6336824, "lon": 77.2169663, "tags": {"addr:postcode": "110001", "amenity": "bank", "branch": "Connaught Place", "brand": "Karnataka Bank", "brand:wikidata": "Q2042632", "name": "Karnataka Bank"}}, {"type": "node", "id": 11637338912, "lat": 28.6349355, "lon": 77.2189047, "tags": {"addr:block": "H", "addr:housenumber": "2", "amenity": "bank", "atm": "yes", "branch": "Connaught Circus", "brand": "Bank of India", "brand:wikidata": "Q2004439", "name": "Bank of India"}}, {"type": "node", "id": 11637338914, "lat": 28.6346813, "lon": 77.2183109, "tags": {"addr:block": "H", "addr:housename": "Tropical Building", "addr:housenumber": "22", "amenity": "bank", "branch": "Connaught Circus", "brand": "Punjab National Bank", "brand:wikidata": "Q2743499", "name": "Punjab National Bank"}}, {"type": "node", "id": 11637354349, "lat": 28.6329073, "lon": 77.216686, "tags": {"amenity": "bank", "branch": "Connaught Place", "brand": "Bank of Baroda", "brand:wikidata": "Q2003797", "name": "Bank of Baroda"}}, {"type": "node", "id": 11637365580, "lat": 28.6327615, "lon": 77.2166213, "tags": {"addr:block": "G", "addr:housenumber": "36", "addr:street": "D00", "amenity": "bank", "atm": "yes", "brand": "CSB Bank", "brand:wikidata": "Q5053244", "name": "CSB Bank", "official_name": "Catholic Syrian Bank", "opening_hours": "Mo-Fr 09:30-16:00"}}, {"type": "node", "id": 11795618864, "lat": 28.6286352, "lon": 77.2197381, "tags": {"amenity": "bank", "brand": "ICICI Bank", "brand:wikidata": "Q1653258", "name": "ICICI Bank", "opening_hours": "Mo-Sa 09:30-15:00", "short_name": "ICICI"}}, {"type": "node", "id": 11799184121, "lat": 28.6328496, "lon": 77.2227651, "tags": {"amenity": "bank", "brand": "HDFC Bank", "brand:wikidata": "Q631047", "name": "HDFC Bank", "short_name": "HDFC"}}, {"type": "node", "id": 11799184124, "lat": 28.6327451, "lon": 77.2227537, "tags": {"amenity": "bank", "brand": "Union Bank of India", "brand:wikidata": "Q2004078", "name": "Union Bank of India"}}, {"type": "node", "id": 11799187510, "lat": 28.6444389, "lon": 77.2004624, "tags": {"amenity": "bank", "atm": "yes", "branch": "Jhandewalan", "brand": "HDFC Bank", "brand:wikidata": "Q631047", "level": "0", "name": "HDFC Bank", "short_name": "HDFC", "wheelchair": "no"}}, {"type": "node", "id": 11827370421, "lat": 28.6326523, "lon": 77.2219806, "tags": {"amenity": "atm", "brand": "Punjab National Bank", "brand:wikidata": "Q2743499", "name": "Punjab National Bank", "operator": "Punjab National Bank", "operator:wikidata": "Q2743499"}}, {"type": "node", "id": 11833042045, "lat": 28.6459492, "lon": 77.209867, "tags": {"amenity": "bank", "brand": "Punjab National Bank", "brand:wikidata": "Q2743499", "name": "Punjab National Bank"}}, {"type": "node", "id": 11868892365, "lat": 28.6300407, "lon": 77.2254919, "tags": {"amenity": "bank", "atm": "yes", "branch": "Barakhamba Road, New Delhi", "brand": "State Bank of India", "brand:wikidata": "Q1340361", "level": "0", "name": "State Bank of India", "short_name": "SBI"}}, {"type": "node", "id": 11868892367, "lat": 28.6299332, "lon": 77.2258282, "tags": {"amenity": "bank", "atm": "yes", "branch": "Barakhamba Road, New Delhi", "brand": "HDFC Bank", "brand:wikidata": "Q631047", "level": "0", "name": "HDFC Bank", "short_name": "HDFC"}}, {"type": "node", "id": 11868931767, "lat": 28.6290813, "lon": 77.2249334, "tags": {"amenity": "bank", "atm": "yes", "branch": "Barakhamba Road", "brand": "Canara Bank", "brand:en": "Canara Bank", "brand:hi": "\u0915\u0947\u0928\u0930\u093e \u092c\u0948\u0902\u0915", "brand:kn": "\u0c95\u0cc6\u0ca8\u0cb0\u0cbe \u0cac\u0ccd\u0caf\u0cbe\u0c82\u0c95\u0ccd", "brand:pa": "\u0a15\u0a47\u0a28\u0a30\u0a3e \u0a2c\u0a48\u0a02\u0a15", "brand:pnb": "\u06a9\u06cc\u0646\u0631\u0627 \u0628\u06cc\u0646\u06a9", "brand:ur": "\u06a9\u06cc\u0646\u0631\u0627 \u0628\u06cc\u0646\u06a9", "brand:wikidata": "Q2003777", "level": "0", "name": "Canara Bank", "name:en": "Canara Bank", "name:hi": "\u0915\u0947\u0928\u0930\u093e \u092c\u0948\u0902\u0915", "name:kn": "\u0c95\u0cc6\u0ca8\u0cb0\u0cbe \u0cac\u0ccd\u0caf\u0cbe\u0c82\u0c95\u0ccd", "name:pa": "\u0a15\u0a47\u0a28\u0a30\u0a3e \u0a2c\u0a48\u0a02\u0a15", "name:pnb": "\u06a9\u06cc\u0646\u0631\u0627 \u0628\u06cc\u0646\u06a9", "name:ur": "\u06a9\u06cc\u0646\u0631\u0627 \u0628\u06cc\u0646\u06a9"}}, {"type": "node", "id": 11868985155, "lat": 28.6290137, "lon": 77.2252225, "tags": {"amenity": "bank", "atm": "yes", "branch": "Barakhamba Road", "level": "0", "name": "Aditya Birla Capital"}}, {"type": "node", "id": 11868985156, "lat": 28.6288659, "lon": 77.2256733, "tags": {"amenity": "bank", "atm": "yes", "branch": "Barakhamba Road", "brand": "RBL Bank", "brand:wikidata": "Q13120398", "level": "0", "name": "RBL Bank"}}, {"type": "node", "id": 11868985169, "lat": 28.6291263, "lon": 77.2249525, "tags": {"amenity": "bank", "atm": "yes", "branch": "Barakhamba Road", "brand": "Dhanlaxmi Bank", "brand:wikidata": "Q2040440", "level": "0", "name": "Dhanlaxmi Bank"}}, {"type": "node", "id": 11959841125, "lat": 28.645047, "lon": 77.2012362, "tags": {"amenity": "bank", "atm": "no", "brand": "ICICI Bank", "brand:wikidata": "Q1653258", "level": "1", "name": "ICICI Bank", "operator": "ICICI Securities Limited", "short_name": "ICICI", "wheelchair": "no"}}, {"type": "node", "id": 11971462027, "lat": 28.6439521, "lon": 77.2013826, "tags": {"amenity": "bank", "atm": "yes", "branch": "Jhandewalan", "brand": "ICICI Bank", "brand:wikidata": "Q1653258", "level": "0", "name": "ICICI Bank", "short_name": "ICICI", "wheelchair": "no"}}, {"type": "node", "id": 11971465780, "lat": 28.64426, "lon": 77.2014351, "tags": {"amenity": "bank", "atm": "yes", "branch": "Jhandewalan Extension", "brand": "Bank of Baroda", "brand:wikidata": "Q2003797", "level": "0", "name": "Bank of Baroda", "wheelchair": "no"}}, {"type": "node", "id": 11985483788, "lat": 28.6290511, "lon": 77.2323216, "tags": {"amenity": "atm", "brand": "Punjab National Bank", "brand:wikidata": "Q2743499", "level": "0", "name": "Punjab National Bank", "operator": "Punjab National Bank", "operator:wikidata": "Q2743499"}}, {"type": "node", "id": 12016200924, "lat": 28.6429636, "lon": 77.2217381, "tags": {"amenity": "atm", "brand": "Indian Bank", "brand:wikidata": "Q2003789", "level": "0", "name": "Indian Bank", "operator": "Indian Bank", "operator:wikidata": "Q2003789", "wheelchair": "yes"}}, {"type": "node", "id": 12016200928, "lat": 28.642959, "lon": 77.221716, "tags": {"amenity": "atm", "brand": "State Bank of India", "brand:en": "State Bank of India", "brand:wikidata": "Q1340361", "currency:INR": "yes", "drive_through": "no", "indoor": "yes", "level": "0", "name": "State Bank of India", "note": "Contributors are requested to not edit the \"brand\", \"brand:en\", \"brand:wikidata\", \"operator\", \"operator:en\" and \"operator:wikidata\" tags. (2025/02/19)", "opening_hours": "24/7", "operator": "State Bank of India", "operator:en": "State Bank of India", "operator:wikidata": "Q1340361", "short_name": "SBI", "wheelchair": "yes"}}, {"type": "node", "id": 12016200929, "lat": 28.6429654, "lon": 77.2217571, "tags": {"amenity": "atm", "brand": "Canara Bank", "brand:en": "Canara Bank", "brand:hi": "\u0915\u0947\u0928\u0930\u093e \u092c\u0948\u0902\u0915", "brand:kn": "\u0c95\u0cc6\u0ca8\u0cb0\u0cbe \u0cac\u0ccd\u0caf\u0cbe\u0c82\u0c95\u0ccd", "brand:pa": "\u0a15\u0a47\u0a28\u0a30\u0a3e \u0a2c\u0a48\u0a02\u0a15", "brand:pnb": "\u06a9\u06cc\u0646\u0631\u0627 \u0628\u06cc\u0646\u06a9", "brand:ur": "\u06a9\u06cc\u0646\u0631\u0627 \u0628\u06cc\u0646\u06a9", "brand:wikidata": "Q2003777", "level": "0", "name": "Canara Bank", "name:en": "Canara Bank", "name:hi": "\u0915\u0947\u0928\u0930\u093e \u092c\u0948\u0902\u0915", "name:kn": "\u0c95\u0cc6\u0ca8\u0cb0\u0cbe \u0cac\u0ccd\u0caf\u0cbe\u0c82\u0c95\u0ccd", "name:pa": "\u0a15\u0a47\u0a28\u0a30\u0a3e \u0a2c\u0a48\u0a02\u0a15", "name:pnb": "\u06a9\u06cc\u0646\u0631\u0627 \u0628\u06cc\u0646\u06a9", "name:ur": "\u06a9\u06cc\u0646\u0631\u0627 \u0628\u06cc\u0646\u06a9", "operator": "Canara Bank", "operator:wikidata": "Q2003777", "wheelchair": "yes"}}, {"type": "node", "id": 12054396922, "lat": 28.63814, "lon": 77.2109771, "tags": {"amenity": "bank", "atm": "no", "brand": "HDFC Bank", "brand:wikidata": "Q631047", "level": "1", "name": "HDFC Bank", "short_name": "HDFC"}}, {"type": "node", "id": 12065399324, "lat": 28.6339108, "lon": 77.2215847, "tags": {"amenity": "bank", "branch": "Connaught Place", "brand": "South Indian Bank", "brand:wikidata": "Q2044973", "name": "South Indian Bank", "wheelchair": "no"}}, {"type": "node", "id": 12065399335, "lat": 28.6338797, "lon": 77.2215478, "tags": {"amenity": "atm", "brand": "South Indian Bank", "brand:wikidata": "Q2044973", "level": "0", "operator": "South Indian Bank", "operator:wikidata": "Q2044973", "wheelchair": "no"}}, {"type": "node", "id": 12092828103, "lat": 28.6325936, "lon": 77.2167018, "tags": {"addr:city": "New Delhi", "addr:neighbourhood": "Connaught Circus", "addr:postcode": "110001", "addr:unit": "H-2", "amenity": "bank", "branch": "New Delhi overseas", "brand": "Bank of India", "brand:wikidata": "Q2004439", "level": "0", "name": "Bank of India"}}, {"type": "node", "id": 12092828928, "lat": 28.6325537, "lon": 77.216701, "tags": {"addr:city": "New Delhi", "amenity": "bank", "branch": "New Delhi", "brand": "Indian Bank", "brand:wikidata": "Q2003789", "level": "0", "name": "Indian Bank"}}, {"type": "node", "id": 12092831604, "lat": 28.6324968, "lon": 77.2167179, "tags": {"addr:city": "New Delhi", "amenity": "bank", "branch": "Connaught Place", "level": "0", "name": "J&K Bank"}}, {"type": "node", "id": 12092832041, "lat": 28.6324472, "lon": 77.2167369, "tags": {"addr:city": "New Delhi", "amenity": "bank", "branch": "Connaught Circus", "brand": "Central Bank of India", "brand:wikidata": "Q2007090", "level": "0", "name": "Central Bank of India"}}, {"type": "node", "id": 12092960608, "lat": 28.6150204, "lon": 77.2267761, "tags": {"description": "For reliable and prompt support, visit Pin-Up Casino's customer support. Available 24/7 via live chat, email, or phone, their knowledgeable and friendly staff ensure your issues are resolved quickly and efficiently.", "name": "Casino Pin Up", "website": "https://pin-up-win.in/customer-support/"}}, {"type": "node", "id": 12098494670, "lat": 28.6329143, "lon": 77.2221806, "tags": {"amenity": "bank", "atm": "yes", "branch": "Rajiv Circle", "brand": "Indian Overseas Bank", "brand:wikidata": "Q2003611", "level": "0;1", "name": "Indian Overseas Bank", "wheelchair": "yes"}}, {"type": "node", "id": 12586887172, "lat": 28.6235066, "lon": 77.211871, "tags": {"amenity": "bank", "atm": "yes", "branch": "Sansad Marg", "brand": "Punjab National Bank", "level": "0", "name": "Punjab National Bank"}}, {"type": "node", "id": 12833498600, "lat": 28.639392, "lon": 77.2084666, "tags": {"amenity": "bank", "atm": "yes", "branch": "Ramakrishna Ashram Marg Metro Station", "brand": "State Bank of India", "level": "0", "name": "State Bank of India", "opening_hours": "Mo-Fr 10:00-16:00", "short_name": "SBI"}}, {"type": "node", "id": 12896559008, "lat": 28.6328593, "lon": 77.2086314, "tags": {"amenity": "bank", "brand": "Indian Overseas Bank", "name": "Indian Overseas Bank"}}, {"type": "node", "id": 12896559010, "lat": 28.6330762, "lon": 77.2086634, "tags": {"amenity": "bank", "brand": "Canara Bank", "brand:en": "Canara Bank", "brand:hi": "\u0915\u0947\u0928\u0930\u093e \u092c\u0948\u0902\u0915", "brand:kn": "\u0c95\u0cc6\u0ca8\u0cb0\u0cbe \u0cac\u0ccd\u0caf\u0cbe\u0c82\u0c95\u0ccd", "brand:pa": "\u0a15\u0a47\u0a28\u0a30\u0a3e \u0a2c\u0a48\u0a02\u0a15", "brand:pnb": "\u06a9\u06cc\u0646\u0631\u0627 \u0628\u06cc\u0646\u06a9", "brand:ur": "\u06a9\u06cc\u0646\u0631\u0627 \u0628\u06cc\u0646\u06a9", "name": "Canara Bank", "name:en": "Canara Bank", "name:hi": "\u0915\u0947\u0928\u0930\u093e \u092c\u0948\u0902\u0915", "name:kn": "\u0c95\u0cc6\u0ca8\u0cb0\u0cbe \u0cac\u0ccd\u0caf\u0cbe\u0c82\u0c95\u0ccd", "name:pa": "\u0a15\u0a47\u0a28\u0a30\u0a3e \u0a2c\u0a48\u0a02\u0a15", "name:pnb": "\u06a9\u06cc\u0646\u0631\u0627 \u0628\u06cc\u0646\u06a9", "name:ur": "\u06a9\u06cc\u0646\u0631\u0627 \u0628\u06cc\u0646\u06a9"}}, {"type": "node", "id": 12896559013, "lat": 28.6327401, "lon": 77.2086242, "tags": {"amenity": "bank", "brand": "Central Bank of India", "name": "Central Bank of India"}}, {"type": "node", "id": 12896559014, "lat": 28.633125, "lon": 77.2086705, "tags": {"amenity": "bank", "brand": "ICICI Bank", "name": "ICICI Bank", "short_name": "ICICI"}}, {"type": "node", "id": 12896559015, "lat": 28.6328172, "lon": 77.2086299, "tags": {"amenity": "bank", "brand": "State Bank of India", "name": "State Bank of India (Global)", "short_name": "SBI"}}, {"type": "node", "id": 12896559016, "lat": 28.632595, "lon": 77.2086075, "tags": {"amenity": "bank", "brand": "Axis Bank", "name": "Axis Bank"}}, {"type": "node", "id": 12977760916, "lat": 28.6308652, "lon": 77.2203632, "tags": {"amenity": "bank", "brand": "Canara Bank", "brand:en": "Canara Bank", "brand:hi": "\u0915\u0947\u0928\u0930\u093e \u092c\u0948\u0902\u0915", "brand:kn": "\u0c95\u0cc6\u0ca8\u0cb0\u0cbe \u0cac\u0ccd\u0caf\u0cbe\u0c82\u0c95\u0ccd", "brand:pa": "\u0a15\u0a47\u0a28\u0a30\u0a3e \u0a2c\u0a48\u0a02\u0a15", "brand:pnb": "\u06a9\u06cc\u0646\u0631\u0627 \u0628\u06cc\u0646\u06a9", "brand:ur": "\u06a9\u06cc\u0646\u0631\u0627 \u0628\u06cc\u0646\u06a9", "name": "Canara Bank", "name:en": "Canara Bank", "name:hi": "\u0915\u0947\u0928\u0930\u093e \u092c\u0948\u0902\u0915", "name:kn": "\u0c95\u0cc6\u0ca8\u0cb0\u0cbe \u0cac\u0ccd\u0caf\u0cbe\u0c82\u0c95\u0ccd", "name:pa": "\u0a15\u0a47\u0a28\u0a30\u0a3e \u0a2c\u0a48\u0a02\u0a15", "name:pnb": "\u06a9\u06cc\u0646\u0631\u0627 \u0628\u06cc\u0646\u06a9", "name:ur": "\u06a9\u06cc\u0646\u0631\u0627 \u0628\u06cc\u0646\u06a9", "operator": "Canara Bank", "operator:wikidata": "Q2003777"}}, {"type": "node", "id": 13020659666, "lat": 28.6368318, "lon": 77.2249161, "tags": {"amenity": "atm"}}, {"type": "node", "id": 13358572980, "lat": 28.6341907, "lon": 77.2177562, "tags": {"amenity": "atm", "brand": "UCO Bank", "operator": "UCO Bank", "operator:wikidata": "Q2005310"}}, {"type": "node", "id": 13358572983, "lat": 28.6342088, "lon": 77.2177456, "tags": {"amenity": "bank", "branch": "Connaught Place", "brand": "UCO Bank", "name": "UCO Bank"}}, {"type": "node", "id": 13358572985, "lat": 28.6323003, "lon": 77.2219381, "tags": {"amenity": "bank", "branch:type": "Wholesale banking operations", "brand": "HDFC Bank", "name": "HDFC Bank", "short_name": "HDFC"}}, {"type": "node", "id": 13358572987, "lat": 28.6344003, "lon": 77.2182706, "tags": {"addr:block": "B", "addr:city": "New Delhi", "addr:housenumber": "3", "amenity": "bank", "branch": "Connaught Circus", "brand": "Bank of Baroda", "level": "0", "name": "Bank of Baroda", "wheelchair": "no"}}, {"type": "node", "id": 13358572993, "lat": 28.6349064, "lon": 77.2184207, "tags": {"addr:block": "H", "addr:city": "New Delhi", "addr:housenumber": "22", "addr:suburb": "Connaught Circus", "amenity": "bank", "brand": "Punjab National Bank", "level": "0", "name": "Punjab National Bank"}}, {"type": "node", "id": 13358614005, "lat": 28.6277225, "lon": 77.2220165, "tags": {"amenity": "atm", "branch": "K.G. Marg", "brand": "State Bank of India", "level": "0", "operator": "State Bank of India", "operator:wikidata": "Q1340361"}}, {"type": "node", "id": 13358614009, "lat": 28.6277525, "lon": 77.2219948, "tags": {"amenity": "bank", "branch": "K.G. Marg", "brand": "State Bank of India", "level": "0", "name": "State Bank of India", "short_name": "SBI"}}, {"type": "way", "id": 103176778, "nodes": [1191294693, 1191294736, 1191294665, 1191294817, 1191294680, 1191294807, 1191294724, 1191294732, 1191294731, 1191294755, 1191294784, 1191294747, 1191294674, 1191294693], "tags": {"amenity": "bank", "brand": "Indian Bank", "brand:wikidata": "Q2003789", "building": "yes", "name": "Indian Bank"}}, {"type": "way", "id": 350043267, "nodes": [3558023287, 3558023282, 3558023276, 3558023277, 3558023279, 3558023287], "tags": {"amenity": "bank", "brand": "Union Bank of India", "brand:wikidata": "Q2004078", "building": "yes", "name": "Union Bank of India"}}, {"type": "way", "id": 350062917, "nodes": [3558167364, 3558167345, 3558167298, 3558167310, 3558167364], "tags": {"amenity": "bank", "brand": "Kotak Mahindra Bank", "brand:wikidata": "Q2040404", "building": "yes", "name": "Kotak Mahindra Bank"}}, {"type": "relation", "id": 17908979, "members": [{"type": "node", "ref": 12092960608, "role": "Casino"}], "tags": {"amenity": "bank", "building": "yes", "type": "multipolygon"}}]}