{"version": 0.6, "generator": "Overpass API 0.7.62.8 e802775f", "osm3s": {"timestamp_osm_base": "2025-12-07T21:17:00Z", "copyright": "The data included in this document is from www.openstreetmap.org. The data is made available under ODbL."}, "elements": [{"type": "node", "id": 266734361, "lat": 28.4113681, "lon": 77.0432317, "tags": {"amenity": "fast_food", "brand": "Domino's", "brand:ks": "\u0688\u0648\u0645\u06cc\u0646\u0648\u0632", "brand:pa": "\u0a21\u0a4b\u0a2e\u0a40\u0a28\u0a4b\u0a1c\u0a3c", "brand:ur": "\u0688\u0648\u0645\u06cc\u0646\u0648\u0632", "brand:wikidata": "Q839466", "brand:wikipedia": "en:Domino's Pizza", "name": "Domino's", "name:ks": "\u0688\u0648\u0645\u06cc\u0646\u0648\u0632", "name:pa": "\u0a21\u0a4b\u0a2e\u0a40\u0a28\u0a4b\u0a1c\u0a3c", "name:ur": "\u0688\u0648\u0645\u06cc\u0646\u0648\u0632"}}, {"type": "node", "id": 296341340, "lat": 28.4106834, "lon": 77.0431666, "tags": {"amenity": "fast_food", "name": "Nirula's"}}, {"type": "node", "id": 1351283175, "lat": 28.417164, "lon": 77.046696, "tags": {"amenity": "restaurant"}}, {"type": "node", "id": 1351285800, "lat": 28.417432, "lon": 77.050984, "tags": {"amenity": "fast_food"}}, {"type": "node", "id": 3557531578, "lat": 28.4269133, "lon": 77.0570961}, {"type": "node", "id": 3557531592, "lat": 28.4269695, "lon": 77.0570466}, {"type": "node", "id": 3557531702, "lat": 28.4270157, "lon": 77.0572114}, {"type": "node", "id": 3557531708, "lat": 28.4270384, "lon": 77.0570354}, {"type": "node", "id": 3557531720, "lat": 28.4271028, "lon": 77.057213}, {"type": "node", "id": 3557531723, "lat": 28.4271184, "lon": 77.0570386}, {"type": "node", "id": 3557531743, "lat": 28.4271844, "lon": 77.0570785}, {"type": "node", "id": 5877700286, "lat": 28.4127374, "lon": 77.0555164, "tags": {"amenity": "fast_food", "name:en": "McDonald\u2019s India", "name:zh": "\u9ea5\u7576\u52de"}}, {"type": "node", "id": 6472488318, "lat": 28.4063064, "lon": 77.0448369, "tags": {"addr:city": "Gurugram", "addr:postcode": "122018", "amenity": "restaurant", "cuisine": "Multi_cuisine", "name": "Nook", "opening_hours": "Mo-Su 11:00-23:30", "outdoor_seating": "yes"}}, {"type": "node", "id": 6472488319, "lat": 28.4061488, "lon": 77.0451428, "tags": {"addr:city": "Gurugram", "addr:housenumber": "Vatika Business Park", "addr:postcode": "122018", "addr:street": "Sohna Road", "amenity": "cafe", "brand": "Starbucks", "brand:pa": "\u0a38\u0a1f\u0a3e\u0a30\u0a2c\u0a15\u0a38", "brand:ur": "\u0627\u0633\u0679\u0627\u0631\u0628\u06a9\u0633", "brand:wikidata": "Q37158", "brand:wikipedia": "en:Starbucks", "cuisine": "coffee_shop", "name": "Starbucks", "name:pa": "\u0a38\u0a1f\u0a3e\u0a30\u0a2c\u0a15\u0a38", "name:ur": "\u0627\u0633\u0679\u0627\u0631\u0628\u06a9\u0633", "official_name": "Starbucks Coffee", "official_name:pa": "\u0a38\u0a1f\u0a3e\u0a30\u0a2c\u0a15\u0a38 \u0a15\u0a4c\u0a2b\u0a40", "official_name:ur": "\u0627\u0633\u0679\u0627\u0631\u0628\u06a9\u0633 \u06a9\u0627\u0641\u06cc", "outdoor_seating": "yes", "takeaway": "yes"}}, {"type": "node", "id": 7117806844, "lat": 28.4144192, "lon": 77.0654842, "tags": {"amenity": "cafe", "name": "Madison and Pike"}}, {"type": "node", "id": 9184257624, "lat": 28.4204541, "lon": 77.0502661, "tags": {"alt_name": "Haldiram", "amenity": "fast_food", "brand": "Haldiram's", "brand:wikidata": "Q17054442", "cuisine": "indian", "name": "Haldiram's", "takeaway": "yes"}}, {"type": "node", "id": 11314042364, "lat": 28.4245502, "lon": 77.0678795, "tags": {"air_conditioning": "no", "amenity": "restaurant", "contact:mobile": "+917631398096", "name": "Pandit Ji ka Dhaba", "phone": "+91-9971353602"}}, {"type": "node", "id": 11379126766, "lat": 28.4246202, "lon": 77.0678128, "tags": {"amenity": "fast_food", "cuisine": "juice", "diet:vegan": "yes", "diet:vegetarian": "yes", "name": "Shivam Juice and Shakes", "name:en": "Shivam Juice and Shakes"}}, {"type": "node", "id": 11813552610, "lat": 28.4249957, "lon": 77.0683336, "tags": {"air_conditioning": "yes", "amenity": "restaurant", "cuisine": "indian;fast_food", "delivery": "yes", "diet:vegetarian": "yes", "level": "0", "mobile": "+917291000809", "name": "Anand ki kadai"}}, {"type": "node", "id": 11813552611, "lat": 28.425067, "lon": 77.0683338, "tags": {"air_conditioning": "yes", "amenity": "restaurant", "cuisine": "indian", "delivery": "yes", "diet:vegan": "yes", "diet:vegetarian": "yes", "level": "0", "mobile": "+91 7428459888", "name": "Dadi Key Rasoi", "opening_hours": "Mo-Su 09:30-21:30"}}, {"type": "node", "id": 11813552613, "lat": 28.4255368, "lon": 77.0682838, "tags": {"addr:city": "Gurugram", "addr:district": "Gurugram", "addr:housenumber": "G-34", "addr:postcode": "122003", "air_conditioning": "yes", "amenity": "restaurant", "cuisine": "south_indian", "delivery": "yes", "diet:vegetarian": "yes", "level": "0", "mobile": "+919560522624;+91 7827608559", "name": "KARIBEVU", "opening_hours": "Mo-Su 09:00-21:00"}}, {"type": "node", "id": 11813552614, "lat": 28.4243243, "lon": 77.0682426, "tags": {"air_conditioning": "yes", "amenity": "restaurant", "cuisine": "pizza;burger;fast_food", "diet:non-vegetarian": "yes", "mobile": "9810694469", "name": "PizZoMore", "phone": "08527895983", "website": "https://pizzomore.com/"}}, {"type": "node", "id": 11813552619, "lat": 28.4249525, "lon": 77.0679739, "tags": {"addr:housenumber": "G-12;G-13", "air_conditioning": "yes", "amenity": "restaurant", "cuisine": "indian", "diet:non-vegetarian": "yes", "diet:vegetarian": "yes", "level": "0", "mobile": "+91 7827976738", "name": "Garari", "opening_hours": "Mo-Su 10:00-22:00"}}, {"type": "node", "id": 11834470061, "lat": 28.4115593, "lon": 77.0416411, "tags": {"addr:city": "Gurugram", "addr:district": "Gurugram", "addr:postcode": "122001", "addr:street": "Sohna Road, Sector 48", "alt_name": "ShriRam Dhaba", "amenity": "restaurant", "cuisine": "indian", "name": "Shri Ram Dhaba", "opening_hours": "24/7", "phone": "0124-4278885", "website": "https://www.shriramdhaba.com"}}, {"type": "node", "id": 12270870709, "lat": 28.3920326, "lon": 77.0593776, "tags": {"amenity": "restaurant", "level": "2", "microbrewery": "yes", "name": "Cafe delhi heights", "outdoor_seating": "yes", "takeaway": "yes", "wheelchair": "limited"}}, {"type": "node", "id": 12270870714, "lat": 28.3921711, "lon": 77.058953, "tags": {"air_conditioning": "yes", "amenity": "restaurant", "cuisine": "burger;sandwich", "level": "0", "name": "Sandburgs"}}, {"type": "node", "id": 12270870717, "lat": 28.3918513, "lon": 77.0589394, "tags": {"air_conditioning": "yes", "alt_name": "Haldiram", "amenity": "fast_food", "brand": "Haldiram's", "brand:wikidata": "Q17054442", "cuisine": "indian", "indoor_seating": "yes", "level": "0", "name": "Haldiram's", "takeaway": "yes"}}, {"type": "node", "id": 12270870755, "lat": 28.3921369, "lon": 77.0593102, "tags": {"air_conditioning": "yes", "amenity": "cafe", "indoor_seating": "yes", "level": "2", "name": "Cafe Buddy's Espresso", "wheelchair": "limited"}}, {"type": "node", "id": 12270870756, "lat": 28.3919449, "lon": 77.0590351, "tags": {"amenity": "restaurant", "cuisine": "ice_cream;juice;pasta;salad", "level": "0", "name": "Ackers"}}, {"type": "node", "id": 12270870758, "lat": 28.3922208, "lon": 77.0589573, "tags": {"amenity": "restaurant", "level": "0", "name": "Gourmet Heven"}}, {"type": "node", "id": 12270870766, "lat": 28.3921944, "lon": 77.059037, "tags": {"amenity": "food_court", "level": "2", "name": "GoKhana"}}, {"type": "node", "id": 12270870767, "lat": 28.39222, "lon": 77.0590412, "tags": {"amenity": "restaurant", "cuisine": "cake", "level": "0", "name": "Koy Bakers"}}, {"type": "node", "id": 12270870768, "lat": 28.3920535, "lon": 77.0589582, "tags": {"air_conditioning": "yes", "amenity": "restaurant", "cuisine": "pizza", "level": "0", "name": "TOSSIN PIZZA"}}, {"type": "node", "id": 12270870770, "lat": 28.392218, "lon": 77.0591745, "tags": {"air_conditioning": "yes", "amenity": "cafe", "indoor_seating": "yes", "level": "0", "name": "QuQu"}}, {"type": "node", "id": 12270870771, "lat": 28.3923074, "lon": 77.0589606, "tags": {"amenity": "cafe", "bar": "no", "cuisine": "ice_cream", "level": "0", "name": "The waffle CO."}}, {"type": "node", "id": 12270884328, "lat": 28.3918971, "lon": 77.0591729, "tags": {"addr:city": "Gurugram", "addr:district": "Gurugram", "addr:place": "AIPL Joystreet", "addr:state": "Haryana", "addr:unit": "54A", "air_conditioning": "yes", "amenity": "cafe", "brand": "Chaayos", "brand:wikidata": "Q117235235", "cuisine": "tea", "level": "0", "name": "Chaayos", "nohousenumber": "yes", "opening_hours": "07:00-23:00", "takeaway": "yes"}}, {"type": "node", "id": 12270884332, "lat": 28.3918675, "lon": 77.059135, "tags": {"amenity": "cafe", "brand": "Costa", "brand:wikidata": "Q608845", "cuisine": "coffee_shop", "level": "0", "name": "Costa", "takeaway": "yes"}}, {"type": "node", "id": 12270884333, "lat": 28.3920477, "lon": 77.0593057, "tags": {"amenity": "cafe", "brand": "Blue Tokai Coffee Roasters", "brand:wikidata": "Q124374362", "cuisine": "coffee_shop", "delivery": "yes", "level": "0", "name": "Blue Tokai Coffee Roasters", "takeaway": "yes"}}, {"type": "node", "id": 13073917040, "lat": 28.4254717, "lon": 77.0682792, "tags": {"addr:housenumber": "G35", "amenity": "restaurant", "cuisine": "sandwich;salad;juice", "diet:non-vegetarian": "yes", "diet:vegan": "yes", "diet:vegetarian": "yes", "level": "0", "name": "Toss & Taste", "opening_hours": "Mo-Su 11:00-22:00", "phone": "+91 920558577;+91 9958709477"}}, {"type": "node", "id": 13073917041, "lat": 28.4251584, "lon": 77.0679866, "tags": {"amenity": "restaurant", "cuisine": "indian;kebab", "diet:non-vegetarian": "yes", "diet:vegetarian": "yes", "level": "0", "mobile": "+91 9599024488", "name": "Degh & Wok"}}, {"type": "node", "id": 13073917042, "lat": 28.4250036, "lon": 77.067974, "tags": {"air_conditioning": "yes", "amenity": "restaurant", "cuisine": "indian", "diet:non-vegetarian": "yes", "diet:vegetarian": "yes", "level": "0", "mobile": "+91 8588000844", "name": "Himalayan Flavours"}}, {"type": "node", "id": 13302967399, "lat": 28.4226891, "lon": 77.06286, "tags": {"addr:city": "Gurugram", "addr:district": "Gurugram", "addr:housenumber": "J-23", "addr:postcode": "122001", "addr:street": "Block J, Mayfield Garden", "air_conditioning": "yes", "amenity": "restaurant", "cuisine": "indian", "diet:non-vegetarian": "yes", "diet:vegetarian": "yes", "name": "ZING", "opening_hours": "Mo-Su 00:00-23:30", "phone": "+91 7838000582;+91 78380 00582;+91 96896 81324;+91 7838800058", "website": "https://www.countryinngurugram.com/"}}, {"type": "way", "id": 349978197, "nodes": [3557531743, 3557531720, 3557531702, 3557531578, 3557531592, 3557531708, 3557531723, 3557531743], "tags": {"amenity": "restaurant", "building": "yes", "cuisine": "indian", "diet:meat": "yes", "name": "Norenj"}}]}