{"version": 0.6, "generator": "Overpass API 0.7.62.8 e802775f", "osm3s": {"timestamp_osm_base": "2025-12-07T21:17:00Z", "copyright": "The data included in this document is from www.openstreetmap.org. The data is made available under ODbL."}, "elements": [{"type": "node", "id": 266734429, "lat": 28.4109126, "lon": 77.043077, "tags": {"amenity": "atm", "covered": "yes", "currency:INR": "yes", "drive_through": "no", "indoor": "yes", "lit": "yes", "name": "ICICI Bank", "note": "Contributors are requested to not edit the \"covered\", \"currency:INR\", \"drive_through\", \"indoor\" and \"lit\" tags. (2024/05/23)"}}, {"type": "node", "id": 477905030, "lat": 28.3916847, "lon": 77.0486793, "tags": {"amenity": "bank", "atm": "yes", "brand": "State Bank of India", "brand:wikidata": "Q1340361", "name": "State Bank of India", "short_name": "SBI"}}, {"type": "node", "id": 477905082, "lat": 28.3935986, "lon": 77.0467381, "tags": {"amenity": "bank", "atm": "yes", "brand": "Union Bank of India", "brand:wikidata": "Q2004078", "name": "Union Bank of India", "name:en": "Union Bank of India", "short_name": "UBI", "website": "https://www.unionbankofindia.co.in/"}}, {"type": "node", "id": 1363223153, "lat": 28.3949963, "lon": 77.0462656, "tags": {"amenity": "bank", "brand": "Central Bank of India", "brand:wikidata": "Q2007090", "name": "Central Bank of India", "name:en": "Central Bank of India", "website": "https://www.centralbankofindia.co.in"}}, {"type": "node", "id": 1389062000, "lat": 28.417248, "lon": 77.050616, "tags": {"amenity": "bank", "brand": "HDFC Bank", "brand:wikidata": "Q631047", "name": "HDFC Bank", "short_name": "HDFC"}}, {"type": "node", "id": 1389062584, "lat": 28.417564, "lon": 77.0564, "tags": {"amenity": "atm", "covered": "yes", "currency:INR": "yes", "drive_through": "no", "indoor": "yes", "lit": "yes", "note": "Contributors are requested to not edit the \"covered\", \"currency:INR\", \"drive_through\", \"indoor\" and \"lit\" tags. (2024/05/23)"}}, {"type": "node", "id": 1668936691, "lat": 28.4172356, "lon": 77.0505943, "tags": {"amenity": "atm", "brand": "Standard Chartered", "brand:wikidata": "Q548278", "covered": "yes", "currency:INR": "yes", "drive_through": "no", "indoor": "yes", "lit": "yes", "name": "Standard Chartered", "note": "Contributors are requested to not edit the \"covered\", \"currency:INR\", \"drive_through\", \"indoor\" and \"lit\" tags. (2024/05/23)", "operator": "Standard Chartered", "operator:wikidata": "Q548278"}}, {"type": "node", "id": 4101251295, "lat": 28.4013635, "lon": 77.0485867, "tags": {"amenity": "atm", "covered": "yes", "currency:INR": "yes", "drive_through": "no", "indoor": "yes", "lit": "yes", "note": "Contributors are requested to not edit the \"covered\", \"currency:INR\", \"drive_through\", \"indoor\" and \"lit\" tags. (2024/05/23)", "opening_hours": "24/7"}}, {"type": "node", "id": 4101264092, "lat": 28.4013948, "lon": 77.0486618, "tags": {"amenity": "atm", "covered": "yes", "currency:INR": "yes", "drive_through": "no", "indoor": "yes", "lit": "yes", "note": "Contributors are requested to not edit the \"covered\", \"currency:INR\", \"drive_through\", \"indoor\" and \"lit\" tags. (2024/05/23)", "opening_hours": "24/7"}}, {"type": "node", "id": 4101264093, "lat": 28.40141, "lon": 77.0486745, "tags": {"addr:street": "Golf Course Extension Road", "amenity": "bank", "brand": "IndusInd Bank", "brand:wikidata": "Q2040323", "name": "IndusInd Bank", "opening_hours": "Mo-Fr 10:00-17:00"}}, {"type": "node", "id": 4101294192, "lat": 28.4020622, "lon": 77.050289, "tags": {"addr:street": "Golf Course Extension Road", "amenity": "bank", "brand": "HDFC Bank", "brand:wikidata": "Q631047", "name": "HDFC Bank", "opening_hours": "Mo-Fr 10:00-17:00", "short_name": "HDFC", "website": "https://www.hdfcbank.com"}}, {"type": "node", "id": 6469103562, "lat": 28.4129417, "lon": 77.078525, "tags": {"amenity": "bank", "brand": "HDFC Bank", "brand:wikidata": "Q631047", "name": "HDFC Bank"}}, {"type": "node", "id": 6901787017, "lat": 28.4154589, "lon": 77.0416737, "tags": {"amenity": "bank", "name": "ICICI Bank"}}, {"type": "node", "id": 10876296335, "lat": 28.424823, "lon": 77.068396, "tags": {"addr:city": "Gurugram", "addr:housenumber": "G5;G6", "addr:postcode": "122001", "addr:street": "Sector 51", "air_conditioning": "yes", "amenity": "bank", "atm": "yes", "branch": "Ocus Quantum, Sector 51", "brand": "Axis Bank", "brand:wikidata": "Q2003549", "drive_through": "no", "level": "0", "name": "Axis Bank", "name:en": "Axis Bank", "opening_hours": "Mo-Sa 09:30-15:30; Sa[2,4] off; PH off", "operator": "Axis Bank", "website": "https://branch.axisbank.com/axis-bank-branch-banks-sector-51-gurugram-87437/Home"}}, {"type": "node", "id": 10893280438, "lat": 28.3932863, "lon": 77.0468816, "tags": {"amenity": "bank", "brand": "Central Bank of India", "brand:wikidata": "Q2007090", "name": "Central Bank of India"}}, {"type": "node", "id": 10924011401, "lat": 28.4248283, "lon": 77.0686678, "tags": {"air_conditioning": "yes", "amenity": "bank", "atm": "yes", "brand": "HDFC Bank", "brand:wikidata": "Q631047", "level": "0", "name": "HDFC Bank", "opening_hours": "Mo-Sa 09:30-15:30", "short_name": "HDFC"}}, {"type": "node", "id": 10924013202, "lat": 28.4247901, "lon": 77.0685991, "tags": {"air_conditioning": "yes", "amenity": "bank", "atm": "yes", "brand": "IndusInd Bank", "brand:wikidata": "Q2040323", "level": "0", "name": "IndusInd Bank"}}, {"type": "node", "id": 11273906543, "lat": 28.4133091, "lon": 77.0552358, "tags": {"amenity": "bank", "name": "ICICI Bank"}}, {"type": "node", "id": 11273915350, "lat": 28.4130415, "lon": 77.0552529, "tags": {"amenity": "bank", "name": "HDFC bank"}}, {"type": "node", "id": 11273940037, "lat": 28.4130678, "lon": 77.0552487, "tags": {"amenity": "atm", "covered": "yes", "currency:INR": "yes", "drive_through": "no", "indoor": "yes", "lit": "yes", "name": "HDFC atm", "note": "Contributors are requested to not edit the \"covered\", \"currency:INR\", \"drive_through\", \"indoor\" and \"lit\" tags. (2024/05/23)"}}, {"type": "node", "id": 11273947397, "lat": 28.412674, "lon": 77.0554298, "tags": {"amenity": "bank", "name": "SBI Bank"}}, {"type": "node", "id": 11273948156, "lat": 28.413235, "lon": 77.0552296, "tags": {"amenity": "bank", "name": "IDFC bank"}}, {"type": "node", "id": 11273950020, "lat": 28.4127054, "lon": 77.0553589, "tags": {"amenity": "atm", "covered": "yes", "currency:INR": "yes", "drive_through": "no", "indoor": "yes", "lit": "yes", "name": "SBI ATM", "note": "Contributors are requested to not edit the \"covered\", \"currency:INR\", \"drive_through\", \"indoor\" and \"lit\" tags. (2024/05/23)"}}, {"type": "node", "id": 11273951303, "lat": 28.4128435, "lon": 77.0552363, "tags": {"amenity": "atm", "covered": "yes", "currency:INR": "yes", "drive_through": "no", "indoor": "yes", "lit": "yes", "name": "Yes Bank ATM", "note": "Contributors are requested to not edit the \"covered\", \"currency:INR\", \"drive_through\", \"indoor\" and \"lit\" tags. (2024/05/23)"}}, {"type": "node", "id": 11273952091, "lat": 28.4133871, "lon": 77.0552499, "tags": {"amenity": "bank", "name": "Axis bank"}}, {"type": "node", "id": 11273953827, "lat": 28.4134421, "lon": 77.0552506, "tags": {"amenity": "bank", "name": "Kotak mahendra bank"}}, {"type": "node", "id": 11634093111, "lat": 28.4118993, "lon": 77.048653, "tags": {"amenity": "atm", "brand": "IndusInd Bank", "brand:wikidata": "Q2040323", "covered": "yes", "currency:INR": "yes", "drive_through": "no", "indoor": "yes", "lit": "yes", "note": "Contributors are requested to not edit the \"covered\", \"currency:INR\", \"drive_through\", \"indoor\" and \"lit\" tags. (2024/05/23)", "operator": "IndusInd Bank", "operator:wikidata": "Q2040323"}}, {"type": "node", "id": 13073917050, "lat": 28.424827, "lon": 77.0685548, "tags": {"addr:city": "Gurugram", "addr:district": "Gurugram", "addr:postcode": "122001", "air_conditioning": "yes", "amenity": "bank", "atm": "yes", "brand": "ICICI Bank", "brand:wikidata": "Q1653258", "level": "0", "name": "ICICI Bank", "short_name": "ICICI"}}]}