{"version": 0.6, "generator": "Overpass API 0.7.62.8 e802775f", "osm3s": {"timestamp_osm_base": "2025-12-07T20:35:58Z", "copyright": "The data included in this document is from www.openstreetmap.org. The data is made available under ODbL."}, "elements": [{"type": "node", "id": 611105438, "lat": 28.6405551, "lon": 77.2107627, "tags": {"addr:street": "Main Bazaar", "amenity": "pub", "name": "MyBar"}}, {"type": "node", "id": 3269454412, "lat": 28.6415015, "lon": 77.2160786, "tags": {"amenity": "bar", "name": "The Gem Bar"}}, {"type": "node", "id": 3991742063, "lat": 28.6314049, "lon": 77.2204463, "tags": {"amenity": "bar", "name": "OMG Bar & Kitchen", "note": "nice view"}}, {"type": "node", "id": 4262378089, "lat": 28.6384556, "lon": 77.2103969, "tags": {"amenity": "bar", "name": "My Love"}}, {"type": "node", "id": 4350455497, "lat": 28.6411301, "lon": 77.212683, "tags": {"amenity": "bar", "name": "Sam's bar"}}, {"type": "node", "id": 4447641390, "lat": 28.6339043, "lon": 77.2208954, "tags": {"amenity": "bar", "level": "1", "name": "The Beer Cafe - Biggie", "survey:date": "2023-01-25"}}, {"type": "node", "id": 4679883320, "lat": 28.6307208, "lon": 77.2210523, "tags": {"amenity": "bar", "name": "Beer Cafe"}}, {"type": "node", "id": 4897911422, "lat": 28.6306047, "lon": 77.2198405, "tags": {"amenity": "bar", "check_date": "2023-12-22", "level": "1", "name": "My Bar", "name:en": "My Bar - fausse adresse", "wheelchair": "no"}}, {"type": "node", "id": 5005710330, "lat": 28.6314083, "lon": 77.220584, "tags": {"amenity": "bar", "name": "Tafree"}}, {"type": "node", "id": 5068225753, "lat": 28.6296803, "lon": 77.2220055, "tags": {"amenity": "bar", "name": "Tamasha"}}, {"type": "node", "id": 5517324826, "lat": 28.6313526, "lon": 77.2271001, "tags": {"amenity": "nightclub", "name": "Kitty Su"}}, {"type": "node", "id": 5545574398, "lat": 28.6328733, "lon": 77.2215919}, {"type": "node", "id": 6161689895, "lat": 28.6311254, "lon": 77.2209039, "tags": {"amenity": "bar", "name": "Excuse Me Boss"}}, {"type": "node", "id": 6161690690, "lat": 28.6310486, "lon": 77.2207857, "tags": {"amenity": "bar", "name": "Kill The Bill"}}, {"type": "node", "id": 6161987877, "lat": 28.6301159, "lon": 77.2197367, "tags": {"amenity": "bar", "name": "The Beer Cafe"}}, {"type": "node", "id": 6225482608, "lat": 28.6318318, "lon": 77.2168187, "tags": {"addr:city": "New Delhi", "amenity": "bar", "level": "1", "name": "Lord of the Drinks", "survey:date": "2023-01-19"}}, {"type": "node", "id": 7101940885, "lat": 28.6328687, "lon": 77.2214619}, {"type": "node", "id": 9037075911, "lat": 28.6301911, "lon": 77.2197452, "tags": {"amenity": "bar", "level": "1", "name": "Teddy Boy Gastro Bar", "wheelchair": "no"}}, {"type": "node", "id": 10579383841, "lat": 28.6329337, "lon": 77.2226935, "tags": {"amenity": "bar", "level": "0", "name": "38 Barracks"}}, {"type": "node", "id": 10579643041, "lat": 28.6345412, "lon": 77.2213209, "tags": {"air_conditioning": "yes", "amenity": "bar", "indoor_seating": "yes", "name": "Hawkers", "outdoor_seating": "no", "smoking": "yes"}}, {"type": "node", "id": 11442913958, "lat": 28.6334057, "lon": 77.222623, "tags": {"amenity": "bar", "name": "Ministry of Beer"}}, {"type": "node", "id": 11795597388, "lat": 28.6291592, "lon": 77.2197557, "tags": {"amenity": "bar", "name": "The beer cafe"}}, {"type": "node", "id": 12054358705, "lat": 28.6344996, "lon": 77.2175963, "tags": {"amenity": "bar", "level": "1", "name": "Bira"}}, {"type": "node", "id": 12098553781, "lat": 28.6328305, "lon": 77.2214641}, {"type": "node", "id": 12098553786, "lat": 28.6328353, "lon": 77.2215943}, {"type": "way", "id": 1306328982, "nodes": [12098553786, 5545574398, 7101940885, 12098553781, 12098553786], "tags": {"addr:block": "E", "addr:housenumber": "34", "addr:street": "Inner Circle", "addr:suburb": "Connaught Place", "air_conditioning": "yes", "amenity": "bar", "contact:mobile": "+91-99999-20556", "contact:website": "https://www.mybarindia.com", "level": "2", "name": "My Bar Square", "smoking": "separated", "wheelchair": "no"}}]}