{"version": 0.6, "generator": "Overpass API 0.7.62.8 e802775f", "osm3s": {"timestamp_osm_base": "2025-12-07T20:35:58Z", "copyright": "The data included in this document is from www.openstreetmap.org. The data is made available under ODbL."}, "elements": [{"type": "node", "id": 345234441, "lat": 28.6440122, "lon": 77.1885235, "tags": {"name": "Karol Bagh", "name:hi": "\u0915\u0930\u094b\u0932 \u092c\u093e\u0917", "name:kn": "\u0c95\u0cb0\u0ccb\u0cb2\u0ccd \u0cad\u0cbe\u0c97\u0ccd", "name:ur": "\u0642\u0631\u0648\u0644 \u0628\u0627\u063a", "network": "Delhi Metro", "network:wikidata": "Q271195", "note": "Contributors are requested to not edit the \"network\" and the \"operator\" tags. (2023/06/22)", "operator": "Delhi Metro Rail Corporation Limited", "operator:wikidata": "Q1029339", "public_transport": "station", "railway": "station", "station": "subway", "subway": "yes", "wikidata": "Q6373014", "wikipedia": "en:Karol Bagh metro station"}}, {"type": "node", "id": 554257833, "lat": 28.6288963, "lon": 77.2113218, "tags": {"name": "Shivaji Stadium", "name:hi": "\u0936\u093f\u0935\u093e\u091c\u0940 \u0938\u094d\u091f\u0947\u0921\u093f\u092f\u092e", "name:kn": "\u0cb6\u0cbf\u0cb5\u0cbe\u0c9c\u0cbf \u0cb8\u0ccd\u0c9f\u0cc7\u0ca1\u0cbf\u0caf\u0cae\u0ccd", "network": "Delhi Metro", "network:wikidata": "Q271195", "note": "Contributors are requested to not edit the \"network\" and the \"operator\" tags. (2023/06/22)", "operator": "Delhi Metro Rail Corporation Limited", "operator:wikidata": "Q1029339", "public_transport": "station", "railway": "station", "ref": "SJSU", "station": "subway", "subway": "yes", "wikidata": "Q11308729", "wikipedia": "en:Shivaji Stadium metro station"}}, {"type": "node", "id": 554257841, "lat": 28.6434826, "lon": 77.2227421, "tags": {"alt_name:ar": "\u0646\u064a\u0648\u062f\u0644\u0647\u064a", "alt_name:ks": "\u0646\u0654\u0648 \u062f\u0650\u0644", "alt_name:ur": "\u0646\u0626\u06cc \u062f\u0644\u06cc", "name": "New Delhi", "name:ar": "\u062f\u0644\u0647\u064a \u0627\u0644\u062c\u062f\u064a\u062f\u0629", "name:az-Arab": "\u06cc\u0626\u0646\u06cc \u062f\u0647\u0644\u06cc", "name:azb": "\u06cc\u0626\u0646\u06cc \u062f\u0647\u0644\u06cc", "name:de": "Neu-Delhi", "name:el": "\u039d\u03ad\u03bf \u0394\u03b5\u03bb\u03c7\u03af", "name:es": "Nueva Delhi", "name:grc": "\u039d\u03b5\u03bf\u03b4\u03b5\u03bb\u03af\u03c2", "name:hi": "\u0928\u0908 \u0926\u093f\u0932\u094d\u0932\u0940", "name:hy": "\u0546\u0575\u0578\u0582 \u0534\u0565\u056c\u056b", "name:hyw": "\u0546\u056b\u0582 \u054f\u0565\u056c\u0570\u056b", "name:ks": "\u0646\u0654\u0648 \u062f\u0644\u06be\u06cc", "name:ml": "\u0d28\u0d4d\u0d2f\u0d42 \u0d21\u0d46\u0d7d\u0d39\u0d3f", "name:pa": "\u0a28\u0a35\u0a40\u0a02 \u0a26\u0a3f\u0a71\u0a32\u0a40", "name:ru": "\u041d\u044c\u044e-\u0414\u0435\u043b\u0438", "name:ug": "\u064a\u06d0\u06ad\u0649 \u062f\u06d0\u06be\u0644\u0649", "name:ur": "\u0646\u0626\u06cc \u062f\u06c1\u0644\u06cc", "network": "Delhi Metro", "note": "Contributors are requested to not edit the \"network\" and the \"operator\" tags. (2023/06/22)", "operator": "Delhi Metro Rail Corporation Limited", "public_transport": "station", "railway": "station", "ref": "NDLS", "station": "subway", "subway": "yes", "wikidata": "Q3634456", "wikipedia": "en:New Delhi metro station"}}, {"type": "node", "id": 913095905, "lat": 28.660932, "lon": 77.2276494, "tags": {"alt_name": "Old Delhi Railway Station", "alt_name:ur": "\u067e\u0631\u0627\u0646\u06cc \u062f\u06c1\u0644\u06cc \u0631\u06cc\u0644\u0648\u06d2 \u0627\u0633\u0679\u06cc\u0634\u0646;\u062f\u0644\u06cc \u062c\u0646\u06a9\u0634\u0646;\u062f\u0650\u0644\u0651\u06cc \u062c\u0646\u06a9\u0634\u0646;\u067e\u0631\u0627\u0646\u06cc \u062f\u0644\u06cc", "internet_access": "wlan", "long_name": "\u062f\u06c1\u0644\u06cc \u062c\u0646\u06a9\u0634\u0646 \u0631\u06cc\u0644\u0648\u06d2 \u0627\u0633\u0679\u06cc\u0634\u0646", "long_name:ur": "\u062f\u06c1\u0644\u06cc \u062c\u0646\u06a9\u0634\u0646 \u0631\u06cc\u0644\u0648\u06d2 \u0627\u0633\u0679\u06cc\u0634\u0646", "name": "Delhi Junction", "name:hi": "\u0926\u093f\u0932\u094d\u0932\u0940 \u091c\u0902\u0915\u094d\u0936\u0928", "name:ur": "\u062f\u06c1\u0644\u06cc \u062c\u0646\u06a9\u0634\u0646", "network": "IR", "operator": "NR", "public_transport": "station", "railway": "station", "ref": "DLI", "wikidata": "Q3633132"}}, {"type": "node", "id": 915407469, "lat": 28.6627515, "lon": 77.1852561, "tags": {"internet_access": "no", "name": "Delhi Sarai Rohilla", "name:hi": "\u0926\u093f\u0932\u094d\u0932\u0940 \u0938\u0930\u093e\u092f \u0930\u094b\u0939\u093f\u0932\u094d\u0932\u093e", "name:ur": "\u062f\u06c1\u0644\u06cc \u0633\u0631\u0627\u0626\u06d2 \u0631\u0648\u06c1\u0644\u06c1", "network": "Indian Railways", "operator": "Northern Railway", "public_transport": "station", "railway": "station", "ref": "DEE", "train": "yes", "wheelchair": "yes", "wikidata": "Q3635051", "wikipedia": "en:Delhi Sarai Rohilla railway station"}}, {"type": "node", "id": 938409545, "lat": 28.6424786, "lon": 77.2231116, "tags": {"name": "New Delhi Airport Express Terminal", "name:hi": "\u0928\u0908 \u0926\u093f\u0932\u094d\u0932\u0940 \u090f\u092f\u0930\u092a\u094b\u0930\u094d\u091f \u090f\u0915\u094d\u0938\u092a\u094d\u0930\u0947\u0938 \u091f\u0930\u094d\u092e\u093f\u0928\u0932", "name:ru": "\u041d\u044c\u044e-\u0414\u0435\u043b\u0438", "network": "Delhi Metro", "network:wikidata": "Q271195", "note": "Contributors are requested to not edit the \"network\" and the \"operator\" tags. (2023/06/22)", "operator": "Delhi Metro Rail Corporation Limited", "operator:wikidata": "Q1029339", "public_transport": "station", "railway": "station", "ref": "NDI", "station": "subway", "subway": "yes", "wikidata": "Q3634456", "wikipedia": "en:New Delhi metro station"}}, {"type": "node", "id": 1988513580, "lat": 28.6627442, "lon": 77.1979077, "tags": {"alt_name": "Delhi Kishan Ganj", "alt_name:ur": "\u062f\u06c1\u0644\u06cc \u06a9\u0634\u0646 \u06af\u0646\u062c", "internet_access": "no", "name": "Delhi Kishanganj", "name:hi": "\u0926\u093f\u0932\u094d\u0932\u0940 \u0915\u093f\u0936\u0928\u0917\u0902\u091c", "name:ur": "\u062f\u06c1\u0644\u06cc \u06a9\u0650\u0634\u0646 \u06af\u0646\u062c", "network": "IR", "operator": "NR", "public_transport": "station", "railway": "station", "ref": "DKZ", "train": "yes", "wikidata": "Q6416546", "wikipedia": "en:Kishanganj railway station"}}, {"type": "node", "id": 1988513583, "lat": 28.6160392, "lon": 77.2472109, "tags": {"internet_access": "no", "name": "Pragati Maidan", "name:hi": "\u092a\u094d\u0930\u0917\u0924\u093f \u092e\u0948\u0926\u093e\u0928", "name:ur": "\u067e\u0631\u06af\u062a\u06cc \u0645\u06cc\u062f\u0627\u0646", "network": "IR", "operator": "NR", "public_transport": "station", "railway": "station", "ref": "PGMD", "train": "yes", "wikidata": "Q24949212", "wikipedia": "en:Pragati Maidan railway station"}}, {"type": "node", "id": 1988513598, "lat": 28.6334521, "lon": 77.2266682, "tags": {"internet_access": "no", "name": "Shivaji Bridge", "name:hi": "\u0936\u093f\u0935\u093e\u091c\u0940 \u092a\u0941\u0932", "name:ur": "\u0634\u06cc\u0648\u0627 \u062c\u06cc \u0628\u0631\u062c", "network": "IR", "operator": "NR", "public_transport": "station", "railway": "station", "ref": "CSB", "train": "yes", "wheelchair": "yes", "wikidata": "Q24948842", "wikipedia": "en:Shivaji Bridge railway station"}}, {"type": "node", "id": 1988513599, "lat": 28.6281166, "lon": 77.2374037, "tags": {"internet_access": "no", "name": "Tilak Bridge", "name:hi": "\u0924\u093f\u0932\u0915 \u092c\u094d\u0930\u093f\u091c", "name:ur": "\u062a\u0644\u06a9 \u0628\u0631\u062c", "network": "IR", "operator": "NR", "public_transport": "station", "railway": "station", "ref": "TKJ", "train": "yes", "wikidata": "Q12432167"}}, {"type": "node", "id": 1988513600, "lat": 28.6644729, "lon": 77.1838135, "tags": {"alt_name": "Sarai Rohilla", "internet_access": "no", "name": "Vivekanand Puri", "name:hi": "\u0935\u093f\u0935\u0947\u0915\u093e\u0928\u0902\u0926 \u092a\u0941\u0930\u0940", "network": "IR", "operator": "NR", "public_transport": "station", "railway": "station", "ref": "WKP", "train": "yes", "wikidata": "Q12453008"}}, {"type": "node", "id": 3571786971, "lat": 28.6231854, "lon": 77.2144534}, {"type": "node", "id": 3571786974, "lat": 28.6232588, "lon": 77.2143205}, {"type": "node", "id": 3571786984, "lat": 28.623476, "lon": 77.2146617}, {"type": "node", "id": 3571786995, "lat": 28.6235494, "lon": 77.2145288}, {"type": "node", "id": 3648452304, "lat": 28.6491339, "lon": 77.238142}, {"type": "node", "id": 3648452305, "lat": 28.6492671, "lon": 77.2383813}, {"type": "node", "id": 3648452310, "lat": 28.6507532, "lon": 77.236971}, {"type": "node", "id": 3648452312, "lat": 28.6508865, "lon": 77.2372103}, {"type": "node", "id": 5453646586, "lat": 28.6158794, "lon": 77.2122822, "tags": {"name": "Central Secretariat", "name:hi": "\u0938\u0947\u0902\u091f\u094d\u0930\u0932 \u0938\u0947\u0915\u094d\u0930\u0947\u091f\u0947\u0930\u093f\u090f\u091f", "name:kn": "\u0cb8\u0cc6\u0c82\u0c9f\u0ccd\u0cb0\u0cb2\u0ccd \u0cb8\u0cc6\u0c95\u0ccd\u0cb0\u0cc6\u0c9f\u0cb0\u0cbf\u0cb8\u0ccd\u0c9f\u0ccd", "name:ru": "\u0426\u0435\u043d\u0442\u0440\u0430\u043b\u044c\u043d\u044b\u0439 \u0441\u0435\u043a\u0440\u0435\u0442\u0430\u0440\u0438\u0430\u0442", "network": "Delhi Metro", "network:wikidata": "Q271195", "note": "Contributors are requested to not edit the \"network\" and the \"operator\" tags. (2023/06/22)", "operator": "Delhi Metro Rail Corporation Limited", "operator:wikidata": "Q1029339", "public_transport": "station", "railway": "station", "ref": "CTST", "station": "subway", "subway": "yes", "train": "yes", "wikidata": "Q5061812", "wikipedia": "en:Central Secretariat metro station"}}, {"type": "node", "id": 5781445033, "lat": 28.6424955, "lon": 77.1782756, "tags": {"name": "Rajendra Place", "name:hi": "\u0930\u093e\u091c\u0947\u0902\u0926\u094d\u0930 \u092a\u094d\u0932\u0947\u0938", "name:kn": "\u0cb0\u0cbe\u0c9c\u0cc7\u0c82\u0ca6\u0ccd\u0cb0 \u0caa\u0ccd\u0caf\u0cbe\u0cb2\u0cc7\u0cb8\u0ccd", "network": "Delhi Metro", "note": "Contributors are requested to not edit the \"network\" and the \"operator\" tags. (2023/06/23)", "operator": "Delhi Metro Rail Corporation Limited", "railway": "station", "station": "subway", "wikidata": "Q7286033", "wikipedia": "en:Rajendra Place metro station"}}, {"type": "node", "id": 5854161857, "lat": 28.658087, "lon": 77.2170087, "tags": {"internet_access": "no", "name": "Sadar Bazar", "name:hi": "\u0938\u0926\u0930 \u092c\u093e\u091c\u093c\u093e\u0930", "name:ur": "\u0635\u062f\u0631 \u0628\u0627\u0632\u0627\u0631", "network": "IR", "operator": "NR", "public_transport": "station", "railway": "station", "ref": "DSB", "train": "yes", "wheelchair": "yes", "wikidata": "Q24947943", "wikipedia": "en:Sadar Bazar railway station"}}, {"type": "node", "id": 6131069513, "lat": 28.6419258, "lon": 77.2217499, "tags": {"alt_name:ar": "\u0646\u064a\u0648\u062f\u0644\u0647\u064a", "alt_name:ks": "\u0646\u0654\u0648 \u062f\u0650\u0644", "alt_name:ur": "\u0646\u0626\u06cc \u062f\u0644\u06cc;\u0646\u0626\u06cc \u062f\u0650\u0644\u0651\u06cc", "internet_access": "wlan", "long_name": "\u0646\u0626\u06cc \u062f\u06c1\u0644\u06cc \u0631\u06cc\u0644\u0648\u06d2 \u0627\u0633\u0679\u06cc\u0634\u0646", "long_name:ur": "\u0646\u0626\u06cc \u062f\u06c1\u0644\u06cc \u0631\u06cc\u0644\u0648\u06d2 \u0627\u0633\u0679\u06cc\u0634\u0646", "name": "New Delhi", "name:ar": "\u062f\u0644\u0647\u064a \u0627\u0644\u062c\u062f\u064a\u062f\u0629", "name:az-Arab": "\u06cc\u0626\u0646\u06cc \u062f\u0647\u0644\u06cc", "name:azb": "\u06cc\u0626\u0646\u06cc \u062f\u0647\u0644\u06cc", "name:de": "Neu-Delhi", "name:el": "\u039d\u03ad\u03bf \u0394\u03b5\u03bb\u03c7\u03af", "name:es": "Nueva Delhi", "name:grc": "\u039d\u03b5\u03bf\u03b4\u03b5\u03bb\u03af\u03c2", "name:hi": "\u0928\u0908 \u0926\u093f\u0932\u094d\u0932\u0940", "name:hy": "\u0546\u0575\u0578\u0582 \u0534\u0565\u056c\u056b", "name:hyw": "\u0546\u056b\u0582 \u054f\u0565\u056c\u0570\u056b", "name:ks": "\u0646\u0654\u0648 \u062f\u0644\u06be\u06cc", "name:ml": "\u0d28\u0d4d\u0d2f\u0d42 \u0d21\u0d46\u0d7d\u0d39\u0d3f", "name:pa": "\u0a28\u0a35\u0a40\u0a02 \u0a26\u0a3f\u0a71\u0a32\u0a40", "name:ug": "\u064a\u06d0\u06ad\u0649 \u062f\u06d0\u06be\u0644\u0649", "name:ur": "\u0646\u0626\u06cc \u062f\u06c1\u0644\u06cc", "network": "IR", "operator": "NR", "public_transport": "station", "railway": "station", "ref": "NDLS", "train": "yes", "wheelchair": "yes", "wikimedia_commons": "File:New Delhi railway station from Ajmeri Gate side.jpg", "wikipedia": "en:New Delhi railway station", "wikipedia:ur": "\u0646\u0626\u06cc \u062f\u06c1\u0644\u06cc \u0631\u06cc\u0644\u0648\u06d2 \u0627\u0633\u0679\u06cc\u0634\u0646"}}, {"type": "node", "id": 6537193575, "lat": 28.6206019, "lon": 77.249551, "tags": {"name": "Indraprastha", "name:hi": "\u0907\u0902\u0926\u094d\u0930\u092a\u094d\u0930\u0938\u094d\u0925", "name:kn": "\u0c87\u0c82\u0ca6\u0ccd\u0cb0 \u0caa\u0ccd\u0cb0\u0cb8\u0ccd\u0ca4", "name:ur": "\u0627\u0646\u062f\u0631 \u067e\u0631\u0633\u062a\u06be", "network": "Delhi Metro", "network:wikidata": "Q271195", "note": "Contributors are requested to not edit the \"network\" and the \"operator\" tags. (2023/06/22)", "operator": "Delhi Metro Rail Corporation Limited", "operator:wikidata": "Q1029339", "public_transport": "station", "railway": "station", "station": "subway", "subway": "yes", "wikidata": "Q6026956", "wikipedia": "en:Indraprastha metro station"}}, {"type": "node", "id": 6539894849, "lat": 28.6443188, "lon": 77.1999165, "tags": {"name": "Jhandewalan", "name:hi": "\u091d\u0902\u0921\u0947\u0935\u093e\u0932\u093e\u0928", "name:kn": "\u0c9d\u0cbe\u0c82\u0ca1\u0cc6\u0cb5\u0cbe\u0cb2\u0ca8\u0ccd", "network": "Delhi Metro", "network:wikidata": "Q271195", "note": "Contributors are requested to not edit the \"network\" and the \"operator\" tags. (2023/06/22)", "operator": "Delhi Metro Rail Corporation Limited", "operator:wikidata": "Q1029339", "public_transport": "station", "railway": "station", "station": "subway", "subway": "yes", "wikidata": "Q6190836", "wikipedia": "en:Jhandewalan metro station"}}, {"type": "node", "id": 6539894850, "lat": 28.6392436, "lon": 77.2085787, "tags": {"name": "Ramakrishna Ashram Marg", "name:hi": "\u0930\u093e\u092e\u0915\u0943\u0937\u094d\u0923 \u0906\u0936\u094d\u0930\u092e \u092e\u093e\u0930\u094d\u0917", "network": "Delhi Metro", "network:wikidata": "Q271195", "note": "Contributors are requested to not edit the \"network\" and the \"operator\" tags. (2023/06/22)", "operator": "Delhi Metro Rail Corporation Limited", "operator:wikidata": "Q1029339", "public_transport": "station", "railway": "station", "station": "subway", "subway": "yes", "wikidata": "Q7288800", "wikipedia": "en:Ramakrishna Ashram Marg metro station"}}, {"type": "node", "id": 6539894851, "lat": 28.6327062, "lon": 77.2193123, "tags": {"name": "Rajiv Chowk", "name:hi": "\u0930\u093e\u091c\u0940\u0935 \u091a\u094c\u0915", "name:kn": "\u0cb0\u0cbe\u0c9c\u0cc0\u0cb5\u0ccd \u0c9a\u0ccc\u0c95\u0ccd", "name:ru": "\u0420\u0430\u0434\u0436\u0438\u0432-\u0427\u043e\u043a", "name:ur": "\u0631\u0627\u062c\u06cc\u0648 \u0686\u0648\u06a9", "network": "Delhi Metro", "network:wikidata": "Q271195", "note": "Contributors are requested to not edit the \"network\" and the \"operator\" tags. (2023/06/22)", "operator": "Delhi Metro Rail Corporation Limited", "operator:wikidata": "Q1029339", "public_transport": "station", "railway": "station", "ref": "RCK", "station": "subway", "subway": "yes", "wikidata": "Q7286183"}}, {"type": "node", "id": 6539894855, "lat": 28.6297676, "lon": 77.2250046, "tags": {"name": "Barakhambha Road", "name:hi": "\u092c\u093e\u0930\u093e\u0916\u092e\u094d\u092c\u093e \u0930\u094b\u0921", "network": "Delhi Metro", "network:wikidata": "Q271195", "note": "Contributors are requested to not edit the \"network\" and the \"operator\" tags. (2023/06/22)", "operator": "Delhi Metro Rail Corporation Limited", "operator:wikidata": "Q1029339", "public_transport": "station", "railway": "station", "station": "subway", "subway": "yes", "wikidata": "Q4858265", "wikipedia": "en:Barakhamba Road metro station"}}, {"type": "node", "id": 6539894856, "lat": 28.6256122, "lon": 77.2341966, "tags": {"name": "Mandi House", "name:hi": "\u092e\u0902\u0921\u0940 \u0939\u093e\u0909\u0938", "name:kn": "\u0cae\u0c82\u0ca1\u0cbf \u0cb9\u0ccc\u0cb8\u0ccd", "name:ru": "\u0414\u043e\u043c \u041c\u0430\u043d\u0434\u0438", "network": "Delhi Metro", "note": "Contributors are requested to not edit the \"network\" and the \"operator\" tags. (2023/06/22)", "operator": "Delhi Metro Rail Corporation Limited", "public_transport": "station", "railway": "station", "ref": "MDHS", "station": "subway", "subway": "yes", "wikidata": "Q6748047", "wikipedia": "en:Mandi House metro station"}}, {"type": "node", "id": 6539894857, "lat": 28.6234752, "lon": 77.2425278, "tags": {"name": "Supreme Court", "name:bn": "\u09aa\u09cd\u09b0\u0997\u09a4\u09bf \u09ae\u09af\u09bc\u09a6\u09be\u09a8 \u09ae\u09c7\u099f\u09cd\u09b0\u09cb \u09b8\u09cd\u099f\u09c7\u09b6\u09a8", "name:hi": "\u092a\u094d\u0930\u0917\u0924\u093f \u092e\u0948\u0926\u093e\u0928", "network": "Delhi Metro", "note": "Contributors are requested to not edit the \"network\" and the \"operator\" tags. (2023/06/22)", "operator": "Delhi Metro Rail Corporation Limited", "public_transport": "station", "railway": "station", "station": "subway", "subway": "yes", "wheelchair": "yes", "wikidata": "Q7237614", "wikipedia": "en:Supreme Court metro station"}}, {"type": "node", "id": 7018886724, "lat": 28.6584227, "lon": 77.2303375, "tags": {"addr:postcode": "110006", "name": "Chandni Chowk", "name:hi": "\u091a\u093e\u0901\u0926\u0928\u0940 \u091a\u094c\u0915", "name:ru": "\u0427\u0430\u043d\u0434\u043d\u0438 \u0427\u043e\u0443\u043a", "name:ur": "\u0686\u0627\u0646\u062f\u0646\u06cc \u0686\u0648\u06a9", "network": "Delhi Metro", "note": "Contributors are requested to not edit the \"network\" and the \"operator\" tags. (2023/06/22)", "operator": "Delhi Metro Rail Corporation Limited", "operator:ur": "\u062f\u06c1\u0644\u06cc \u0645\u06cc\u0679\u0631\u0648", "public_transport": "station", "railway": "station", "ref": "CHK", "station": "subway", "subway": "yes", "wikidata": "Q5071227", "wikipedia": "en:Chandni Chowk metro station (Delhi)"}}, {"type": "node", "id": 7018886725, "lat": 28.6492649, "lon": 77.2265153, "tags": {"addr:postcode": "110006", "name": "Chawri Bazaar", "name:hi": "\u091a\u093e\u0935\u0921\u093c\u0940 \u092c\u093e\u091c\u093c\u093e\u0930", "name:ru": "\u0427\u0430\u0443\u0440\u0438-\u0411\u0430\u0437\u0430\u0440", "name:ur": "\u0686\u0627\u0624\u0691\u06cc \u0628\u0627\u0632\u0627\u0631", "network": "Delhi Metro", "note": "Contributors are requested to not edit the \"network\" and the \"operator\" tags. (2023/06/22)", "operator": "Delhi Metro Rail Corporation Limited", "public_transport": "station", "railway": "station", "ref": "CWBR", "station": "subway", "subway": "yes", "wikidata": "Q5088577", "wikipedia": "en:Chawri Bazar metro station"}}, {"type": "node", "id": 7018886726, "lat": 28.6229664, "lon": 77.214031, "tags": {"name": "Patel Chowk", "name:hi": "\u092a\u091f\u0947\u0932 \u091a\u094c\u0915", "name:ru": "\u041f\u0430\u0442\u0435\u043b \u0428\u043e\u0443\u043a", "name:ur": "\u067e\u0679\u06cc\u0644 \u0686\u0648\u06a9", "network": "Delhi Metro", "network:wikidata": "Q271195", "note": "Contributors are requested to not edit the \"network\" and the \"operator\" tags. (2023/06/22)", "operator": "Delhi Metro Rail Corporation Limited", "operator:wikidata": "Q1029339", "public_transport": "station", "railway": "station", "ref": "PTCK", "station": "subway", "subway": "yes", "wikidata": "Q7144407", "wikipedia": "en:Patel Chowk metro station"}}, {"type": "node", "id": 7018886727, "lat": 28.6095136, "lon": 77.211796, "tags": {"name": "Udyog Bhavan", "name:hi": "\u0909\u0926\u094d\u092f\u094b\u0917 \u092d\u0935\u0928", "name:ru": "\u0423\u0434\u044c\u0451\u0433 \u0411\u0445\u0430\u0432\u0430\u043d", "name:ur": "\u0627\u064f\u062f\u06cc\u0648\u06af \u0628\u06be\u0648\u0646", "network": "Delhi Metro", "network:wikidata": "Q271195", "note": "Contributors are requested to not edit the \"network\" and the \"operator\" tags. (2023/06/22)", "operator": "Delhi Metro Rail Corporation Limited", "operator:wikidata": "Q1029339", "public_transport": "station", "railway": "station", "ref": "UDB", "station": "subway", "subway": "yes", "wikidata": "Q7877392", "wikipedia": "en:Udyog Bhawan metro station"}}, {"type": "node", "id": 7018886728, "lat": 28.5973513, "lon": 77.2110967, "tags": {"name": "Lok Kalyan Marg", "name:hi": "\u0932\u094b\u0915 \u0915\u0932\u094d\u092f\u093e\u0923 \u092e\u093e\u0930\u094d\u0917", "name:kn": "\u0cb2\u0ccb\u0c95\u0ccd \u0c95\u0cb2\u0ccd\u0caf\u0cbe\u0ca3\u0ccd", "name:ru": "\u041b\u043e\u043a \u041a\u0430\u043b\u044c\u044f\u043d \u041c\u0430\u0440\u0433", "network": "Delhi Metro", "note": "Contributors are requested to not edit the \"network\" and the \"operator\" tags. (2023/06/22)", "old_name": "Race Course", "operator": "Delhi Metro Rail Corporation Limited", "public_transport": "station", "railway": "station", "station": "subway", "subway": "yes", "wikidata": "Q7278893", "wikipedia": "en:Lok Kalyan Marg metro station"}}, {"type": "node", "id": 7282286730, "lat": 28.657483, "lon": 77.2366607, "tags": {"addr:postcode": "110006", "name": "Lal Quila", "name:hi": "\u0932\u093e\u0932 \u0915\u093f\u0932\u093e", "name:ru": "\u041a\u0440\u0430\u0441\u043d\u044b\u0439 \u0424\u043e\u0440\u0442", "name:ur": "\u0644\u0627\u0644 \u0642\u0644\u0639\u06c1", "network": "Delhi Metro", "note": "Contributors are requested to not edit the \"network\" and the \"operator\" tags. (2023/06/22)", "operator": "Delhi Metro Rail Corporation Limited", "public_transport": "station", "railway": "station", "station": "subway", "subway": "yes", "toilets:wheelchair": "no", "wheelchair": "yes", "wikidata": "Q19581000", "wikipedia": "en:Lal Qila metro station"}}, {"type": "node", "id": 7282286731, "lat": 28.6022446, "lon": 77.2291281, "tags": {"name": "Khan Market", "name:hi": "\u0916\u093e\u0928 \u092c\u093e\u091c\u093e\u0930", "name:ru": "\u0420\u044b\u043d\u043e\u043a \u0425\u0430\u043d", "name:ur": "\u062e\u0627\u0646 \u0628\u0627\u0632\u0627\u0631", "network": "Delhi Metro", "note": "Contributors are requested to not edit the \"network\" and the \"operator\" tags. (2023/06/22)", "operator": "Delhi Metro Rail Corporation Limited", "public_transport": "station", "railway": "station", "station": "subway", "subway": "yes"}}, {"type": "node", "id": 7282286733, "lat": 28.6392174, "lon": 77.2407795, "tags": {"line": "Violet Line", "name": "Delhi Gate", "name:hi": "\u0926\u093f\u0932\u094d\u0932\u0940 \u0917\u0947\u091f", "name:ru": "\u0414\u0435\u043b\u0438\u0439\u0441\u043a\u0438\u0435 \u0432\u043e\u0440\u043e\u0442\u0430", "name:ur": "\u062f\u06c1\u0644\u06cc \u062f\u0631\u0648\u0627\u0632\u06c1", "network": "Delhi Metro", "note": "Contributors are requested to not edit the \"network\" and the \"operator\" tags. (2023/06/22)", "operator": "Delhi Metro Rail Corporation Limited", "public_transport": "station", "railway": "station", "ref": "DLIG", "station": "subway", "subway": "yes", "wikidata": "Q19580569", "wikipedia": "en:Delhi Gate metro station"}}, {"type": "node", "id": 8018558072, "lat": 28.6327786, "lon": 77.2196985, "tags": {"name": "Rajiv Chowk", "name:hi": "\u0930\u093e\u091c\u0940\u0935 \u091a\u094c\u0915", "name:kn": "\u0cb0\u0cbe\u0c9c\u0cc0\u0cb5\u0ccd \u0c9a\u0ccc\u0c95\u0ccd", "name:ml": "\u0d30\u0d3e\u0d1c\u0d40\u0d35\u0d4d \u0d1a\u0d57\u0d15\u0d4d\u0d15\u0d4d", "name:ru": "\u0420\u0430\u0434\u0436\u0438\u0432-\u0427\u043e\u043a", "name:ur": "\u0631\u0627\u062c\u06cc\u0648 \u0686\u0648\u06a9", "network": "Delhi Metro", "network:wikidata": "Q271195", "note": "Contributors are requested to not edit the \"network\" and the \"operator\" tags. (2023/06/22)", "operator": "Delhi Metro Rail Corporation Limited", "operator:wikidata": "Q1029339", "public_transport": "station", "railway": "station", "ref": "RCK", "station": "subway", "subway": "yes", "wikidata": "Q7286183", "wikipedia": "en:Rajiv Chowk metro station"}}, {"type": "node", "id": 9584236507, "lat": 28.6240485, "lon": 77.2192587, "tags": {"name": "Janpath", "name:en": "Janpath", "name:hi": "\u091c\u0928\u092a\u0925", "name:kn": "\u0c9c\u0ca8\u0ccd\u0caa\u0ca4\u0ccd", "name:ru": "\u0414\u0436\u0430\u043d\u043f\u0430\u0442", "name:ur": "\u062c\u0646 \u067e\u062a\u06be", "network": "Delhi Metro", "network:wikidata": "Q271195", "note": "Contributors are requested to not edit the \"network\" and the \"operator\" tags. (2023/06/22)", "operator": "Delhi Metro Rail Corporation Limited", "operator:wikidata": "Q1029339", "public_transport": "station", "railway": "station", "ref": "JNPH", "station": "subway", "subway": "yes", "wikidata": "Q16850982", "wikipedia": "en:Janpath metro station"}}, {"type": "node", "id": 9584236508, "lat": 28.6281909, "lon": 77.2410437, "tags": {"addr:city": "New Delhi", "name": "ITO", "name:hi": "\u0906\u0908\u091f\u0940\u0913", "name:kn": "\u0c90\u0c9f\u0cbf\u0c93", "name:ru": "\u0418\u0422\u041e", "network": "Delhi Metro", "note": "Contributors are requested to not edit the \"network\" and the \"operator\" tags. (2023/06/22)", "operator": "Delhi Metro Rail Corporation Limited", "public_transport": "station", "railway": "station", "ref": "ITO", "station": "subway", "subway": "yes", "wikidata": "Q19580817", "wikipedia": "en:ITO metro station"}}, {"type": "node", "id": 9920295123, "lat": 28.6255149, "lon": 77.2341926, "tags": {"name": "Mandi House", "name:hi": "\u092e\u0902\u0921\u0940 \u0939\u093e\u0909\u0938", "name:kn": "\u0cae\u0c82\u0ca1\u0cbf \u0cb9\u0ccc\u0cb8\u0ccd", "name:ru": "\u0414\u043e\u043c \u041c\u0430\u043d\u0434\u0438", "network": "Delhi Metro", "note": "Contributors are requested to not edit the \"network\" and the \"operator\" tags. (2023/06/22)", "operator": "Delhi Metro Rail Corporation Limited", "public_transport": "station", "railway": "station", "ref": "MDHS", "station": "subway", "subway": "yes", "wikidata": "Q6748047", "wikipedia": "en:Mandi House metro station"}}, {"type": "node", "id": 12712532190, "lat": 28.600006, "lon": 77.227255}, {"type": "node", "id": 12712532198, "lat": 28.6001361, "lon": 77.2271496}, {"type": "node", "id": 12876529173, "lat": 28.6439049, "lon": 77.1875506}, {"type": "node", "id": 12876529174, "lat": 28.6441685, "lon": 77.189373}, {"type": "node", "id": 12876529175, "lat": 28.6440526, "lon": 77.1893947}, {"type": "node", "id": 12876529176, "lat": 28.6437894, "lon": 77.1875723}, {"type": "way", "id": 351418783, "nodes": [3571786995, 3571786984, 3571786971, 3571786974, 3571786995], "tags": {"building": "yes", "name": "Patel Chowk", "name:hi": "\u092a\u091f\u0947\u0932 \u091a\u094c\u0915", "name:ru": "\u041f\u0430\u0442\u0435\u043b \u0428\u043e\u0443\u043a", "network": "Delhi Metro", "network:wikidata": "Q271195", "note": "Contributors are requested to not edit the \"network\" and the \"operator\" tags. (2023/06/22)", "operator": "Delhi Metro Rail Corporation Limited", "operator:wikidata": "Q1029339", "public_transport": "station", "railway": "station", "station": "subway", "subway": "yes"}}, {"type": "way", "id": 360264006, "nodes": [3648452310, 3648452312, 3648452305, 3648452304, 3648452310], "tags": {"building": "transportation", "layer": "-1", "location": "surface", "name": "Jama Masjid", "name:hi": "\u091c\u093e\u092e\u093e \u092e\u0938\u094d\u091c\u093f\u0926", "name:ru": "\u041c\u0435\u0447\u0435\u0442\u044c \u0414\u0436\u0430\u043c\u0430", "name:ur": "\u062c\u0627\u0645\u0639 \u0645\u0633\u062c\u062f", "network": "Delhi Metro", "note": "Contributors are requested to not edit the \"network\" and the \"operator\" tags. (2023/06/22)", "operator": "Delhi Metro Rail Corporation Limited", "public_transport": "station", "railway": "station", "ref": "JAMD", "station": "subway", "subway": "yes", "wikidata": "Q19580828", "wikipedia": "en:Jama Masjid metro station"}}, {"type": "way", "id": 1372976809, "nodes": [12712532190, 12712532198], "tags": {"highway": "path", "network:wikidata": "Q1055811", "operator:wikidata": "Q908666", "station": "subway"}}, {"type": "way", "id": 1391095702, "nodes": [12876529173, 12876529174, 12876529175, 12876529176, 12876529173], "tags": {"public_transport": "station", "railway": "station", "train": "yes"}}]}