{"version": 0.6, "generator": "Overpass API 0.7.62.8 e802775f", "osm3s": {"timestamp_osm_base": "2025-12-07T20:35:58Z", "copyright": "The data included in this document is from www.openstreetmap.org. The data is made available under ODbL."}, "elements": [{"type": "node", "id": 928558283, "lat": 28.6351018, "lon": 77.2201443, "tags": {"name": "New Prominent Tailor", "shop": "tailor"}}, {"type": "node", "id": 928563257, "lat": 28.6347575, "lon": 77.2200923, "tags": {"addr:block": "C", "contact:email": "mg570477@gmail.com", "contact:facebook": "frameszon", "contact:instagram": "frameszon", "contact:whatsapp": "+91 8810234227", "indoor": "yes", "name": "Frameszon", "operator:wikidata": "Q857063", "phone": "+91 11 45721725", "shop": "optician"}}, {"type": "node", "id": 1421697605, "lat": 28.6276711, "lon": 77.2198524, "tags": {"addr:housename": "Mehrasons Jewellers", "addr:housenumber": "2", "addr:place": "Indraprastha Extension", "addr:street": "Janpath", "name": "Mehrasons Jewellers", "shop": "jewelry", "website": "https://www.mehrasonsjewellers.com"}}, {"type": "node", "id": 1534482780, "lat": 28.6346445, "lon": 77.2059889, "tags": {"shop": "art"}}, {"type": "node", "id": 1940318561, "lat": 28.641578, "lon": 77.2133239, "tags": {"shop": "convenience"}}, {"type": "node", "id": 2209529029, "lat": 28.6169705, "lon": 77.2267362, "tags": {"addr:housename": "moti", "addr:housenumber": "123", "addr:postcode": "020626", "addr:street": "moti", "name": "moti", "shop": "bakery", "website": "abccccc"}}, {"type": "node", "id": 2327524042, "lat": 28.627656, "lon": 77.2191809, "tags": {"addr:city": "New Delhi", "name": "Tantra T-shirts", "shop": "clothes"}}, {"type": "node", "id": 2410180163, "lat": 28.6312577, "lon": 77.2153721, "tags": {"addr:city": "New Delhi", "name": "Delhi Emporium", "shop": "department_store"}}, {"type": "node", "id": 2410180165, "lat": 28.6347746, "lon": 77.2195352, "tags": {"brand": "Arrow;Raymond", "clothes": "men", "level": "0", "name": "Shellka", "second_hand": "no", "shop": "clothes", "wheelchair": "yes"}}, {"type": "node", "id": 2592537219, "lat": 28.6309471, "lon": 77.2213164, "tags": {"name": "Beer& Wine Shop", "shop": "alcohol"}}, {"type": "node", "id": 3555798285, "lat": 28.6326979, "lon": 77.2070409, "tags": {"addr:state": "DL", "addr:street": "Baird Lane", "contact:phone": "+91 11 4125 4640", "level": "0", "name": "Supermax Dry Cleaners", "shop": "dry_cleaning"}}, {"type": "node", "id": 3571786141, "lat": 28.6180782, "lon": 77.2194476}, {"type": "node", "id": 3571786142, "lat": 28.6180812, "lon": 77.2191466}, {"type": "node", "id": 3571786144, "lat": 28.618198, "lon": 77.2194492}, {"type": "node", "id": 3571786145, "lat": 28.618201, "lon": 77.2191481}, {"type": "node", "id": 3744148557, "lat": 28.6181024, "lon": 77.2194479}, {"type": "node", "id": 3744148558, "lat": 28.6181024, "lon": 77.2194559}, {"type": "node", "id": 3744148559, "lat": 28.6181379, "lon": 77.2194564}, {"type": "node", "id": 3744148560, "lat": 28.618138, "lon": 77.2194484}, {"type": "node", "id": 4069814471, "lat": 28.6341341, "lon": 77.2187527, "tags": {"addr:housename": "B", "addr:place": "Connaught Place", "addr:postcode": "110001", "brand": "Levi's", "brand:wikidata": "Q127962", "clothes": "denim;men;women", "level": "0", "name": "Levi's", "shop": "clothes", "wheelchair": "limited"}}, {"type": "node", "id": 4076669377, "lat": 28.6467834, "lon": 77.2128331, "tags": {"name": "Krishna Shoes", "shop": "shoes", "wheelchair": "no"}}, {"type": "node", "id": 4122564393, "lat": 28.6337894, "lon": 77.2085573, "tags": {"addr:housenumber": "129", "addr:state": "DL", "addr:street": "Bangla Sahib Road", "level": "0", "name": "Bangla Sweet N Spice", "shop": "confectionery"}}, {"type": "node", "id": 4133877118, "lat": 28.645342, "lon": 77.2112304, "tags": {"name": "Ma 3 3", "name:hi": "Ma 3 3", "shop": "alcohol"}}, {"type": "node", "id": 4219631339, "lat": 28.6301669, "lon": 77.2174792, "tags": {"addr:city": "New Delhi", "name": "People Tree", "opening_hours": "Mo-Su 11:30-19:30", "shop": "clothes"}}, {"type": "node", "id": 4343776289, "lat": 28.6346206, "lon": 77.2200745, "tags": {"addr:block": "C", "addr:housenumber": "4;5", "level": "0;1", "name": "Jain Book Depot", "shop": "books", "wheelchair": "limited"}}, {"type": "node", "id": 4391597491, "lat": 28.6312947, "lon": 77.2198044, "tags": {"addr:postcode": "110001", "addr:street": "F-30 B, Ground floor, Malhotra building, Opp Palika Bazar gate no-6, Inner circle", "name": "Gupta Sports House", "shop": "sports"}}, {"type": "node", "id": 4415219190, "lat": 28.645693, "lon": 77.2108527, "tags": {"addr:housenumber": "9008", "addr:postcode": "110055", "addr:street": "Deshbandhu Gupta Road", "brand": "Reliance Fresh", "brand:wikidata": "Q7311014", "name": "Reliance Fresh", "name:hi": "Reliance Fresh", "opening_hours": "Mo-Su 07:00-22:00", "phone": "02261220220", "shop": "supermarket"}}, {"type": "node", "id": 4443303491, "lat": 28.6323144, "lon": 77.2180249, "tags": {"addr:housename": "A", "air_conditioning": "yes", "brand": "Uniqlo", "brand:wikidata": "Q26070", "clothes": "women;men;children", "name": "Uniqlo", "name:en": "Uniqlo", "name:hi": "Uniqlo", "opening_hours": "Mon-Su 11:00-22:00", "payment:cash": "yes", "payment:credit_cards": "yes", "payment:debit_cards": "yes", "payment:upi": "yes", "phone": "+91 7303335832", "shop": "clothes", "website": "https://www.uniqlo.com/in/en/"}}, {"type": "node", "id": 4445099389, "lat": 28.6333286, "lon": 77.2183439, "tags": {"fixme": "I did not see this in Block A, let alone at this position. This should be moved or deleted after a survey.", "name": "Wrangler", "shop": "clothes"}}, {"type": "node", "id": 4445111189, "lat": 28.6342961, "lon": 77.2193544, "tags": {"addr:housename": "B", "addr:place": "Connaught Place", "addr:postcode": "110001", "addr:unit": "27", "check_date": "2023-12-22", "level": "0", "name": "Baluja's", "operator": "Baluja Shoe Co.", "shop": "clothes", "wheelchair": "limited"}}, {"type": "node", "id": 4445111190, "lat": 28.6341138, "lon": 77.2187136, "tags": {"addr:housename": "B", "addr:place": "Connaught Place", "addr:postcode": "110001", "brand": "H&M", "brand:wikidata": "Q188326", "level": "0", "name": "H&M", "shop": "clothes"}}, {"type": "node", "id": 4447444793, "lat": 28.633364, "lon": 77.2164903, "tags": {"shop": "travel_agency"}}, {"type": "node", "id": 4447524891, "lat": 28.6297544, "lon": 77.2169738, "tags": {"shop": "travel_agency"}}, {"type": "node", "id": 4460479126, "lat": 28.6307138, "lon": 77.2197015, "tags": {"brand": "Sony Centre", "brand:wikidata": "Q3437496", "check_date": "2023-12-22", "name": "Sony Centre", "name:hi": "\u0938\u094b\u0928\u0940 \u0938\u0947\u0902\u091f\u0930", "shop": "electronics"}}, {"type": "node", "id": 4582253690, "lat": 28.6468148, "lon": 77.1977758, "tags": {"name": "Benelli Motorcycle Delhi", "name:en": "Benelli Motorcycle Delhi", "shop": "car_repair"}}, {"type": "node", "id": 4679888370, "lat": 28.6302916, "lon": 77.2045509, "tags": {"shop": "florist"}}, {"type": "node", "id": 4709852091, "lat": 28.6333804, "lon": 77.21807, "tags": {"addr:housename": "A", "addr:place": "Connaught Place", "addr:postcode": "110001", "addr:street": "Inner Circle", "addr:unit": "22", "name": "Wenger's", "phone": "+91-11-2332-8589", "shop": "bakery", "website": "https://wengers.in/"}}, {"type": "node", "id": 4711004415, "lat": 28.6270888, "lon": 77.2174579, "tags": {"addr:city": "New Delhi", "addr:housenumber": "124", "addr:street": "Janpath Lane", "name": "Blue Dart DHL", "phone": "18602331234", "shop": "yes"}}, {"type": "node", "id": 4711298789, "lat": 28.6294288, "lon": 77.2319022, "tags": {"name": "Bengali Sweet house & Pastry", "shop": "bakery"}}, {"type": "node", "id": 4711354394, "lat": 28.6481235, "lon": 77.2117033, "tags": {"name": "Janta Sweets ( kashori samosa)", "name:en": "Janta Sweets ( kashori samosa)", "phone": "9811009914", "shop": "bakery"}}, {"type": "node", "id": 4716197061, "lat": 28.6347993, "lon": 77.2126048, "tags": {"name": "resto", "shop": "convenience"}}, {"type": "node", "id": 4746752521, "lat": 28.6406664, "lon": 77.2113691, "tags": {"addr:street": "Main Bazaar", "name": "Sushant Travels", "shop": "travel_agency"}}, {"type": "node", "id": 4869833821, "lat": 28.6354055, "lon": 77.2208376, "tags": {"addr:housenumber": "33", "addr:postcode": "110001", "addr:street": "Outer Circle", "email": "smacktravel@gmail.com", "name": "Smack Travel", "name:en": "Smack Travel", "opening_hours": "Mo-Su 07:00-19:00", "phone": "9811581279", "shop": "travel_agency"}}, {"type": "node", "id": 4936989322, "lat": 28.6310412, "lon": 77.2218852, "tags": {"brand": "Oxford Bookstore", "brand:wikidata": "Q7115252", "level": "1", "name": "Oxford Bookstore", "name:en": "Oxford Bookstore", "shop": "books"}}, {"type": "node", "id": 4983371294, "lat": 28.643368, "lon": 77.2193038, "tags": {"information": "office", "level": "1", "opening_hours": "Mo-Su 06:00-23:00", "shop": "ticket", "tourism": "information", "vending": "public_transport_tickets"}}, {"type": "node", "id": 5248543927, "lat": 28.64038, "lon": 77.213101, "tags": {"name": "Bhumi Spices Shop", "shop": "supermarket"}}, {"type": "node", "id": 5253912722, "lat": 28.6392425, "lon": 77.2095887, "tags": {"name": "novel exp", "shop": "clothes"}}, {"type": "node", "id": 5255885021, "lat": 28.6408128, "lon": 77.2119082, "tags": {"name": "hare krishna handloom", "shop": "gift"}}, {"type": "node", "id": 5432868322, "lat": 28.6400727, "lon": 77.2131143, "tags": {"name:ru": "\u0421\u043f\u0435\u0446\u0438\u0438", "shop": "greengrocer"}}, {"type": "node", "id": 5440621529, "lat": 28.615713, "lon": 77.21373, "tags": {"addr:city": "New Delhi", "name": "Organic Retail Store", "shop": "convenience"}}, {"type": "node", "id": 5521617170, "lat": 28.6309492, "lon": 77.2168971, "tags": {"name": "Soch", "name:hi": "\u0938\u094b\u091a", "shop": "clothes"}}, {"type": "node", "id": 5545574397, "lat": 28.6327775, "lon": 77.2178939, "tags": {"addr:housename": "A", "brand": "Van Heusen", "brand:wikidata": "Q67551865", "clothes": "men", "name": "Van Heusen", "shop": "clothes"}}, {"type": "node", "id": 5545574399, "lat": 28.6314687, "lon": 77.2206618, "tags": {"check_date": "2023-12-22", "name": "Cantabil", "shop": "clothes"}}, {"type": "node", "id": 5545575719, "lat": 28.6312993, "lon": 77.2203072, "tags": {"brand": "Woodland", "check_date": "2023-12-22", "name": "Woodland", "shop": "shoes"}}, {"type": "node", "id": 5545575720, "lat": 28.6310982, "lon": 77.2167474, "tags": {"addr:city": "New Delhi", "name": "Khadi India", "opening_hours": "Mo-Su 11:00-19:30; PH closed", "shop": "department_store", "wheelchair": "no"}}, {"type": "node", "id": 5545576288, "lat": 28.6332362, "lon": 77.2180099, "tags": {"addr:housename": "A", "brand": "Louis Philippe", "brand:wikidata": "Q18350510", "brand:wikipedia": "en:Louis Philippe (brand)", "clothes": "men", "name": "Louis Philippe", "shop": "clothes", "website": "http://www.louisphilippe.com/"}}, {"type": "node", "id": 5545576289, "lat": 28.6316148, "lon": 77.2208288, "tags": {"check_date": "2023-12-22", "name": "Pandit Brothers", "shop": "bag"}}, {"type": "node", "id": 5545576298, "lat": 28.632172, "lon": 77.2176401, "tags": {"addr:city": "New Delhi", "addr:housename": "A", "addr:postcode": "110001", "addr:street": "Radial Road 2", "brand": "Fabindia", "brand:wikidata": "Q5427779", "clothes": "women;men", "name": "Fabindia", "organic": "yes", "payment:cash": "yes", "payment:debit_cards": "yes", "shop": "clothes", "website": "https://www.fabindia.com/"}}, {"type": "node", "id": 5545576299, "lat": 28.6339194, "lon": 77.2185143, "tags": {"addr:housename": "B", "addr:place": "Connaught Place", "addr:postcode": "110001", "level": "0", "name": "Zodiac", "shop": "clothes"}}, {"type": "node", "id": 5647754300, "lat": 28.6315876, "lon": 77.2222789, "tags": {"addr:full": "F 14/15, Mezzanine F1, Connaught Place, Inner Circle, New Delhi, Delhi", "air_conditioning": "yes", "amenity": "cafe", "brand": "Chaayos", "brand:wikidata": "Q117235235", "cuisine": "tea", "diet:vegetarian": "yes", "level": "1", "name": "Chaayos", "shop": "tea", "takeaway": "yes"}}, {"type": "node", "id": 5647754302, "lat": 28.6316939, "lon": 77.2221888, "tags": {"addr:housenumber": "M-6", "addr:place": "Connaught Place", "addr:postcode": "110001", "name": "Beecham's Press Private Limited", "shop": "mobile_phone"}}, {"type": "node", "id": 5647754779, "lat": 28.6317238, "lon": 77.2221209, "tags": {"addr:housenumber": "M-4", "addr:place": "Connaught Place", "name": "Textile Emporium", "shop": "fabric"}}, {"type": "node", "id": 5647754783, "lat": 28.6316761, "lon": 77.2222326, "tags": {"clothes": "men;suits", "name": "Raymond", "shop": "fabric"}}, {"type": "node", "id": 5656393231, "lat": 28.6330221, "lon": 77.2179096, "tags": {"addr:housename": "A", "brand": "Blackberrys", "brand:wikidata": "Q4922570", "clothes": "men;suits", "name": "Blackberrys", "shop": "clothes"}}, {"type": "node", "id": 5656398091, "lat": 28.6330798, "lon": 77.2179653, "tags": {"addr:housename": "A", "addr:place": "Connaught Place", "addr:unit": "11", "name": "Sillviato", "phone": "+91-11-2332-7587", "shop": "jewelry"}}, {"type": "node", "id": 5656398298, "lat": 28.6328187, "lon": 77.2178944, "tags": {"addr:housename": "A", "clothes": "women", "name": "Shasha", "shop": "clothes"}}, {"type": "node", "id": 5656398299, "lat": 28.6328693, "lon": 77.2178957, "tags": {"addr:housename": "A", "name": "Hidesign", "shop": "bag"}}, {"type": "node", "id": 5656399714, "lat": 28.6333153, "lon": 77.2180419, "tags": {"addr:housename": "A", "brand:wikidata": "Q7298974", "brand:wikipedia": "en:Raymond Ltd", "clothes": "men;suits", "name": "Raymond", "operator": "Raymond Group", "shop": "fabric;clothes", "website": "https://www.raymond.in/"}}, {"type": "node", "id": 5656399715, "lat": 28.63345, "lon": 77.2181043, "tags": {"addr:housename": "A", "name": "Nirmal Vijay and Company Jewellers", "shop": "jewelry"}}, {"type": "node", "id": 5771449329, "lat": 28.643629, "lon": 77.2183234, "tags": {"shop": "convenience"}}, {"type": "node", "id": 5771449330, "lat": 28.6435882, "lon": 77.2182842, "tags": {"shop": "tobacco"}}, {"type": "node", "id": 5784309283, "lat": 28.6332798, "lon": 77.216878, "tags": {"addr:block": "G", "addr:housename": "Marina Arcade", "addr:postcode": "110001", "addr:unit": "18A", "name": "People's Publishing House", "opening_hours": "Mo-Su 10:00-18:30", "phone": "+91-11-2332-4064", "shop": "books"}}, {"type": "node", "id": 5784310851, "lat": 28.633086, "lon": 77.2166998, "tags": {"addr:street": "D00", "brand": "Samsung;Motorola", "name": "SAMSUNG", "shop": "electronics"}}, {"type": "node", "id": 5784310852, "lat": 28.6331181, "lon": 77.2166998, "tags": {"addr:block": "G", "addr:housename": "Marina Arcade", "addr:postcode": "110001", "addr:unit": "20/1", "name": "SR Gaur Unisex Salon", "shop": "beauty"}}, {"type": "node", "id": 5784312105, "lat": 28.6337485, "lon": 77.2170069, "tags": {"addr:street": "D00", "name": "Rikhi Ram", "shop": "musical_instrument"}}, {"type": "node", "id": 5784312304, "lat": 28.6331522, "lon": 77.2167008, "tags": {"addr:block": "G", "addr:housenumber": "20", "name": "Army Equippers", "shop": "clothes"}}, {"type": "node", "id": 5790138833, "lat": 28.6332406, "lon": 77.2168057, "tags": {"addr:block": "G", "addr:unit": "1/18", "name": "Imperial Leather Works", "shop": "leather"}}, {"type": "node", "id": 5799050088, "lat": 28.6268616, "lon": 77.2114437, "tags": {"addr:city": "New Delhi", "clothes": "turbans", "name": "Dashmesh Pagrian", "name:hi": "\u0926\u0936\u092e\u0947\u0936 \u092a\u0917\u095c\u093f\u092f\u093e\u0901", "opening_hours": "Mo-Su 10:00-21:00", "phone": "+91-98180-23453", "shop": "clothes"}}, {"type": "node", "id": 5799050089, "lat": 28.627196, "lon": 77.2108522, "tags": {"addr:city": "New Delhi", "brand": "Mother Dairy", "brand:wikidata": "Q6917320", "name": "Mother Dairy", "opening_hours": "Mo-Su 05:30-13:00, 16:00-22:00", "shop": "dairy"}}, {"type": "node", "id": 5799061870, "lat": 28.6297299, "lon": 77.2171503, "tags": {"clothes:men": "yes", "name": "Reid & Taylor", "shop": "fabric;clothes"}}, {"type": "node", "id": 5799063060, "lat": 28.6296751, "lon": 77.2171117, "tags": {"addr:housename": "Regal Building", "addr:postcode": "110001", "addr:street": "Sansad Marg", "addr:unit": "1-A", "name": "Duli Chand's", "phone": "+91-11-4150-3373;+91-98990-52473", "shop": "bag"}}, {"type": "node", "id": 5810150756, "lat": 28.6307613, "lon": 77.2189172, "tags": {"name": "Palika Bazar", "name:en": "Palika Bazar", "name:hi": "\u092a\u093e\u0932\u093f\u0915\u093e \u092c\u093e\u091c\u093c\u093e\u0930", "name:ml": "\u0d2a\u0d3e\u0d32\u0d3f\u0d15 \u0d2c\u0d38\u0d3e\u0d7c", "shop": "convenience", "wikidata": "Q7127533", "wikimedia_commons": "Category:Palika Bazaar", "wikipedia": "en:Palika Bazaar"}}, {"type": "node", "id": 5810594586, "lat": 28.6289192, "lon": 77.2192875, "tags": {"addr:city": "New Delhi", "name": "New Book Land", "shop": "books"}}, {"type": "node", "id": 5810594587, "lat": 28.6288687, "lon": 77.2185141, "tags": {"addr:city": "New Delhi", "addr:housename": "Janpath Bhawan", "addr:unit": "25", "name": "Famous Book Store", "shop": "books"}}, {"type": "node", "id": 5810595111, "lat": 28.6343926, "lon": 77.2200051, "tags": {"addr:block": "C", "addr:housenumber": "9", "check_date": "2024-02-18", "contact:phone": "+91-11-4455-6677", "contact:website": "https://jainbookagency.com", "contact:whatsapp": "+91-88105-66260", "level": "0", "name": "New Delhi Stationery Mart", "opening_hours": "Mo-Su 10:00-19:30", "shop": "stationery", "wheelchair": "no"}}, {"type": "node", "id": 5921856000, "lat": 28.6411257, "lon": 77.2125615, "tags": {"name": "Happy", "name:he": "\u05d4\u05d0\u05e4\u05d9 \u05d4\u05de\u05e7\u05d5\u05e8\u05d9!", "shop": "alcohol"}}, {"type": "node", "id": 5977001779, "lat": 28.6296851, "lon": 77.2320846, "tags": {"name": "Roshan Lal & Sons", "shop": "newsagent"}}, {"type": "node", "id": 5977002497, "lat": 28.6296792, "lon": 77.2320648, "tags": {"name": "Karachi Bakery", "shop": "bakery"}}, {"type": "node", "id": 5977002498, "lat": 28.6296692, "lon": 77.2320447, "tags": {"name": "Brij Fruit Mart", "shop": "greengrocer"}}, {"type": "node", "id": 5977002515, "lat": 28.6297134, "lon": 77.2319622, "tags": {"shop": "stationery"}}, {"type": "node", "id": 6053797349, "lat": 28.6447598, "lon": 77.1994055, "tags": {"motorcycle:clothes": "helmet", "motorcycle:repair": "no", "motorcycle:sales": "no", "noname": "yes", "second_hand": "no", "shop": "motorcycle", "wheelchair": "no"}}, {"type": "node", "id": 6077096068, "lat": 28.6273806, "lon": 77.2341891, "tags": {"level": "0", "name": "Safal", "opening_hours": "Mo-Su 06:00-14:00, 16:00-21:00", "organic": "yes", "shop": "greengrocer"}}, {"type": "node", "id": 6077096431, "lat": 28.6274994, "lon": 77.2343423, "tags": {"brand": "Mother Dairy", "brand:wikidata": "Q6917320", "level": "0", "name": "Mother Dairy", "opening_hours": "Mo-Su 05:30-13:00, 16:00-22:00", "ref": "217", "shop": "dairy"}}, {"type": "node", "id": 6107006754, "lat": 28.6418903, "lon": 77.2242686, "tags": {"shop": "alcohol"}}, {"type": "node", "id": 6107007547, "lat": 28.6293578, "lon": 77.214612, "tags": {"brand": "Mother Dairy", "brand:wikidata": "Q6917320", "name": "Mother Dairy", "shop": "dairy"}}, {"type": "node", "id": 6161686835, "lat": 28.6338745, "lon": 77.2215203, "tags": {"brand": "Theobroma", "brand:wikidata": "Q124374469", "delivery": "yes", "name": "Theobroma", "shop": "pastry", "takeaway": "yes"}}, {"type": "node", "id": 6161687905, "lat": 28.6313639, "lon": 77.2213236, "tags": {"brand": "Maruti Suzuki", "brand:wikidata": "Q963718", "name": "Competent Automobiles", "shop": "car"}}, {"type": "node", "id": 6161690625, "lat": 28.6326303, "lon": 77.2161949, "tags": {"addr:city": "New Delhi", "name": "Central News Agency", "shop": "books"}}, {"type": "node", "id": 6161690885, "lat": 28.6342581, "lon": 77.2210328, "tags": {"alcohol": "yes", "brand": "Crom\u0101", "brand:wikidata": "Q5187683", "level": "0;-1", "name": "Crom\u0101", "shop": "electronics", "survey:date": "2023-01-24", "wheelchair": "limited"}}, {"type": "node", "id": 6187906788, "lat": 28.6449451, "lon": 77.2108296, "tags": {"name": "Kukdeep Tea Shop", "shop": "beverages"}}, {"type": "node", "id": 6187933585, "lat": 28.6454375, "lon": 77.2111165, "tags": {"name": "Indian Tea Shop", "shop": "beverages"}}, {"type": "node", "id": 6224257212, "lat": 28.6246027, "lon": 77.2334252, "tags": {"shop": "books"}}, {"type": "node", "id": 6224339286, "lat": 28.63129, "lon": 77.2222145, "tags": {"brand": "Samsung", "brand:wikidata": "Q20718", "name": "Samsung", "shop": "electronics"}}, {"type": "node", "id": 6225478958, "lat": 28.6304619, "lon": 77.2173996, "tags": {"addr:city": "New Delhi", "brand": "Bata", "brand:wikidata": "Q688082", "name": "Pellenium", "shop": "shoes", "survey:date": "2023-01-22"}}, {"type": "node", "id": 6225727511, "lat": 28.6296991, "lon": 77.1996353}, {"type": "node", "id": 6225727512, "lat": 28.6292888, "lon": 77.1996914}, {"type": "node", "id": 6225727513, "lat": 28.6292934, "lon": 77.1997715}, {"type": "node", "id": 6225727514, "lat": 28.6297014, "lon": 77.1997101}, {"type": "node", "id": 6288110430, "lat": 28.6295607, "lon": 77.2325052, "tags": {"shop": "stationery"}}, {"type": "node", "id": 6319999285, "lat": 28.6406118, "lon": 77.2119767, "tags": {"name": "Open Hand Laundry", "shop": "laundry"}}, {"type": "node", "id": 6326924485, "lat": 28.6457131, "lon": 77.2107427, "tags": {"name": "Wine + Beer Shop", "shop": "alcohol"}}, {"type": "node", "id": 6331451485, "lat": 28.6320386, "lon": 77.2213949, "tags": {"level": "0", "name": "M. Ram and Sons", "shop": "fabric", "wheelchair": "limited"}}, {"type": "node", "id": 6387937086, "lat": 28.6411646, "lon": 77.2106965, "tags": {"brand": "Airtel", "brand:wikidata": "Q854867", "name": "Airtel", "shop": "mobile_phone"}}, {"type": "node", "id": 6404118986, "lat": 28.6303818, "lon": 77.2209003, "tags": {"addr:housenumber": "N-21", "addr:street": "Outer Circle", "email": "amritbookco@hotmail.com", "name": "Amit Book Company", "phone": "+91 11 2331 7331", "shop": "books", "wheelchair": "limited"}}, {"type": "node", "id": 6408253201, "lat": 28.6326411, "lon": 77.2214809, "tags": {"check_date": "2023-12-20", "level": "0", "name": "The Raymond Shop", "operator": "Raymond", "shop": "fabric", "wheelchair": "limited"}}, {"type": "node", "id": 6408253202, "lat": 28.6313946, "lon": 77.2206423, "tags": {"level": "0", "name": "Dass Studios", "shop": "electronics"}}, {"type": "node", "id": 6414427986, "lat": 28.6331242, "lon": 77.2213738}, {"type": "node", "id": 6447831887, "lat": 28.6392718, "lon": 77.2129569, "tags": {"name:ja": "\u304a\u3044\u3057\u3044\u30de\u30f3\u30b4\u30fc\u30b7\u30a7\u30a4\u30af", "shop": "beverages"}}, {"type": "node", "id": 6449562257, "lat": 28.6284399, "lon": 77.2192662, "tags": {"addr:city": "New Delhi", "name": "Partap Florist", "phone": "+91-2332-2047;+91-2373-8280", "shop": "florist"}}, {"type": "node", "id": 6495330846, "lat": 28.6341682, "lon": 77.2188138, "tags": {"addr:housename": "B", "addr:place": "Connaught Place", "addr:postcode": "110001", "addr:unit": "20", "air_conditioning": "yes", "brand": "Nike", "brand:wikidata": "Q483915", "check_date": "2024-09-17", "level": "0;1", "name": "Nike", "operator": "BDA Co.", "second_hand": "no", "shop": "shoes", "wheelchair": "yes"}}, {"type": "node", "id": 6495330849, "lat": 28.6343152, "lon": 77.2195054, "tags": {"addr:housename": "B", "addr:place": "Connaught Place", "addr:postcode": "110001", "brand": "Woodland", "brand:wikidata": "Q123068491", "check_date": "2023-12-22", "level": "0", "name": "Woodland", "operator": "Aero Club", "shop": "shoes", "wheelchair": "yes"}}, {"type": "node", "id": 6495330851, "lat": 28.6338282, "lon": 77.2184047, "tags": {"addr:housename": "B", "addr:place": "Connaught Place", "addr:postcode": "110001", "addr:unit": "11", "check_date": "2023-12-22", "level": "0", "name": "Jockey", "operator": "R. Meattle & Sons", "phone": "+91-11-2332-7699;+91-11-4354-6949", "shop": "clothes", "wheelchair": "limited"}}, {"type": "node", "id": 6495330854, "lat": 28.6347172, "lon": 77.2195343, "tags": {"addr:housename": "B", "addr:place": "Connaught Place", "addr:postcode": "110001", "clothes": "women", "level": "0", "name": "And", "shop": "clothes", "toilets:wheelchair": "yes", "wheelchair": "yes"}}, {"type": "node", "id": 6495330856, "lat": 28.634285, "lon": 77.2192948, "tags": {"addr:housename": "B", "addr:place": "Connaught Place", "addr:postcode": "110001", "check_date": "2023-12-22", "level": "0", "name": "Sports Station", "shop": "shoes", "wheelchair": "limited"}}, {"type": "node", "id": 6495330862, "lat": 28.633867, "lon": 77.2184488, "tags": {"addr:housename": "B", "addr:place": "Connaught Place", "addr:postcode": "110001", "brand": "Skechers", "brand:wikidata": "Q2945643", "level": "0", "name": "Skechers", "shop": "shoes", "wheelchair": "yes"}}, {"type": "node", "id": 6495330863, "lat": 28.6346923, "lon": 77.2195337, "tags": {"addr:housename": "B", "addr:place": "Connaught Place", "addr:postcode": "110001", "clothes": "traditional;women", "level": "0", "name": "W", "operator": "Karwa Retail Private Limited", "shop": "clothes", "wheelchair": "yes"}}, {"type": "node", "id": 6495330864, "lat": 28.6343042, "lon": 77.2194176, "tags": {"addr:housename": "B", "addr:place": "Connaught Place", "addr:postcode": "110001", "brand": "Planet Fashion", "clothes": "men", "level": "0", "name": "Planet Fashion", "operator": "Aditya Birla", "shop": "clothes"}}, {"type": "node", "id": 6495330867, "lat": 28.6344204, "lon": 77.2195558, "tags": {"addr:housename": "B", "addr:place": "Connaught Place", "addr:postcode": "110001", "check_date": "2023-12-22", "clothes": "women", "name": "Aurelia", "shop": "clothes"}}, {"type": "node", "id": 6495330870, "lat": 28.6344614, "lon": 77.2195591, "tags": {"addr:housename": "B", "addr:place": "Connaught Place", "addr:postcode": "110001", "name": "Eleven", "shop": "shoes"}}, {"type": "node", "id": 6495330871, "lat": 28.6340408, "lon": 77.2186835, "tags": {"addr:housename": "B", "addr:place": "Connaught Place", "addr:postcode": "110001", "level": "0", "name": "Shaw Sons", "phone": "+91-11-4661-3076;+91-11-98118-07108;+91-98712-17682", "shop": "handicraft"}}, {"type": "node", "id": 6495330872, "lat": 28.6341849, "lon": 77.2188513, "tags": {"clothes": "traditional", "level": "0;1", "name": "Mohanlal Sons", "shop": "clothes"}}, {"type": "node", "id": 6495330874, "lat": 28.6343423, "lon": 77.2195457, "tags": {"addr:housename": "B", "addr:place": "Connaught Place", "addr:postcode": "110001", "name": "Monte Carlo", "shop": "clothes", "wheelchair": "yes"}}, {"type": "node", "id": 6495330877, "lat": 28.6338487, "lon": 77.2184265, "tags": {"addr:housename": "B", "addr:place": "Connaught Place", "addr:postcode": "110001", "branch": "Association", "brand": "U.S. Polo Assn.", "brand:wikidata": "Q7863282", "level": "0", "name": "U.S. Polo Assn.", "shop": "clothes", "wheelchair": "limited"}}, {"type": "node", "id": 6495330880, "lat": 28.6340236, "lon": 77.2186591, "tags": {"addr:housename": "B", "addr:housenumber": "B-16", "addr:place": "Connaught Place", "addr:postcode": "110001", "level": "0", "name": "Wildcraft", "operator": "RB Sons", "shop": "clothes;bag;shoes"}}, {"type": "node", "id": 6496117049, "lat": 28.6342183, "lon": 77.2189253, "tags": {"level": "0", "name": "Jockey", "shop": "clothes"}}, {"type": "node", "id": 6510757085, "lat": 28.640169, "lon": 77.2116987, "tags": {"name:he": "\u05e9\u05d5\u05e7 \u05e2\u05dd \u05e4\u05d0\u05e4\u05d0\u05d3\u05dd \u05d7\u05d8\u05d9\u05e4\u05d9\u05dd \u05e1\u05d5\u05d9\u05d4", "shop": "bakery"}}, {"type": "node", "id": 6512337585, "lat": 28.6430359, "lon": 77.2177296, "tags": {"name:he": "\u05d0\u05d5\u05db\u05dc\u05e0\u05e8\u05d7\u05d5\u05d1 \u05d0\u05d5\u05e8\u05d6 \u05ea\u05d1\u05e9\u05d9\u05dc\u05d9\u05dd", "shop": "bakery"}}, {"type": "node", "id": 6542534988, "lat": 28.6447945, "lon": 77.2365541, "tags": {"shop": "hairdresser"}}, {"type": "node", "id": 6633282288, "lat": 28.6432375, "lon": 77.2152948, "tags": {"shop": "mobile_phone"}}, {"type": "node", "id": 6776599572, "lat": 28.629705, "lon": 77.2136614}, {"type": "node", "id": 6776599573, "lat": 28.6295473, "lon": 77.2133127}, {"type": "node", "id": 6776599574, "lat": 28.6293283, "lon": 77.2134549}, {"type": "node", "id": 6776599575, "lat": 28.6294884, "lon": 77.2137848}, {"type": "node", "id": 6796761496, "lat": 28.6434443, "lon": 77.219127, "tags": {"level": "1", "name": "International Tourist Bureau", "name:en": "International Tourist Bureau", "name:ru": "\u041c\u0435\u0436\u0434\u0443\u043d\u0430\u0440\u043e\u0434\u043d\u043e\u0435 \u0442\u0443\u0440\u0438\u0441\u0442\u0438\u0447\u0435\u0441\u043a\u043e\u0435 \u0431\u044e\u0440\u043e. \u0411\u0438\u043b\u0435\u0442\u043d\u0430\u044f \u043a\u0430\u0441\u0441\u0430 \u0434\u043b\u044f \u0438\u043d\u043e\u0441\u0442\u0440\u0430\u043d\u0446\u0435\u0432", "shop": "ticket", "tickets:public_transport": "yes"}}, {"type": "node", "id": 7040223886, "lat": 28.6256334, "lon": 77.2201793, "tags": {"addr:city": "New Delhi", "name": "Cottage Emporium", "shop": "supermarket"}}, {"type": "node", "id": 7040234485, "lat": 28.6351855, "lon": 77.2193927, "tags": {"name": "The Bookworm", "shop": "books", "wheelchair": "limited"}}, {"type": "node", "id": 7043088485, "lat": 28.6281942, "lon": 77.2166703, "tags": {"addr:city": "New Delhi", "fee": "250", "level": "0", "opening_hours": "sunrise-sunset", "shop": "ticket", "wheelchair": "yes"}}, {"type": "node", "id": 7083796924, "lat": 28.6349815, "lon": 77.2195902, "tags": {"addr:housename": "H", "addr:place": "Connaught Place", "addr:postcode": "110001", "contact:phone": "+91-11-2371-3223", "name": "Anil Book Corner", "shop": "books"}}, {"type": "node", "id": 7173930285, "lat": 28.6296588, "lon": 77.2198321, "tags": {"addr:city": "New Delhi", "brand": "Kia", "brand:wikidata": "Q35349", "name": "Kia", "shop": "car"}}, {"type": "node", "id": 7178502785, "lat": 28.6417349, "lon": 77.2146981, "tags": {"name": "Naveen Shop", "name:ko": "\ub098\ube48 \uac00\uac8c", "shop": "variety_store"}}, {"type": "node", "id": 7211015316, "lat": 28.6278631, "lon": 77.2244883, "tags": {"name": "VSF Thailand & Vietnam Visa Service", "shop": "travel_agency"}}, {"type": "node", "id": 7908686509, "lat": 28.627542, "lon": 77.2344256, "tags": {"shop": "greengrocer"}}, {"type": "node", "id": 7908686510, "lat": 28.6275206, "lon": 77.2343913, "tags": {"addr:postcode": "110001", "addr:street": "Safdar Hashmi Marg", "addr:unit": "7", "name": "Malhotra General Store", "phone": "+91-99536-17212", "shop": "convenience"}}, {"type": "node", "id": 7908686513, "lat": 28.6275571, "lon": 77.2344802, "tags": {"shop": "shoe_repair"}}, {"type": "node", "id": 7943448213, "lat": 28.6211627, "lon": 77.2109121, "tags": {"addr:city": "New Delhi", "addr:housenumber": "Poolside, The Park Hotel,", "addr:postcode": "110001", "addr:street": "15 Parliament Street, Connaught Place, New Delhi, Delhi 110001", "name": "Delhi Organic Farmers Market (DOFM)", "organic": "only", "shop": "supermarket"}}, {"type": "node", "id": 8112958824, "lat": 28.6256196, "lon": 77.2289538, "tags": {"name": "Amul Milk", "shop": "dairy"}}, {"type": "node", "id": 8112978053, "lat": 28.6293912, "lon": 77.2324843, "tags": {"name": "Krishna Store", "shop": "supermarket"}}, {"type": "node", "id": 8219838683, "lat": 28.6314312, "lon": 77.207782, "tags": {"addr:city": "Delhi", "addr:street": "Bangla Sahib Road", "clothes": "women;men", "name": "Craft House Delhi", "organic": "yes", "shop": "clothes", "website": "https://www.crafthouseindia.com/"}}, {"type": "node", "id": 8220578098, "lat": 28.6301933, "lon": 77.2125232, "tags": {"addr:city": "New Delhi", "addr:postcode": "110001", "addr:street": "Baba Kharak Singh Marg", "fair_trade": "yes", "name": "Kamala \u2013 The Craft Shop", "organic": "yes", "shop": "clothes", "website": "https://www.kilmora.in/"}}, {"type": "node", "id": 8254809664, "lat": 28.6276131, "lon": 77.219875, "tags": {"addr:city": "New Delhi", "addr:housenumber": "62", "addr:postcode": "110001", "addr:street": "Janpath", "brand": "Fabindia", "brand:wikidata": "Q5427779", "clothes": "men;women;traditional", "name": "Fabindia", "organic": "yes", "payment:cash": "yes", "payment:debit_cards": "yes", "shop": "clothes", "website": "https://www.fabindia.com/"}}, {"type": "node", "id": 9037075903, "lat": 28.6305064, "lon": 77.2198259, "tags": {"brand": "Lacoste", "brand:wikidata": "Q309031", "name": "Lacoste", "shop": "clothes", "wheelchair": "limited"}}, {"type": "node", "id": 9037075904, "lat": 28.630287, "lon": 77.219811, "tags": {"addr:housenumber": "N-6", "addr:place": "Connaught Place", "brand": "Numero Uno", "name": "numero", "shop": "clothes", "wheelchair": "limited"}}, {"type": "node", "id": 9037075907, "lat": 28.6305258, "lon": 77.2197827, "tags": {"shop": "tobacco"}}, {"type": "node", "id": 9037075908, "lat": 28.6305569, "lon": 77.2198262, "tags": {"name": "Bose", "shop": "electrical"}}, {"type": "node", "id": 9037075909, "lat": 28.6306342, "lon": 77.2197799, "tags": {"shop": "tobacco"}}, {"type": "node", "id": 9037176581, "lat": 28.6324874, "lon": 77.221402, "tags": {"brand": "Skechers", "brand:wikidata": "Q2945643", "level": "0", "name": "Skechers", "shop": "shoes", "wheelchair": "limited"}}, {"type": "node", "id": 9037176590, "lat": 28.6328354, "lon": 77.2215945}, {"type": "node", "id": 9037176595, "lat": 28.6321461, "lon": 77.2212681, "tags": {"addr:block": "E", "addr:housenumber": "18", "addr:place": "Connaught Place", "brand": "Levi's;Puma", "brand:wikidata": "Q127962", "clothes": "denim;men;women", "level": "0", "name": "Vintage Retail", "shop": "clothes", "wheelchair": "limited"}}, {"type": "node", "id": 9048339563, "lat": 28.6410428, "lon": 77.2379019, "tags": {"brand": "Vijay Sales", "brand:wikidata": "Q7929200", "name": "Vijay Sales", "shop": "electronics"}}, {"type": "node", "id": 9090758569, "lat": 28.6462425, "lon": 77.2020691, "tags": {"contact:phone": "+91 98717 10085", "contact:website": "https://laptopkharido.com", "level": "1", "name": "ACS Technologies", "shop": "computer", "wheelchair": "no"}}, {"type": "node", "id": 9180361977, "lat": 28.6341831, "lon": 77.2204417, "tags": {"addr:block": "C", "addr:city": "New Delhi", "addr:housenumber": "13;14", "addr:postcode": "110001", "addr:suburb": "Connaught Place", "brand": "Van Heusen", "brand:wikidata": "Q67551865", "clothes": "men", "level": "0;1", "name": "Van Heusen", "operator": "AR Chadha Retail LLP", "shop": "clothes", "wheelchair": "limited"}}, {"type": "node", "id": 9180407802, "lat": 28.6340338, "lon": 77.2208333, "tags": {"brand": "Bata", "brand:wikidata": "Q688082", "level": "0;1", "name": "Bata", "shop": "shoes", "toilets:wheelchair": "no"}}, {"type": "node", "id": 9180422256, "lat": 28.6348984, "lon": 77.2198456, "tags": {"name": "Titan eye plus", "shop": "optician"}}, {"type": "node", "id": 9180426308, "lat": 28.634246, "lon": 77.220487, "tags": {"check_date": "2023-12-22", "name": "Johnson Watch Co", "shop": "watches"}}, {"type": "node", "id": 9182234902, "lat": 28.622041, "lon": 77.2377423, "tags": {"shop": "tobacco"}}, {"type": "node", "id": 9202287945, "lat": 28.6339003, "lon": 77.218491, "tags": {"brand": "Crocs", "brand:wikidata": "Q926699", "name": "Crocs", "shop": "shoes", "wheelchair": "limited"}}, {"type": "node", "id": 9202359264, "lat": 28.6345759, "lon": 77.2200756, "tags": {"clothes": "women;men;oversize", "level": "1", "name": "plusS", "shop": "clothes", "wheelchair": "no"}}, {"type": "node", "id": 9234669601, "lat": 28.6297834, "lon": 77.2204045, "tags": {"name": "Geetanjali Salon", "shop": "beauty"}}, {"type": "node", "id": 9237329245, "lat": 28.6304116, "lon": 77.2174503, "tags": {"name": "24Seven", "opening_hours": "24/7", "shop": "convenience", "wheelchair": "no"}}, {"type": "node", "id": 9239801790, "lat": 28.6295416, "lon": 77.2193423, "tags": {"addr:unit": "2", "alt_name": "Metro Crockery House", "contact:phone": "+91-90451-37785;+91-76784-90318", "name": "The Smoke Store", "shop": "tobacco", "wheelchair": "no"}}, {"type": "node", "id": 9239801793, "lat": 28.6295197, "lon": 77.219342, "tags": {"addr:unit": "3", "name": "Bharat Dry Fruit Mart", "shop": "deli", "wheelchair": "no"}}, {"type": "node", "id": 9239801794, "lat": 28.6295635, "lon": 77.2193426, "tags": {"addr:unit": "1", "clothes": "women;men;children", "contact:phone": "+91 11 2332 8582;+91 112331364;+91 98108 59229", "name": "Rainbow", "shop": "clothes", "wheelchair": "no"}}, {"type": "node", "id": 9239861667, "lat": 28.6302034, "lon": 77.2200339, "tags": {"check_date": "2023-12-22", "name": "Futureworld", "shop": "mobile_phone;computer", "wheelchair": "limited"}}, {"type": "node", "id": 9239861675, "lat": 28.6302816, "lon": 77.220428, "tags": {"brand": "Samsonite", "brand:wikidata": "Q1203426", "name": "Samsonite", "operator": "Idandas Book Company", "shop": "bag", "wheelchair": "limited"}}, {"type": "node", "id": 9239861682, "lat": 28.6302692, "lon": 77.2203733, "tags": {"brand": "Delsey", "check_date": "2023-12-22", "name": "Delsey", "shop": "bag", "wheelchair": "no"}}, {"type": "node", "id": 9239861684, "lat": 28.6303003, "lon": 77.2205326, "tags": {"addr:housenumber": "N-17", "addr:place": "Connaught Place", "addr:postcode": "110001", "check_date": "2023-12-22", "name": "Northland", "operator": "Northland India Private Limited", "shop": "gift", "wheelchair": "limited"}}, {"type": "node", "id": 9279711572, "lat": 28.6274922, "lon": 77.2191874, "tags": {"addr:housenumber": "79", "contact:phone": "+91 99108 20207", "name": "Leather Smith", "shop": "bag", "wheelchair": "no"}}, {"type": "node", "id": 9279711573, "lat": 28.6274633, "lon": 77.2191843, "tags": {"addr:housenumber": "80", "contact:phone": "+91-11-2332-8474;+91-11-2332-9491", "name": "Abbott Cold Storage Private Limited", "shop": "yes"}}, {"type": "node", "id": 9279711574, "lat": 28.6275553, "lon": 77.2191895, "tags": {"addr:housenumber": "75", "contact:phone": "+91-11-2332-7823;+91-11-2332-6744", "name": "Sat Pal & Company", "shop": "clothes"}}, {"type": "node", "id": 9279711575, "lat": 28.6275185, "lon": 77.2191893, "tags": {"addr:housenumber": "77", "contact:phone": "+91-11-2332-0746;+91-11-6581-4197;+91-92127-95951", "name": "White House", "shop": "clothes", "wheelchair": "no"}}, {"type": "node", "id": 9279711577, "lat": 28.6274361, "lon": 77.219185, "tags": {"addr:housenumber": "80A", "contact:phone": "+91-11-2331-6133;+91-98910-26575", "name": "Mallika Craft", "shop": "clothes", "wheelchair": "no"}}, {"type": "node", "id": 9279741260, "lat": 28.6303647, "lon": 77.2208543, "tags": {"name": "Brown Sugar", "operator": "Regent Restaurant", "shop": "bakery", "wheelchair": "no"}}, {"type": "node", "id": 9279741262, "lat": 28.6304059, "lon": 77.2209553, "tags": {"brand": "Samsung", "name": "Samsung SmartCaf\u00e9", "operator": "Siyaram Brothers", "shop": "mobile_phone", "wheelchair": "yes"}}, {"type": "node", "id": 9292421370, "lat": 28.6269913, "lon": 77.2192083, "tags": {"name": "Neel Kamal", "shop": "clothes", "wheelchair": "limited"}}, {"type": "node", "id": 9292421371, "lat": 28.6270587, "lon": 77.2192161, "tags": {"addr:housenumber": "N-52", "addr:postcode": "110001", "addr:street": "Janpath", "name": "Vasu Handicraft", "shop": "perfumery", "wheelchair": "limited"}}, {"type": "node", "id": 9292421372, "lat": 28.6271237, "lon": 77.219222, "tags": {"addr:housenumber": "N-53", "contact:phone": "+91-11-2371-5420;+91-98104-39805", "name": "Deepak Gift Corner", "shop": "fashion_accessories", "wheelchair": "limited"}}, {"type": "node", "id": 9292421373, "lat": 28.6270264, "lon": 77.2192152, "tags": {"addr:housenumber": "81", "name": "Behl's Hi Fashion", "shop": "clothes", "wheelchair": "limited"}}, {"type": "node", "id": 9292421375, "lat": 28.6270873, "lon": 77.2192199, "tags": {"addr:housenumber": "N-52B", "contact:phone": "+91-98100-59429", "name": "N&M Handicrafts", "shop": "interior_decoration", "wheelchair": "limited"}}, {"type": "node", "id": 9444277676, "lat": 28.6141758, "lon": 77.2332637, "tags": {"name": "Smarika Gift Shop", "shop": "gift"}}, {"type": "node", "id": 9861927217, "lat": 28.6400397, "lon": 77.2064574, "tags": {"name": "Zingbus Lounge", "shop": "travel_agency"}}, {"type": "node", "id": 10567599110, "lat": 28.6318442, "lon": 77.2169899, "tags": {"name": "Sports Station", "shop": "clothes", "survey:date": "2023-01-19"}}, {"type": "node", "id": 10567599209, "lat": 28.631957, "lon": 77.2171365, "tags": {"name": "FutureWorld", "shop": "computer", "survey:date": "2023-01-19"}}, {"type": "node", "id": 10567599309, "lat": 28.6319233, "lon": 77.2170499, "tags": {"name": "Bagline", "shop": "bag", "survey:date": "2023-01-19"}}, {"type": "node", "id": 10567599409, "lat": 28.6317946, "lon": 77.2168706, "tags": {"name": "Baggit", "shop": "bag", "survey:date": "2023-01-19"}}, {"type": "node", "id": 10567631009, "lat": 28.6318964, "lon": 77.2167774, "tags": {"brand": "Hidesign", "brand:wikidata": "Q5752690", "name": "Hidesign", "shop": "leather", "survey:date": "2023-01-19"}}, {"type": "node", "id": 10588915505, "lat": 28.6291473, "lon": 77.2193368, "tags": {"addr:unit": "17", "email": "social@ittarstore.com", "name": "Arihant Fragrance", "phone": "01143570601", "shop": "perfumery", "survey:date": "2023-01-28", "website": "https://www.ittarstore.com/"}}, {"type": "node", "id": 10599137785, "lat": 28.6294978, "lon": 77.2193417, "tags": {"addr:unit": "4", "name": "Des Raj & Sons", "shop": "shoes"}}, {"type": "node", "id": 10599137786, "lat": 28.6291254, "lon": 77.2193365, "tags": {"addr:unit": "18", "name": "Dina Nath Store", "shop": "bag"}}, {"type": "node", "id": 10601040657, "lat": 28.6291911, "lon": 77.2193374, "tags": {"addr:unit": "15", "name": "Luthra's", "shop": "clothes"}}, {"type": "node", "id": 10601040658, "lat": 28.6291692, "lon": 77.2193371, "tags": {"addr:unit": "16", "name": "Jain Pain House", "shop": "deli"}}, {"type": "node", "id": 10603591930, "lat": 28.629454, "lon": 77.2193411, "tags": {"addr:unit": "6", "name": "Alagkriti", "shop": "clothes"}}, {"type": "node", "id": 10603591931, "lat": 28.6294759, "lon": 77.2193414, "tags": {"addr:unit": "5", "name": "Free Spirit", "shop": "clothes"}}, {"type": "node", "id": 10606044905, "lat": 28.6293883, "lon": 77.2193402, "tags": {"addr:unit": "9", "name": "Fashion Paradise", "shop": "clothes"}}, {"type": "node", "id": 10607717809, "lat": 28.6294321, "lon": 77.2193408, "tags": {"addr:unit": "7", "name": "1469", "shop": "gift"}}, {"type": "node", "id": 10607717810, "lat": 28.6294102, "lon": 77.2193405, "tags": {"addr:unit": "8", "name": "Citizen", "shop": "fabric"}}, {"type": "node", "id": 10608920048, "lat": 28.6292787, "lon": 77.2193386, "tags": {"addr:unit": "12B", "name": "Luv Indiya", "shop": "gift"}}, {"type": "node", "id": 10608920049, "lat": 28.6293006, "lon": 77.2193389, "tags": {"addr:unit": "12A", "name": "Fashion Point", "shop": "clothes"}}, {"type": "node", "id": 10608920050, "lat": 28.6293225, "lon": 77.2193392, "tags": {"addr:unit": "12", "name": "Bonton Optician", "shop": "optician"}}, {"type": "node", "id": 10608920051, "lat": 28.6293445, "lon": 77.2193396, "tags": {"addr:unit": "11", "name": "Flavour Adda", "shop": "hookah"}}, {"type": "node", "id": 10608920052, "lat": 28.6293664, "lon": 77.2193399, "tags": {"addr:unit": "10", "name": "Your Choice", "shop": "gift"}}, {"type": "node", "id": 10608931832, "lat": 28.629213, "lon": 77.2193377, "tags": {"addr:unit": "14", "name": "Lovely Jewellery", "shop": "jewelry"}}, {"type": "node", "id": 10608931833, "lat": 28.6292349, "lon": 77.219338, "tags": {"addr:unit": "13", "name": "Bon-Ton Opticians", "shop": "optician"}}, {"type": "node", "id": 10608931834, "lat": 28.6292568, "lon": 77.2193383, "tags": {"addr:unit": "12C", "name": "Raju Handicrafts", "shop": "gift"}}, {"type": "node", "id": 10873417008, "lat": 28.6386099, "lon": 77.2101114, "tags": {"name": "Wine and beer store (liquor too)", "shop": "alcohol"}}, {"type": "node", "id": 10905351894, "lat": 28.6350136, "lon": 77.2195872, "tags": {"addr:block": "H", "addr:housename": "Plaza Cinema Building", "addr:housenumber": "1", "clothes": "women", "level": "0", "name": "Global Desi", "operator": "Plaza Sales Centre", "second_hand": "no", "shop": "clothes", "wheelchair": "no"}}, {"type": "node", "id": 10905351896, "lat": 28.6346704, "lon": 77.2195332, "tags": {"level": "0", "name": "Forest Essentials", "shop": "cosmetics", "wheelchair": "yes"}}, {"type": "node", "id": 10924124849, "lat": 28.633349, "lon": 77.222135, "tags": {"addr:city": "New Delhi", "addr:housenumber": "M-46", "addr:postcode": "110001", "addr:street": "Middle Circle", "addr:suburb": "Connaught Place", "contact:phone": "+91-11-2341-8734;+91-11-92120-98734", "name": "Krishna Motor Garage", "shop": "car_repair"}}, {"type": "node", "id": 10924124870, "lat": 28.6345632, "lon": 77.2206668, "tags": {"addr:housenumber": "20-C", "addr:suburb": "Connaught Place", "brand": "Mont Blanc;Tag Heuer", "operator": "Bhagwan Singh & Sons Private Limited", "shop": "watches"}}, {"type": "node", "id": 10924124879, "lat": 28.63463, "lon": 77.2206734, "tags": {"contact:phone": "+91-98110-64058;+91-98105-76698", "name": "Chunni Lal Hazari Lal", "shop": "stationery"}}, {"type": "node", "id": 10924124880, "lat": 28.6345826, "lon": 77.2206807, "tags": {"addr:block": "C", "addr:housenumber": "21", "addr:suburb": "Connaught Place", "brand": "Longines", "brand:wikidata": "Q603698", "name": "Longines", "operator": "Sondhi Brothers", "shop": "watches"}}, {"type": "node", "id": 11005320905, "lat": 28.6212562, "lon": 77.1989326, "tags": {"name": "Khadi ka Clothes -116 Garage", "shop": "clothes"}}, {"type": "node", "id": 11046657795, "lat": 28.6310101, "lon": 77.2197875, "tags": {"level": "0", "name": "Ajmal", "shop": "perfumery"}}, {"type": "node", "id": 11238178973, "lat": 28.6310576, "lon": 77.2198026, "tags": {"addr:city": "New Delhi", "addr:district": "new delhi", "addr:housenumber": "F-46", "addr:postcode": "110001", "addr:street": "1st Floor, Malhotra Building, next to Nando's Restaurant and Station Bar, Block F, Connaught Place", "name": "Blue Terra Spa CP", "opening_hours": "Mo-Su 10:00-20:00", "operator": "BTS", "payment:cash": "yes", "payment:credit_cards": "yes", "payment:debit_cards": "yes", "payment:mastercard": "yes", "payment:visa": "yes", "phone": "+91-11-41517500", "shop": "massage"}}, {"type": "node", "id": 11381969269, "lat": 28.6351449, "lon": 77.2196126, "tags": {"addr:postcode": "110001", "addr:street": "Radial Road 4", "brand": "Marks & Spencer", "brand:wikidata": "Q714491", "name": "Marks & Spencer", "opening_hours": "Su-Tu 11:00-21:30; We-Sa 10:00-21:00", "phone": "+919650003401", "shop": "clothes", "website": "https://www.marksandspencer.in/", "wheelchair": "limited"}}, {"type": "node", "id": 11398010014, "lat": 28.6330598, "lon": 77.2213946, "tags": {"brand": "Miniso", "brand:wikidata": "Q20732498", "level": "0", "name": "Miniso", "shop": "variety_store", "wheelchair": "limited"}}, {"type": "node", "id": 11434769341, "lat": 28.6320541, "lon": 77.2213531, "tags": {"clothes": "women;traditional", "level": "0", "name": "Greenways", "shop": "clothes", "wheelchair": "no"}}, {"type": "node", "id": 11434769342, "lat": 28.6321932, "lon": 77.2212951, "tags": {"level": "0;1", "name": "Ashok's", "shop": "interior_decoration", "wheelchair": "limited"}}, {"type": "node", "id": 11434769343, "lat": 28.6320918, "lon": 77.2212963, "tags": {"addr:block": "E", "addr:unit": "19", "level": "0", "name": "Indian Arts Palace", "shop": "art", "wheelchair": "limited"}}, {"type": "node", "id": 11434769351, "lat": 28.6326847, "lon": 77.221464}, {"type": "node", "id": 11434769352, "lat": 28.632435, "lon": 77.2213835, "tags": {"addr:block": "E", "addr:unit": "14", "brand": "Blackberrys", "brand:wikidata": "Q4922570", "clothes": "men", "level": "0;1", "name": "Blackberrys", "operator": "Mohan Clothing Company Private Limited", "shop": "clothes", "wheelchair": "limited"}}, {"type": "node", "id": 11443122910, "lat": 28.6335205, "lon": 77.2195012, "tags": {"level": "-1", "name": "NCCF", "shop": "convenience"}}, {"type": "node", "id": 11443161939, "lat": 28.6324674, "lon": 77.219286, "tags": {"level": "-1", "name": "NCCF", "shop": "convenience", "wheelchair": "limited"}}, {"type": "node", "id": 11443228735, "lat": 28.6338972, "lon": 77.2208753, "tags": {"level": "0;1", "name": "Khanna Fabrics", "shop": "clothes", "wheelchair": "limited"}}, {"type": "node", "id": 11443228742, "lat": 28.633864, "lon": 77.2209081, "tags": {"brand": "Reebok", "brand:wikidata": "Q466183", "level": "0;1", "name": "Reebok", "operator": "Basic Clothing Private Limited", "shop": "clothes", "wheelchair": "limited"}}, {"type": "node", "id": 11443228745, "lat": 28.6338324, "lon": 77.2209483, "tags": {"clothes": "women;traditional;men;workwear;children", "level": "0;1", "name": "Snow White", "shop": "clothes", "wheelchair": "limited"}}, {"type": "node", "id": 11443228747, "lat": 28.633919, "lon": 77.2208482, "tags": {"addr:block": "D", "addr:city": "New Delhi", "addr:postcode": "110001", "addr:suburb": "Connaught Place", "addr:unit": "5", "level": "0;1", "name": "Colorbar", "operator": "New Era Store", "shop": "cosmetics", "wheelchair": "limited"}}, {"type": "node", "id": 11443228748, "lat": 28.6337722, "lon": 77.2210112, "tags": {"level": "0", "name": "The Heels", "shoes": "men;women;sports;workwear;sports", "shop": "shoes"}}, {"type": "node", "id": 11443228749, "lat": 28.6337895, "lon": 77.220988, "tags": {"level": "0", "name": "Sikka & Sons", "shop": "watches", "wheelchair": "yes"}}, {"type": "node", "id": 11443228754, "lat": 28.633951, "lon": 77.2208129, "tags": {"addr:block": "D", "addr:suburb": "Connaught Place", "addr:unit": "5", "level": "0;1", "name": "Uphaar Centre", "shop": "clothes", "wheelchair": "limited"}}, {"type": "node", "id": 11449298374, "lat": 28.6316541, "lon": 77.2163739}, {"type": "node", "id": 11449298376, "lat": 28.6316276, "lon": 77.2163823}, {"type": "node", "id": 11449298377, "lat": 28.6319792, "lon": 77.2162925, "tags": {"clothes": "women;traditional", "level": "0", "name": "Nalli", "shop": "clothes", "wheelchair": "limited"}}, {"type": "node", "id": 11449298381, "lat": 28.6316394, "lon": 77.2163171}, {"type": "node", "id": 11449298382, "lat": 28.6317946, "lon": 77.2163312, "tags": {"clothes": "women;men;children", "level": "0", "name": "The Darning House", "shop": "clothes"}}, {"type": "node", "id": 11449298390, "lat": 28.6319193, "lon": 77.2163005, "tags": {"brand": "Hewlett Packard", "level": "0", "name": "HP World", "operator": "Asian Infotech", "shop": "computer", "wheelchair": "yes"}}, {"type": "node", "id": 11449298393, "lat": 28.6315995, "lon": 77.2163365}, {"type": "node", "id": 11449298396, "lat": 28.6316077, "lon": 77.2163663}, {"type": "node", "id": 11478668703, "lat": 28.6343509, "lon": 77.2211207, "tags": {"level": "0", "name": "Ram Chander and Sons", "shop": "toys", "wheelchair": "limited"}}, {"type": "node", "id": 11478668709, "lat": 28.6341039, "lon": 77.2210685, "tags": {"shop": "shoe_repair"}}, {"type": "node", "id": 11478668729, "lat": 28.634188, "lon": 77.2208283, "tags": {"contact:website": "https://www.odeonguptapaan.com", "name": "Odeon Gupta Paan", "note": "Established 1948", "shop": "betel_quid"}}, {"type": "node", "id": 11637282899, "lat": 28.6344427, "lon": 77.2200529, "tags": {"brand": "Hush Puppies", "brand:wikidata": "Q1828588", "name": "Hush Puppies", "shop": "shoes"}}, {"type": "node", "id": 11637290674, "lat": 28.6344643, "lon": 77.2200509, "tags": {"name": "Zodiac", "shop": "clothes"}}, {"type": "node", "id": 11637290675, "lat": 28.6344851, "lon": 77.2200638, "tags": {"name": "Looks Salon", "shop": "beauty"}}, {"type": "node", "id": 11637338922, "lat": 28.6342911, "lon": 77.2200792, "tags": {"level": "0", "name": "Manyawar", "shop": "clothes"}}, {"type": "node", "id": 11637351388, "lat": 28.6346218, "lon": 77.2207011, "tags": {"brand": "Monginis", "brand:wikidata": "Q6899504", "level": "0;1", "name": "Monginis", "phone": "+91 9999318724;+91 9867867927", "shop": "bakery", "website": "cakesonline.mongins.net"}}, {"type": "node", "id": 11637357392, "lat": 28.6347593, "lon": 77.2184504, "tags": {"name": "Chai 24/7", "shop": "coffee"}}, {"type": "node", "id": 11637361166, "lat": 28.6342329, "lon": 77.220337, "tags": {"level": "1", "name": "The Square", "operator": "cafe coffee day", "shop": "coffee"}}, {"type": "node", "id": 11637361167, "lat": 28.6327271, "lon": 77.2166139, "tags": {"addr:block": "G", "addr:housenumber": "63/1", "addr:street": "D00", "name": "S.N. Pandey & Sons", "operator": "Hanumanth Pandey", "phone": "+91-98735-45606", "shop": "kiosk"}}, {"type": "node", "id": 11637366497, "lat": 28.6336787, "lon": 77.2169635, "tags": {"addr:street": "D00", "name": "Salwans", "shop": "yes"}}, {"type": "node", "id": 11637370440, "lat": 28.6342189, "lon": 77.2203427, "tags": {"brand": "Pepe Jeans", "brand:wikidata": "Q426992", "level": "0", "name": "Pepe Jeans", "shop": "clothes"}}, {"type": "node", "id": 11637373806, "lat": 28.6342741, "lon": 77.220195, "tags": {"level": "0", "name": "Park Avenue", "shop": "clothes"}}, {"type": "node", "id": 11637392888, "lat": 28.6342961, "lon": 77.2200358, "tags": {"brand": "Birkenstock;Crocs;Fitflop", "level": "0;1", "name": "D'Shoe Lounge", "shop": "shoes", "wheelchair": "limited"}}, {"type": "node", "id": 11637392891, "lat": 28.6341414, "lon": 77.2204309, "tags": {"shop": "mobile_phone"}}, {"type": "node", "id": 11637392894, "lat": 28.6343303, "lon": 77.2199968, "tags": {"addr:block": "C", "addr:housenumber": "9", "check_date": "2024-02-18", "contact:phone": "+91-11-4455-6677", "contact:website": "https://jainbookagency.com", "contact:whatsapp": "+91-88105-66260", "level": "0", "name": "Jain Book Agency", "opening_hours": "Mo-Su 10:00-19:30", "shop": "books", "wheelchair": "no"}}, {"type": "node", "id": 11637392898, "lat": 28.6346627, "lon": 77.2200797, "tags": {"addr:block": "C", "addr:city": "New Delhi", "addr:housenumber": "2;3", "addr:street": "Radial Road", "addr:suburb": "Connaught Place", "contact:email": "chandbhatia@gmail.com", "level": "0", "name": "Raymond", "operator": "Gurcharan Singh Bhatia", "shop": "tailor", "wheelchair": "no", "wheelchair:step_height": "0.19"}}, {"type": "node", "id": 11637392904, "lat": 28.6347063, "lon": 77.2204339, "tags": {"shop": "tobacco"}}, {"type": "node", "id": 11637392908, "lat": 28.6345999, "lon": 77.220697, "tags": {"level": "0", "name": "Chunnilal Hazarilal", "shop": "tobacco", "wheelchair": "limited"}}, {"type": "node", "id": 11637392910, "lat": 28.6345284, "lon": 77.2200474, "tags": {"clothes": "sports;women", "level": "0", "name": "Go Colors!", "shop": "clothes", "wheelchair": "limited"}}, {"type": "node", "id": 11637592504, "lat": 28.6306986, "lon": 77.2155958, "tags": {"level": "0", "name": "Kapoor Florist", "shop": "florist"}}, {"type": "node", "id": 11789313170, "lat": 28.6419078, "lon": 77.2148961, "tags": {"addr:city": "New Delhi", "name": "Sushil Hairdresser", "payment:cash": "yes", "shop": "hairdresser"}}, {"type": "node", "id": 11795525437, "lat": 28.6293504, "lon": 77.2197595, "tags": {"name": "Tribhovandas Bhimji Zaveri", "shop": "jewelry"}}, {"type": "node", "id": 11795569565, "lat": 28.6295679, "lon": 77.2197864, "tags": {"name": "Kanjimull & Sons", "shop": "jewelry"}}, {"type": "node", "id": 11795591625, "lat": 28.6293968, "lon": 77.2197666, "tags": {"name": "Cooke & Kelvey", "shop": "clothes"}}, {"type": "node", "id": 11795594690, "lat": 28.6294342, "lon": 77.2197643, "tags": {"brand": "Rolex", "brand:wikidata": "Q62288", "name": "Rolex", "shop": "watches"}}, {"type": "node", "id": 11795597389, "lat": 28.629231, "lon": 77.2197596, "tags": {"name": "Maharani Travels", "shop": "travel_agency"}}, {"type": "node", "id": 11795617610, "lat": 28.6285523, "lon": 77.219738, "tags": {"name": "Kherati Lall Sons", "shop": "interior_decoration"}}, {"type": "node", "id": 11795627725, "lat": 28.628336, "lon": 77.2197363, "tags": {"name": "Lawrence & Mayo", "shop": "optician"}}, {"type": "node", "id": 11799184120, "lat": 28.6328859, "lon": 77.2227714, "tags": {"amenity": "cafe", "name": "Xero Degrees", "shop": "yes"}}, {"type": "node", "id": 11799184123, "lat": 28.6327875, "lon": 77.2227609, "tags": {"level": "0", "name": "Manjeet Bullar", "shop": "interior_decoration", "wheelchair": "yes"}}, {"type": "node", "id": 11799184125, "lat": 28.6326996, "lon": 77.2227547, "tags": {"name": "Biman", "shop": "travel_agency"}}, {"type": "node", "id": 11801338398, "lat": 28.6391042, "lon": 77.2084744, "tags": {"amenity": "restaurant", "bar": "no", "level": "0", "name": "Bikanervala", "shop": "yes"}}, {"type": "node", "id": 11805134683, "lat": 28.6392221, "lon": 77.208287, "tags": {"level": "0", "name": "24Seven", "shop": "convenience"}}, {"type": "node", "id": 11808931817, "lat": 28.6481675, "lon": 77.2002112, "tags": {"name": "KW Blue Pearl", "shop": "jewelry"}}, {"type": "node", "id": 11816443789, "lat": 28.6327829, "lon": 77.2214658}, {"type": "node", "id": 11863085838, "lat": 28.6297233, "lon": 77.2319719, "tags": {"shop": "books"}}, {"type": "node", "id": 11863085839, "lat": 28.6295756, "lon": 77.2325011, "tags": {"shop": "copyshop"}}, {"type": "node", "id": 11869013789, "lat": 28.6289469, "lon": 77.2247506, "tags": {"level": "0", "name": "AppleCareCentre", "operator": "Radioshack", "shop": "electronics", "wheelchair": "no"}}, {"type": "node", "id": 11934920667, "lat": 28.6266574, "lon": 77.2329263, "tags": {"level": "0", "name": "Lovely Tours", "shop": "travel_agency", "wheelchair": "yes"}}, {"type": "node", "id": 11936561383, "lat": 28.626646, "lon": 77.2329117, "tags": {"addr:state": "DL", "addr:street": "Safdar Hashmi Marg", "level": "0", "name": "Sheetal Snacks Point", "shop": "convenience", "wheelchair": "yes"}}, {"type": "node", "id": 11947166545, "lat": 28.6445908, "lon": 77.2002238, "tags": {"name": "Sky Ride", "second_hand": "no", "shop": "motorcycle", "wheelchair": "no"}}, {"type": "node", "id": 11947166550, "lat": 28.6445524, "lon": 77.2002719, "tags": {"contact:mobile": "+91 98112 66361;+91 98731 66361", "name": "Anand Motors", "shop": "car", "wheelchair": "no"}}, {"type": "node", "id": 11947166565, "lat": 28.644485, "lon": 77.2005805, "tags": {"contact:mobile": "+91 99714 48219", "level": "1", "name": "Shivji Electrostat", "shop": "copyshop", "wheelchair": "no"}}, {"type": "node", "id": 11947173269, "lat": 28.6446359, "lon": 77.2006326, "tags": {"name": "Bhave Electric Vehicles Private Limited", "second_hand": "yes", "shop": "car", "wheelchair": "yes"}}, {"type": "node", "id": 11959841128, "lat": 28.6447196, "lon": 77.2011773, "tags": {"level": "0", "name": "Upahar", "shop": "copyshop", "wheelchair": "yes"}}, {"type": "node", "id": 11959841135, "lat": 28.6449849, "lon": 77.2011834, "tags": {"level": "1", "name": "Amar Travels", "shop": "travel_agency", "wheelchair": "no"}}, {"type": "node", "id": 11959841148, "lat": 28.645281, "lon": 77.2016433, "tags": {"brand": "Ola", "name": "Ola", "operator": "Ola", "shop": "motorcycle", "wheelchair": "no"}}, {"type": "node", "id": 11959841154, "lat": 28.6452465, "lon": 77.2014195, "tags": {"brand": "Royal Enfield", "brand:wikidata": "Q2668720", "name": "Royal Enfield", "operator": "Royal Enfield", "shop": "motorcycle", "wheelchair": "yes"}}, {"type": "node", "id": 11963722025, "lat": 28.6308898, "lon": 77.2217682, "tags": {"level": "0", "name": "Canon Flagship Store", "shop": "electronics"}}, {"type": "node", "id": 11963843548, "lat": 28.6276056, "lon": 77.2218199, "tags": {"addr:block": "A", "addr:city": "New Delhi", "addr:full": "A-219, Naurang House, 21, Kasturba Gandhi Marg, Connaught Place, New Delhi - 110001", "addr:housename": "Naurang House", "addr:housenumber": "21", "addr:postcode": "110001", "addr:street": "Kasturba Gandhi Marg", "addr:suburb": "Connaught Place", "addr:unit": "219", "contact:phone": "+91-11-4330-2247;+91-11-4330-2248", "contact:website": "https://www.skylinetravel.in/", "level": "2", "name": "Skyline Visa and Travel Management Private Limited", "opening_hours": "Mo-Fr 10:00-18:30", "shop": "travel_agency"}}, {"type": "node", "id": 11971462032, "lat": 28.644673, "lon": 77.2017784, "tags": {"level": "1", "name": "Cent Bank Home Finance Limited", "operator": "Central Bank of India", "shop": "money_lender", "wheelchair": "no"}}, {"type": "node", "id": 11971465773, "lat": 28.6442838, "lon": 77.2016844, "tags": {"clothes": "men;suits", "level": "0", "name": "Factory Outlet", "shop": "clothes", "toilets": "no", "wheelchair": "no"}}, {"type": "node", "id": 11971465779, "lat": 28.6447031, "lon": 77.2020168, "tags": {"level": "0", "name": "Priyanaka Stationers", "shop": "stationery", "wheelchair": "no"}}, {"type": "node", "id": 11971465781, "lat": 28.6443166, "lon": 77.2017163, "tags": {"contact:mobile": "+91 93540 14593", "contact:website": "studentcare20101@gmail.com", "level": "-1", "name": "Student Care", "shop": "money_lender", "wheelchair": "no"}}, {"type": "node", "id": 11971465784, "lat": 28.6443225, "lon": 77.2017219, "tags": {"contact:website": "www.konnectawards.com", "level": "0", "name": "Konnect Awards", "shop": "gift", "wheelchair": "no"}}, {"type": "node", "id": 12016200930, "lat": 28.6429539, "lon": 77.2216824, "tags": {"level": "0", "name": "Kaira", "operator": "Kaira District Co-operative Milk Producers\u2019 Union Limited", "shop": "dairy", "wheelchair": "yes"}}, {"type": "node", "id": 12039057569, "lat": 28.6382804, "lon": 77.2106414, "tags": {"name": "Delhi Haat", "shop": "gift"}}, {"type": "node", "id": 12039057669, "lat": 28.6411383, "lon": 77.2138712, "tags": {"name": "Ind Odyseyy (incenses)", "shop": "gift"}}, {"type": "node", "id": 12039057869, "lat": 28.638959, "lon": 77.2126164, "tags": {"shop": "confectionery"}}, {"type": "node", "id": 12052465817, "lat": 28.6378452, "lon": 77.2113764, "tags": {"clothes": "men;suits;traditional;women;fashion", "level": "0", "name": "India Emporium", "shop": "clothes"}}, {"type": "node", "id": 12052465818, "lat": 28.6377937, "lon": 77.2114515, "tags": {"amenity": "pharmacy", "healthcare": "pharmacy", "level": "0", "name": "Vinod Medicos", "shop": "chemist"}}, {"type": "node", "id": 12052465822, "lat": 28.637783, "lon": 77.2114696, "tags": {"level": "0", "name": "Master Sound", "shop": "appliance"}}, {"type": "node", "id": 12052474063, "lat": 28.6337258, "lon": 77.2085135, "tags": {"amenity": "pharmacy", "brand": "Apollo Pharmacy", "brand:wikidata": "Q62562612", "healthcare": "pharmacy", "level": "0", "name": "Apollo Pharmacy", "shop": "chemist"}}, {"type": "node", "id": 12052474064, "lat": 28.6338474, "lon": 77.2086044, "tags": {"addr:housenumber": "127", "addr:state": "DL", "addr:street": "Bangla Sahib Road", "level": "0", "name": "Vee Bona", "shop": "gift"}}, {"type": "node", "id": 12052474065, "lat": 28.6336558, "lon": 77.2084646, "tags": {"craft": "confectionery", "level": "0", "name": "Bangla Sweet House", "shop": "confectionery"}}, {"type": "node", "id": 12054396919, "lat": 28.6381335, "lon": 77.210921, "tags": {"level": "0", "name": "Neelam", "shop": "hairdresser"}}, {"type": "node", "id": 12054396920, "lat": 28.638115, "lon": 77.2109503, "tags": {"craft": "confectionery", "level": "0", "name": "Nathu's Sweet", "shop": "confectionery"}}, {"type": "node", "id": 12054396921, "lat": 28.6379766, "lon": 77.2111574, "tags": {"level": "0", "name": "Hettich", "shop": "appliance"}}, {"type": "node", "id": 12098420588, "lat": 28.6323134, "lon": 77.2213653, "tags": {"brand": "Levi's", "brand:wikidata": "Q127962", "check_date": "2025-02-16", "clothes": "denim;men;women", "level": "0;1", "name": "Levi's", "shop": "clothes", "wheelchair": "yes"}}, {"type": "node", "id": 12098431294, "lat": 28.6331569, "lon": 77.2214031, "tags": {"addr:block": "E", "addr:city": "New Delhi", "addr:housenumber": "G03", "addr:postcode": "110001", "addr:state": "DL", "brand": "Adidas", "brand:wikidata": "Q3895", "level": "0", "name": "Adidas", "shop": "sports", "wheelchair": "yes"}}, {"type": "node", "id": 12098440859, "lat": 28.6330035, "lon": 77.2214074, "tags": {"addr:block": "G", "addr:state": "DL", "addr:unit": "6", "level": "0", "name": "Vijay Sales", "shop": "trade", "wheelchair": "yes"}}, {"type": "node", "id": 12098553721, "lat": 28.633318, "lon": 77.2215502}, {"type": "node", "id": 12098553727, "lat": 28.6334081, "lon": 77.2215196}, {"type": "node", "id": 12098553733, "lat": 28.6327826, "lon": 77.2215946}, {"type": "node", "id": 12098553735, "lat": 28.6322409, "lon": 77.2213176, "tags": {"brand": "Louis Philippe", "brand:wikidata": "Q18350510", "clothes": "workwear;men;suits", "level": "0;1", "name": "Louis Philippe", "shop": "clothes", "wheelchair": "limited"}}, {"type": "node", "id": 12098553754, "lat": 28.6330931, "lon": 77.2213815, "tags": {"door": "yes", "indoor": "door", "level": "0"}}, {"type": "node", "id": 12098553755, "lat": 28.6333163, "lon": 77.2213123}, {"type": "node", "id": 12098553756, "lat": 28.633266, "lon": 77.2213376}, {"type": "node", "id": 12098553761, "lat": 28.6331663, "lon": 77.2215927}, {"type": "node", "id": 12098553784, "lat": 28.6330623, "lon": 77.2213892}, {"type": "node", "id": 12098553792, "lat": 28.6326809, "lon": 77.2215944}, {"type": "node", "id": 12098553795, "lat": 28.6327312, "lon": 77.2215958}, {"type": "node", "id": 12098553797, "lat": 28.6332896, "lon": 77.2213257, "tags": {"door": "yes", "indoor": "door", "level": "0"}}, {"type": "node", "id": 12098553798, "lat": 28.6331011, "lon": 77.221609}, {"type": "node", "id": 12098553800, "lat": 28.632733, "lon": 77.2214648}, {"type": "node", "id": 12098570001, "lat": 28.6328306, "lon": 77.2214643}, {"type": "node", "id": 12169906406, "lat": 28.626321, "lon": 77.2072825, "tags": {"level": "0", "operator": "New Delhi Municipal Corporation", "ref": "31", "shop": "convenience", "toilets": "no", "wheelchair": "yes"}}, {"type": "node", "id": 12169906415, "lat": 28.6261478, "lon": 77.2068169, "tags": {"level": "0", "operator": "New Delhi Municipal Corporation", "ref": "32", "shop": "florist", "wheelchair": "yes"}}, {"type": "node", "id": 12231547598, "lat": 28.6226251, "lon": 77.2028415, "tags": {"level": "0", "noname": "yes", "operator": "New Delhi Municipal Corporation", "ref": "9", "shop": "convenience", "wheelchair": "yes"}}, {"type": "node", "id": 12389958700, "lat": 28.6407587, "lon": 77.213593, "tags": {"name": "VASU STORE", "shop": "yes"}}, {"type": "node", "id": 12535479519, "lat": 28.6237581, "lon": 77.2037235, "tags": {"brand": "Mother Dairy", "level": "0", "name": "Mother Dairy", "ref": "242", "shop": "dairy", "wheelchair": "no"}}, {"type": "node", "id": 12588445777, "lat": 28.6476457, "lon": 77.2250799, "tags": {"addr:city": "Delhi", "addr:housenumber": "4133;4134", "addr:postcode": "110006", "addr:street": "Gali Shahtara", "addr:suburb": "Ajmeri Gate", "brand": "3M", "contact:email": "delhisafetyhouse@abrigo.in", "contact:mobile": "+91-9899-219-012;+91-9999-227-914;+91-9999-225734", "contact:phone": "+91-11-4354-8325;+91-11-3011-4364;+91-11-3011-4564", "contact:website": "https://abrigo.in/", "level": "0;-1", "name": "Delhi Safety House", "opening_hours": "Mo-Sa 11:00-19:00", "shop": "safety_equipment", "wheelchair": "no"}}, {"type": "node", "id": 12588445795, "lat": 28.6476351, "lon": 77.2250579, "tags": {"addr:city": "Delhi", "addr:housenumber": "4133/109", "addr:postcode": "110006", "addr:street": "Gali Shahtara", "addr:suburb": "Ajmeri Gate", "contact:mobile": "+91-99115-93124;+91-9899-7777-40", "level": "1", "name": "Adinath Tools Company", "shop": "hardware", "wheelchair": "no"}}, {"type": "node", "id": 12593263229, "lat": 28.6312912, "lon": 77.2200864, "tags": {"level": "0;1", "name": "The Raymond Shop", "shop": "clothes"}}, {"type": "node", "id": 12593263230, "lat": 28.6312952, "lon": 77.2201703, "tags": {"level": "0;1", "name": "Ivory Palace", "shop": "clothes"}}, {"type": "node", "id": 12593263231, "lat": 28.6312868, "lon": 77.2200213, "tags": {"addr:block": "F", "addr:city": "New Delhi", "addr:housenumber": "20/1", "addr:place": "Connaught Place", "addr:postcode": "110001", "name": "Mehrason", "shop": "leather"}}, {"type": "node", "id": 12593263232, "lat": 28.6312789, "lon": 77.2199626, "tags": {"addr:city": "New Delhi", "addr:place": "Connaught Place", "addr:postcode": "110001", "name": "Nykaa Luxe", "shop": "cosmetics"}}, {"type": "node", "id": 12593263233, "lat": 28.6313419, "lon": 77.2202702, "tags": {"level": "0", "name": "Surya Enterprises", "shop": "shoes"}}, {"type": "node", "id": 12619062863, "lat": 28.6477348, "lon": 77.2250285, "tags": {"addr:city": "Delhi", "addr:housenumber": "4618", "addr:postcode": "110006", "addr:street": "Gali Shahtara", "addr:suburb": "Ajmeri Gate", "contact:email": "chainpulley@gmail.com", "contact:mobile": "+91-99113-17766;+91-93110-39582;+91-82859-47684", "contact:website": "https://chainpulley.in/", "level": "0", "name": "Deep Traders", "shop": "trade", "wheelchair": "no"}}, {"type": "node", "id": 12619062871, "lat": 28.647748, "lon": 77.2250367, "tags": {"addr:city": "Delhi", "addr:housenumber": "4618", "addr:postcode": "110006", "addr:street": "Gali Shahtara", "addr:suburb": "Ajmeri Gate", "contact:email": "rohit@mechandtech.in", "contact:mobile": "+91-99113-17766;+91-93110-39582;+91-82859-47684", "contact:website": "https://urbanlift.in/", "level": "0", "name": "Mech and Tech Industries", "shop": "trade", "wheelchair": "no"}}, {"type": "node", "id": 12619062891, "lat": 28.6477596, "lon": 77.2249436, "tags": {"addr:city": "Delhi", "addr:housenumber": "4614;4615", "addr:postcode": "110006", "addr:street": "Gali Shahtara", "addr:suburb": "Ajmeri Gate", "brand": "3M", "contact:email": "rahulsakhuja@yahoo.com", "contact:phone": "+91-11-2321-5050;+91-11-4351-7483;+91-11-4083-1367;+91-11-4083-1467", "contact:website": "https://safetyexperts.in/", "level": "0", "name": "Safety Experts", "shop": "safety_equipment", "wheelchair": "no"}}, {"type": "node", "id": 12619062897, "lat": 28.6476624, "lon": 77.2249746, "tags": {"addr:city": "Delhi", "addr:housenumber": "4136", "addr:postcode": "110006", "addr:street": "Gali Shahtara", "addr:suburb": "Ajmeri Gate", "contact:email": "bansalhardwarestore@ymail.com", "contact:mobile": "+91-93505-84869;+91-98110-22641", "contact:phone": "+91-11-4083-1922;+91-11-4083-1214", "description": "Sells welding materials, safety equipment, MIG, TIG, and plasma cutting", "level": "0", "name": "Bansal Hardware Store", "shop": "hardware", "wheelchair": "no"}}, {"type": "node", "id": 12639638619, "lat": 28.6483814, "lon": 77.2257258, "tags": {"addr:city": "Delhi", "addr:housenumber": "4959", "addr:place": "Hauz Qazi", "addr:postcode": "110006", "addr:suburb": "Ajmeri Gate", "brand": "3M;Karam;Midas Safety;Vidyut;Tiger;Honeywell", "contact:email": "emtexsafety@yahoo.com", "contact:mobile": "+91-99929-00662;+91-99100-84470", "contact:phone": "+91-11-4375-5214", "level": "0", "name": "Emtex Safety Devices", "shop": "safety_equipment"}}, {"type": "node", "id": 12896513991, "lat": 28.6334613, "lon": 77.206242, "tags": {"level": "0", "name": "Beli Ram Chemist", "shop": "chemist"}}, {"type": "node", "id": 12896513994, "lat": 28.6325006, "lon": 77.2065113, "tags": {"male": "yes", "name": "Himalaya Salon", "shop": "hairdresser"}}, {"type": "node", "id": 12896513995, "lat": 28.633412, "lon": 77.206076, "tags": {"level": "0", "name": "R. K. Jain & Co.", "shop": "hardware"}}, {"type": "node", "id": 12896513996, "lat": 28.6324883, "lon": 77.2066743, "tags": {"level": "0", "name": "Arora AG & Medical Store", "shop": "chemist"}}, {"type": "node", "id": 12896513997, "lat": 28.6334048, "lon": 77.206228, "tags": {"level": "0", "name": "Midair Express Pvt. Ltd.", "shop": "travel_agency"}}, {"type": "node", "id": 12896513998, "lat": 28.6332864, "lon": 77.2062025, "tags": {"brand": "Ration Shop", "level": "0", "name": "Aggarwal Rice Store", "operator": "Public Distribution System", "operator:type": "public", "operator:wikidata": "Q60901", "shop": "convenience"}}, {"type": "node", "id": 12896513999, "lat": 28.6325167, "lon": 77.2062667, "tags": {"hairdresser": "barber", "male": "yes", "name": "Prince Salon", "shop": "hairdresser"}}, {"type": "node", "id": 12896514000, "lat": 28.6325221, "lon": 77.2061957, "tags": {"level": "0", "name": "Telesound Electronics", "shop": "electronics"}}, {"type": "node", "id": 12896524063, "lat": 28.6335536, "lon": 77.2062167, "tags": {"addr:door": "G05", "check_date": "2025-06-08", "name": "Gainda Lal Ram Narayan", "name:en": "Gainda Lal Ram Narayan", "shop": "confectionery"}}, {"type": "node", "id": 12896524064, "lat": 28.6335502, "lon": 77.2062593, "tags": {"addr:door": "G06", "check_date": "2025-06-08", "name": "Tikam Chand Shanti Chand", "name:en": "Tikam Chand Shanti Chand", "shop": "tobacco"}}, {"type": "node", "id": 12896524065, "lat": 28.6335443, "lon": 77.2063025, "tags": {"addr:door": "G07", "check_date": "2025-06-08", "name": "Madhur Travels", "name:en": "Madhur Travels", "shop": "travel_agency"}}, {"type": "node", "id": 12896524066, "lat": 28.6335408, "lon": 77.2063429, "tags": {"addr:door": "G08", "check_date": "2025-06-08", "name": "Ezee Travel Solutions", "name:en": "Ezee Travel Solutions", "shop": "travel_agency"}}, {"type": "node", "id": 12896524067, "lat": 28.633533, "lon": 77.2063856, "tags": {"addr:door": "G09", "check_date": "2025-06-08", "name": "Karachi Halwa House", "name:en": "Karachi Halwa House", "shop": "confectionery"}}, {"type": "node", "id": 12896524068, "lat": 28.6335364, "lon": 77.2064271, "tags": {"addr:door": "G10", "check_date": "2025-06-08", "name": "Bengal Silk Trading Company", "name:en": "Bengal Silk Trading Company", "shop": "clothes"}}, {"type": "node", "id": 12896524069, "lat": 28.633528, "lon": 77.2064788, "tags": {"addr:door": "G11", "check_date": "2025-06-08", "name": "A M Store", "name:en": "A M Store", "shop": "convenience"}}, {"type": "node", "id": 12896531740, "lat": 28.6326159, "lon": 77.2062024, "tags": {"changing_table": "no", "level": "0", "name": "Shiv Paneer", "phone": "+91 99533 31441;+91 98183 35441", "shop": "general", "toilets:wheelchair": "no", "wheelchair": "no"}}, {"type": "node", "id": 12896531741, "lat": 28.6326102, "lon": 77.2063181, "tags": {"craft": "electronics_repair", "name": "Mobiles Daddy", "shop": "optician", "wheelchair": "no"}}, {"type": "node", "id": 12896531742, "lat": 28.6326067, "lon": 77.2063906, "tags": {"name": "Shiv Auto", "service": "parts;repair", "shop": "motorcycle_repair", "wheelchair": "no"}}, {"type": "node", "id": 12896531744, "lat": 28.6326076, "lon": 77.2063713, "tags": {"butcher": "poultry", "level": "0", "name": "Azizuddin Mutton and Chicken", "shop": "butcher"}}, {"type": "node", "id": 12896531745, "lat": 28.6326049, "lon": 77.2064282, "tags": {"level": "0", "name": "Om Sainath", "shop": "confectionery", "wheelchair": "no"}}, {"type": "node", "id": 12896531746, "lat": 28.6326122, "lon": 77.2062778, "tags": {"level": "0", "name": "Khanna Stores", "shop": "general", "wheelchair": "limited"}}, {"type": "node", "id": 12896534721, "lat": 28.6326508, "lon": 77.2065207, "tags": {"level": "0", "name": "Shiv Auto", "shop": "motorcycle_repair"}}, {"type": "node", "id": 12896534722, "lat": 28.6326564, "lon": 77.2064474, "tags": {"level": "0", "name": "Gulati Auto Repair", "shop": "motorcycle_repair"}}, {"type": "node", "id": 12896534723, "lat": 28.6326458, "lon": 77.2066552, "tags": {"addr:housenumber": "53", "level": "0", "name": "Chemist", "shop": "chemist"}}, {"type": "node", "id": 12896534724, "lat": 28.6326056, "lon": 77.2067705, "tags": {"level": "0", "name": "Mohon Lal", "shop": "chemist"}}, {"type": "node", "id": 12896534726, "lat": 28.6334914, "lon": 77.2062402, "tags": {"level": "0", "name": "Gainda Lal Ram Narayan", "shop": "confectionery"}}, {"type": "node", "id": 12896534727, "lat": 28.6326706, "lon": 77.2062053, "tags": {"addr:housenumber": "69", "level": "0", "name": "Ved Furniture House", "shop": "furniture"}}, {"type": "node", "id": 12896534730, "lat": 28.6326625, "lon": 77.2063464, "tags": {"level": "0", "name": "Photo Studio", "shop": "photo"}}, {"type": "node", "id": 12896534732, "lat": 28.6332799, "lon": 77.2062415, "tags": {"beauty": "hair", "level": "0", "name": "Scissors Plaza Men Salon", "shop": "beauty"}}, {"type": "node", "id": 12896534733, "lat": 28.6326643, "lon": 77.2062803, "tags": {"addr:housenumber": "67", "level": "0", "name": "Cable tv Network", "shop": "mobile_phone"}}, {"type": "node", "id": 12896534734, "lat": 28.6326609, "lon": 77.2064035, "tags": {"addr:housenumber": "63", "level": "0", "name": "Mahesh Book Store", "shop": "books"}}, {"type": "node", "id": 12896534975, "lat": 28.6332364, "lon": 77.2082862, "tags": {"name": "Kaleva", "shop": "confectionery", "wheelchair": "yes"}}, {"type": "node", "id": 12896537197, "lat": 28.6332206, "lon": 77.2073056, "tags": {"level": "0", "mobile": "+91 99900 94395", "name": "SNG Surgical", "shop": "medical_supply", "wheelchair": "no"}}, {"type": "node", "id": 12896540734, "lat": 28.6332151, "lon": 77.2061779, "tags": {"brand": "Ration Shop", "bulk_purchase": "yes", "changing_table": "no", "level": "0", "name": "Ration Store Siyaram and Co.", "operator": "Public Distribution System", "operator:type": "public", "operator:wikidata": "Q60901", "shop": "convenience", "toilets:wheelchair": "no", "wheelchair": "limited"}}, {"type": "node", "id": 12896545768, "lat": 28.6326896, "lon": 77.2072356, "tags": {"name": "The Mobile Point Xiaomi", "shop": "mobile_phone", "wheelchair": "no"}}, {"type": "node", "id": 12896545967, "lat": 28.6334186, "lon": 77.2071308, "tags": {"level": "0", "name": "Live India Tours", "phone": "+91 11 2334 6060", "shop": "travel_agency"}}, {"type": "node", "id": 12896545968, "lat": 28.632819, "lon": 77.2070805, "tags": {"addr:place": "Gole Market", "addr:postcode": "110001", "addr:state": "DL", "addr:street": "Shaheed Baghat Singh Marg", "contact:mobile": "+91 989965288", "level": "0", "name": "Anil Electric Company", "shop": "appliance"}}, {"type": "node", "id": 12896547825, "lat": 28.6335356, "lon": 77.2065442, "tags": {"check_date": "2025-06-08", "name": "Government Wine And Beer Shop", "opening_hours": "10:00-22:00", "shop": "alcohol"}}, {"type": "node", "id": 12896547826, "lat": 28.6335515, "lon": 77.206498, "tags": {"check_date": "2025-06-08", "name": "Chakna Junction", "shop": "convenience"}}, {"type": "node", "id": 12896551599, "lat": 28.6333982, "lon": 77.206952, "tags": {"check_date": "2025-06-08", "name": "Rikhi Ram's Music", "shop": "musical_instrument"}}, {"type": "node", "id": 12896559009, "lat": 28.6331589, "lon": 77.2086691, "tags": {"name": "Central News Agency", "shop": "books"}}, {"type": "node", "id": 12896559011, "lat": 28.6333383, "lon": 77.208659, "tags": {"brand": "Bata", "name": "Bata", "shop": "shoes"}}, {"type": "node", "id": 12896559012, "lat": 28.6329257, "lon": 77.2086364, "tags": {"brand": "Airtel", "name": "Airtel", "shop": "mobile_phone"}}, {"type": "node", "id": 12896559855, "lat": 28.6325303, "lon": 77.2079304, "tags": {"male": "yes", "name": "Azad Salon", "shop": "hairdresser"}}, {"type": "node", "id": 12896559856, "lat": 28.6325726, "lon": 77.2086114, "tags": {"brand": "Tailor Shop", "name": "RS Tailor", "shop": "tailor", "wheelchair": "yes"}}, {"type": "node", "id": 12896559857, "lat": 28.6325417, "lon": 77.2086098, "tags": {"name": "KitKat GP Store", "shop": "confectionery", "wheelchair": "yes"}}, {"type": "node", "id": 12896559858, "lat": 28.6332082, "lon": 77.2083897, "tags": {"female": "yes", "hairdresser": "barber", "name": "Eves Beauty Parlour", "shop": "hairdresser", "wheelchair": "yes"}}, {"type": "node", "id": 12896559859, "lat": 28.6325303, "lon": 77.2086096, "tags": {"brand": "Mother Dairy", "name": "Mother Dairy", "shop": "dairy", "wheelchair": "yes"}}, {"type": "node", "id": 12896585820, "lat": 28.6326356, "lon": 77.2072579, "tags": {"name": "The B.R Communication", "shop": "mobile_phone", "wheelchair": "no"}}, {"type": "node", "id": 12896591903, "lat": 28.6334489, "lon": 77.2071336, "tags": {"level": "0", "name": "The Libas Studio", "shop": "tailor", "wheelchair": "limited"}}, {"type": "node", "id": 12896591907, "lat": 28.6331005, "lon": 77.207108, "tags": {"level": "0", "name": "The Salad Days", "shop": "kitchen", "wheelchair": "limited"}}, {"type": "node", "id": 12896591909, "lat": 28.6332542, "lon": 77.2071538, "tags": {"addr:housenumber": "12", "addr:place": "Gole Market", "addr:postcode": "110001", "addr:state": "DL", "addr:street": "Shaheed Baghat Singh Marg", "name": "The Prism Printers", "shop": "printing"}}, {"type": "node", "id": 12896607635, "lat": 28.6334571, "lon": 77.2073231, "tags": {"level": "0", "name": "Jan Ayush Kendra", "shop": "chemist", "wheelchair": "limited"}}, {"type": "node", "id": 12896611357, "lat": 28.6326238, "lon": 77.2070333, "tags": {"level": "0", "name": "The Lutyens Salon", "shop": "hairdresser", "unisex": "yes"}}, {"type": "node", "id": 12896611360, "lat": 28.6327301, "lon": 77.2073057, "tags": {"level": "0", "name": "GTK Travels", "shop": "travel_agency"}}, {"type": "node", "id": 12896611361, "lat": 28.6327329, "lon": 77.2070534, "tags": {"level": "0", "name": "Mercury Dry Cleaners", "shop": "dry_cleaning"}}, {"type": "node", "id": 12896612876, "lat": 28.6331886, "lon": 77.2073052, "tags": {"level": "0", "name": "The Chadha Sports", "phone": "+91 11 2336 3084", "shop": "sports", "wheelchair": "no"}}, {"type": "node", "id": 12896614401, "lat": 28.6334305, "lon": 77.2062362, "tags": {"name": "Ezee Travel Solutions", "shop": "travel_agency"}}, {"type": "node", "id": 12896614402, "lat": 28.6325292, "lon": 77.2062302, "tags": {"level": "0", "name": "Dwinkle Opticals", "shop": "optician"}}, {"type": "node", "id": 12896614403, "lat": 28.6331812, "lon": 77.2061737, "tags": {"level": "0", "name": "Smart Hair Studio", "shop": "hairdresser"}}, {"type": "node", "id": 12896614405, "lat": 28.6325042, "lon": 77.2064566, "tags": {"name": "Gulati Cycle Works", "shop": "repair"}}, {"type": "node", "id": 12896614407, "lat": 28.632514, "lon": 77.2063043, "tags": {"level": "0", "name": "Studio Sahni", "shop": "copyshop"}}, {"type": "node", "id": 12896614409, "lat": 28.6325127, "lon": 77.2061642, "tags": {"level": "0", "name": "Manchanda Store", "shop": "toys"}}, {"type": "node", "id": 12896614410, "lat": 28.6324903, "lon": 77.2067647, "tags": {"level": "0", "shop": "confectionery"}}, {"type": "node", "id": 12896614412, "lat": 28.6324978, "lon": 77.2065694, "tags": {"level": "0", "name": "Pop Tailors", "shop": "tailor"}}, {"type": "node", "id": 12896614413, "lat": 28.632493, "lon": 77.206594, "tags": {"name": "Nikhar Ladies Salon", "shop": "beauty"}}, {"type": "node", "id": 12896614414, "lat": 28.6324877, "lon": 77.2066318, "tags": {"level": "0", "name": "Shiv Shankar", "shop": "stationery"}}, {"type": "node", "id": 12896614415, "lat": 28.6325074, "lon": 77.2064737, "tags": {"level": "0", "name": "Office Document Center", "shop": "copyshop"}}, {"type": "node", "id": 12896616120, "lat": 28.632811, "lon": 77.207257, "tags": {"level": "0", "name": "The Mobile Repair Centre", "phone": "+91 931593081", "shop": "telecommunication", "wheelchair": "no"}}, {"type": "node", "id": 12896620602, "lat": 28.6332674, "lon": 77.2073013, "tags": {"level": "0", "mobile": "+91 935080926", "name": "New Era Jewelry pvt.ltd", "phone": "+91 11 2336 1816", "shop": "jewelry", "wheelchair": "no"}}, {"type": "node", "id": 12896628036, "lat": 28.6328989, "lon": 77.2072985, "tags": {"contact:mobile": "+91 880075705", "contact:phone": "+91 23360942", "level": "0", "name": "Pritam Tailors", "shop": "tailor"}}, {"type": "node", "id": 12896628930, "lat": 28.6329667, "lon": 77.2072479, "tags": {"level": "0", "name": "Uzbekistan Airways", "phone": "+91 93543917", "shop": "travel_agency", "wheelchair": "limited"}}, {"type": "node", "id": 12896633912, "lat": 28.63331, "lon": 77.2073634, "tags": {"contact:phone": "+91 11 4357 3099", "level": "0", "name": "Lotus Tours & Travels", "shop": "travel_agency"}}, {"type": "node", "id": 12896634006, "lat": 28.6324107, "lon": 77.2096025, "tags": {"shop": "convenience"}}, {"type": "node", "id": 12898800877, "lat": 28.6349905, "lon": 77.2040339, "tags": {"name": "Kendriya Bhandar", "shop": "convenience"}}, {"type": "node", "id": 12977461519, "lat": 28.6317787, "lon": 77.2211047, "tags": {"clothes": "babies;children", "name": "Kiddoz", "shop": "clothes", "wheelchair": "limited"}}, {"type": "node", "id": 12977461520, "lat": 28.6317484, "lon": 77.2211454, "tags": {"name": "Mehta Jewels", "shop": "jewelry"}}, {"type": "node", "id": 12977461521, "lat": 28.6312805, "lon": 77.2215169, "tags": {"name": "Super Chai", "shop": "tea"}}, {"type": "node", "id": 12977461522, "lat": 28.6311219, "lon": 77.221319, "tags": {"name": "Liqour Mart", "shop": "alcohol"}}, {"type": "node", "id": 12977503223, "lat": 28.631734, "lon": 77.2209927, "tags": {"brand": "Peter England", "clothes": "men", "name": "Peter England", "shop": "clothes"}}, {"type": "node", "id": 12977503224, "lat": 28.6315763, "lon": 77.2207631, "tags": {"brand": "Pepe Jeans", "name": "Pepe Jeans", "shop": "clothes"}}, {"type": "node", "id": 12977503225, "lat": 28.6318028, "lon": 77.2210568, "tags": {"name": "Casio", "shop": "watches"}}, {"type": "node", "id": 12977503226, "lat": 28.6314429, "lon": 77.2205803, "tags": {"clothes": "women", "name": "BIBA", "second_hand": "no", "shop": "clothes"}}, {"type": "node", "id": 12977503227, "lat": 28.6316637, "lon": 77.2208871, "tags": {"brand": "ASICS", "name": "ASICS", "shop": "shoes"}}, {"type": "node", "id": 12977503228, "lat": 28.6313912, "lon": 77.2204781, "tags": {"brand": "Puma", "name": "Puma", "shop": "clothes"}}, {"type": "node", "id": 12977503229, "lat": 28.6317728, "lon": 77.2210319, "tags": {"clothes": "traditional;women", "name": "Kalpana", "shop": "clothes"}}, {"type": "node", "id": 12977503230, "lat": 28.6314595, "lon": 77.2205689, "tags": {"shop": "mobile_phone"}}, {"type": "node", "id": 12977503232, "lat": 28.631407, "lon": 77.2205042, "tags": {"brand": "Allen Solly", "name": "Allen Solly", "shop": "clothes"}}, {"type": "node", "id": 12977546964, "lat": 28.6317502, "lon": 77.2209446, "tags": {"shop": "mobile_phone"}}, {"type": "node", "id": 12977565248, "lat": 28.6306943, "lon": 77.2203656, "tags": {"name": "Ganga Ram Paan Shop", "shop": "tobacco"}}, {"type": "node", "id": 12977565250, "lat": 28.6307586, "lon": 77.2206195, "tags": {"shop": "alcohol"}}, {"type": "node", "id": 12977565251, "lat": 28.6307669, "lon": 77.2206409, "tags": {"name": "Brown Boyz Tattoo", "shop": "tattoo"}}, {"type": "node", "id": 12977565252, "lat": 28.6307529, "lon": 77.2206002, "tags": {"name": "Siyam Store", "shop": "convenience"}}, {"type": "node", "id": 13335517801, "lat": 28.6416703, "lon": 77.2175176, "tags": {"name": "Hukam Chand - Ritesh Kumar - pareos", "shop": "art"}}, {"type": "node", "id": 13358572981, "lat": 28.6312797, "lon": 77.2198098, "tags": {"name": "Krishna Sons", "shop": "jewelry"}}, {"type": "node", "id": 13358572992, "lat": 28.6312377, "lon": 77.219808, "tags": {"name": "Flying Machine", "shop": "clothes"}}, {"type": "node", "id": 13358614002, "lat": 28.631255, "lon": 77.2198079, "tags": {"name": "Krishnaji Jewellers", "shop": "jewelry"}}, {"type": "node", "id": 13358614008, "lat": 28.635234, "lon": 77.2184556, "tags": {"name": "ICL Fincorp", "shop": "money_lender"}}, {"type": "node", "id": 13358614010, "lat": 28.6303919, "lon": 77.2198183, "tags": {"level": "0;1", "name": "Taneira", "shop": "clothes"}}, {"type": "way", "id": 351418905, "nodes": [3571786145, 3571786144, 3744148560, 3744148559, 3744148558, 3744148557, 3571786141, 3571786142, 3571786145], "tags": {"addr:city": "New Delhi", "brand": "Lexus", "brand:wikidata": "Q35919", "building": "yes", "name": "Lexus", "shop": "car"}}, {"type": "way", "id": 665147381, "nodes": [6225727511, 6225727512, 6225727513, 6225727514, 6225727511], "tags": {"addr:city": "New Delhi", "addr:postcode": "110001", "addr:street": "Udhyan Marg", "building": "shed", "name": "Sabji Mandi", "opening_hours": "Mo-Su 16:00-21:00", "payment:cash": "yes", "shop": "greengrocer"}}, {"type": "way", "id": 722443698, "nodes": [6776599572, 6776599573, 6776599574, 6776599575, 6776599572], "tags": {"addr:city": "New Delhi", "brand": "Porsche", "brand:wikidata": "Q40993", "brand:wikipedia": "en:Porsche", "building": "yes", "name": "Porsche", "name:hi": "Porsche", "shop": "car", "survey:date": "2023-01-19"}}, {"type": "way", "id": 1233797947, "nodes": [11449298396, 11449298376, 11449298374, 11449298381, 11449298393, 11449298396], "tags": {"indoor": "room", "level": "0", "name": "Dell", "room": "shop", "shop": "computer", "wheelchair": "yes"}}, {"type": "way", "id": 1306328979, "nodes": [12098553761, 12098553798, 12098553784, 12098553754, 6414427986, 12098553761], "tags": {"addr:block": "E", "addr:city": "Delhi", "addr:country": "IN", "addr:housenumber": "4", "addr:place": "Connaught Place", "addr:postcode": "110001", "branch": "Jewellery", "brand": "Tanishq", "brand:en": "Tanishq", "brand:wikidata": "Q13117711", "level": "0", "name": "Tanishq", "name:en": "Tanishq", "opening_hours": "11:00-20:00", "shop": "jewelry", "wheelchair": "yes"}}, {"type": "way", "id": 1306328980, "nodes": [12098553795, 12098553733, 11816443789, 12098553800, 12098553795], "tags": {"clothes": "women;traditional", "level": "0;1", "name": "W", "name:en": "W for Women", "shop": "clothes"}}, {"type": "way", "id": 1306328988, "nodes": [12098553727, 12098553721, 12098553756, 12098553797, 12098553755, 12098553727], "tags": {"level": "0;1", "name": "Titan World Helios", "shop": "watches", "wheelchair": "limited"}}, {"type": "way", "id": 1306328994, "nodes": [12098553733, 9037176590, 12098570001, 11816443789, 12098553733], "tags": {"level": "0", "name": "Jainson", "shop": "clothes", "wheelchair": "limited"}}, {"type": "way", "id": 1306328995, "nodes": [12098553800, 11434769351, 12098553792, 12098553795, 12098553800], "tags": {"brand": "United Colors of Benetton", "brand:wikidata": "Q817139", "level": "0;1", "name": "United Colors of Benetton", "shop": "clothes", "short_name": "Benetton"}}]}