{"version": 0.6, "generator": "Overpass API 0.7.62.8 e802775f", "osm3s": {"timestamp_osm_base": "2025-12-07T20:57:30Z", "copyright": "The data included in this document is from www.openstreetmap.org. The data is made available under ODbL."}, "elements": [{"type": "node", "id": 1421697605, "lat": 28.6276711, "lon": 77.2198524, "tags": {"addr:housename": "Mehrasons Jewellers", "addr:housenumber": "2", "addr:place": "Indraprastha Extension", "addr:street": "Janpath", "name": "Mehrasons Jewellers", "shop": "jewelry", "website": "https://www.mehrasonsjewellers.com"}}, {"type": "node", "id": 5656398091, "lat": 28.6330798, "lon": 77.2179653, "tags": {"addr:housename": "A", "addr:place": "Connaught Place", "addr:unit": "11", "name": "Sillviato", "phone": "+91-11-2332-7587", "shop": "jewelry"}}, {"type": "node", "id": 5656399715, "lat": 28.63345, "lon": 77.2181043, "tags": {"addr:housename": "A", "name": "Nirmal Vijay and Company Jewellers", "shop": "jewelry"}}, {"type": "node", "id": 6414427986, "lat": 28.6331242, "lon": 77.2213738}, {"type": "node", "id": 9180426308, "lat": 28.634246, "lon": 77.220487, "tags": {"check_date": "2023-12-22", "name": "Johnson Watch Co", "shop": "watches"}}, {"type": "node", "id": 10608931832, "lat": 28.629213, "lon": 77.2193377, "tags": {"addr:unit": "14", "name": "Lovely Jewellery", "shop": "jewelry"}}, {"type": "node", "id": 10924124870, "lat": 28.6345632, "lon": 77.2206668, "tags": {"addr:housenumber": "20-C", "addr:suburb": "Connaught Place", "brand": "Mont Blanc;Tag Heuer", "operator": "Bhagwan Singh & Sons Private Limited", "shop": "watches"}}, {"type": "node", "id": 10924124880, "lat": 28.6345826, "lon": 77.2206807, "tags": {"addr:block": "C", "addr:housenumber": "21", "addr:suburb": "Connaught Place", "brand": "Longines", "brand:wikidata": "Q603698", "name": "Longines", "operator": "Sondhi Brothers", "shop": "watches"}}, {"type": "node", "id": 11443228749, "lat": 28.6337895, "lon": 77.220988, "tags": {"level": "0", "name": "Sikka & Sons", "shop": "watches", "wheelchair": "yes"}}, {"type": "node", "id": 11795525437, "lat": 28.6293504, "lon": 77.2197595, "tags": {"name": "Tribhovandas Bhimji Zaveri", "shop": "jewelry"}}, {"type": "node", "id": 11795569565, "lat": 28.6295679, "lon": 77.2197864, "tags": {"name": "Kanjimull & Sons", "shop": "jewelry"}}, {"type": "node", "id": 11795594690, "lat": 28.6294342, "lon": 77.2197643, "tags": {"brand": "Rolex", "brand:wikidata": "Q62288", "name": "Rolex", "shop": "watches"}}, {"type": "node", "id": 11808931817, "lat": 28.6481675, "lon": 77.2002112, "tags": {"name": "KW Blue Pearl", "shop": "jewelry"}}, {"type": "node", "id": 12098553721, "lat": 28.633318, "lon": 77.2215502}, {"type": "node", "id": 12098553727, "lat": 28.6334081, "lon": 77.2215196}, {"type": "node", "id": 12098553754, "lat": 28.6330931, "lon": 77.2213815, "tags": {"door": "yes", "indoor": "door", "level": "0"}}, {"type": "node", "id": 12098553755, "lat": 28.6333163, "lon": 77.2213123}, {"type": "node", "id": 12098553756, "lat": 28.633266, "lon": 77.2213376}, {"type": "node", "id": 12098553761, "lat": 28.6331663, "lon": 77.2215927}, {"type": "node", "id": 12098553784, "lat": 28.6330623, "lon": 77.2213892}, {"type": "node", "id": 12098553797, "lat": 28.6332896, "lon": 77.2213257, "tags": {"door": "yes", "indoor": "door", "level": "0"}}, {"type": "node", "id": 12098553798, "lat": 28.6331011, "lon": 77.221609}, {"type": "node", "id": 12896620602, "lat": 28.6332674, "lon": 77.2073013, "tags": {"level": "0", "mobile": "+91 935080926", "name": "New Era Jewelry pvt.ltd", "phone": "+91 11 2336 1816", "shop": "jewelry", "wheelchair": "no"}}, {"type": "node", "id": 12977461520, "lat": 28.6317484, "lon": 77.2211454, "tags": {"name": "Mehta Jewels", "shop": "jewelry"}}, {"type": "node", "id": 12977503225, "lat": 28.6318028, "lon": 77.2210568, "tags": {"name": "Casio", "shop": "watches"}}, {"type": "node", "id": 13358572981, "lat": 28.6312797, "lon": 77.2198098, "tags": {"name": "Krishna Sons", "shop": "jewelry"}}, {"type": "node", "id": 13358614002, "lat": 28.631255, "lon": 77.2198079, "tags": {"name": "Krishnaji Jewellers", "shop": "jewelry"}}, {"type": "way", "id": 1306328979, "nodes": [12098553761, 12098553798, 12098553784, 12098553754, 6414427986, 12098553761], "tags": {"addr:block": "E", "addr:city": "Delhi", "addr:country": "IN", "addr:housenumber": "4", "addr:place": "Connaught Place", "addr:postcode": "110001", "branch": "Jewellery", "brand": "Tanishq", "brand:en": "Tanishq", "brand:wikidata": "Q13117711", "level": "0", "name": "Tanishq", "name:en": "Tanishq", "opening_hours": "11:00-20:00", "shop": "jewelry", "wheelchair": "yes"}}, {"type": "way", "id": 1306328988, "nodes": [12098553727, 12098553721, 12098553756, 12098553797, 12098553755, 12098553727], "tags": {"level": "0;1", "name": "Titan World Helios", "shop": "watches", "wheelchair": "limited"}}]}