{"version": 0.6, "generator": "Overpass API 0.7.62.8 e802775f", "osm3s": {"timestamp_osm_base": "2025-12-12T09:07:01Z", "copyright": "The data included in this document is from www.openstreetmap.org. The data is made available under ODbL."}, "elements": [{"type": "node", "id": 338318837, "lat": 19.0664645, "lon": 73.0099776}, {"type": "node", "id": 1122083213, "lat": 19.0721053, "lon": 73.00832, "tags": {"amenity": "restaurant", "name": "Bhaghat Tarachand"}}, {"type": "node", "id": 1123566114, "lat": 19.0721358, "lon": 72.9987418, "tags": {"amenity": "fast_food", "brand": "McDonald's", "brand:pa": "\u0a2e\u0a48\u0a15\u0a21\u0a4b\u0a28\u0a32\u0a21\u2019\u0a1c\u0a3c", "brand:ur": "\u0645\u06a9\u0688\u0648\u0646\u0644\u0688\u0632", "brand:wikidata": "Q38076", "brand:wikipedia": "en:McDonald's", "brand:wikipedia:pa": "\u0a2e\u0a48\u0a15\u0a21\u0a4b\u0a28\u0a32\u0a21\u2019\u0a1c\u0a3c", "brand:wikipedia:ur": "\u0645\u06a9\u0688\u0648\u0646\u0644\u0688\u0632", "cuisine": "burger", "name": "McDonald's", "name:pa": "\u0a2e\u0a48\u0a15\u0a21\u0a4b\u0a28\u0a32\u0a21\u2019\u0a1c\u0a3c", "name:ur": "\u0645\u06a9\u0688\u0648\u0646\u0644\u0688\u0632", "takeaway": "yes"}}, {"type": "node", "id": 1356234984, "lat": 19.0698454, "lon": 72.9873953, "tags": {"addr:district": "Thane", "addr:full": "On Sion-Panvel Exprsssway Sector - 7 Vashi Navi Mumbai", "addr:housenumber": "Sector 7", "addr:postcode": "400703", "addr:state": "Maharashtra", "addr:street": "Sion Panvel Highway", "amenity": "hospital", "emergency": "yes", "healthcare": "hospital", "name": "Dr Kasbekar Sterling Hospital", "name:en": "Dr Kasbekar Sterling Hospital", "opening_hours": "24/7", "phone": "02266804444", "source": "OpenGovernmentData", "website": "http://www.navimumbai.wockhardthospitals.com"}}, {"type": "node", "id": 1646070346, "lat": 19.0623259, "lon": 72.997868}, {"type": "node", "id": 1646070347, "lat": 19.0628012, "lon": 72.9986425}, {"type": "node", "id": 1646070348, "lat": 19.0628531, "lon": 72.9975318}, {"type": "node", "id": 1646070350, "lat": 19.0628078, "lon": 72.9974843}, {"type": "node", "id": 1646070351, "lat": 19.0629979, "lon": 72.9974291}, {"type": "node", "id": 1646070353, "lat": 19.062683, "lon": 72.9987444}, {"type": "node", "id": 1646070355, "lat": 19.0633187, "lon": 73.0000601}, {"type": "node", "id": 1646070358, "lat": 19.063575, "lon": 72.9983739}, {"type": "node", "id": 1646070361, "lat": 19.0638695, "lon": 72.9990526}, {"type": "node", "id": 1646070365, "lat": 19.0638975, "lon": 72.999876}, {"type": "node", "id": 1646070367, "lat": 19.0639431, "lon": 73.0000948}, {"type": "node", "id": 1646070373, "lat": 19.0641534, "lon": 73.0000355}, {"type": "node", "id": 1646085879, "lat": 19.0654814, "lon": 73.008754}, {"type": "node", "id": 1646085899, "lat": 19.0659103, "lon": 73.0105914}, {"type": "node", "id": 1646085908, "lat": 19.0660699, "lon": 73.0085828}, {"type": "node", "id": 1646085913, "lat": 19.06649, "lon": 73.0104699}, {"type": "node", "id": 1989718199, "lat": 19.0596525, "lon": 73.003433, "tags": {"bus": "yes", "highway": "bus_stop", "name": "Moraj Residency, Sanpada", "name:en": "Moraj Residency, Sanpada", "operator": "NMMT", "public_transport": "platform"}}, {"type": "node", "id": 2246850998, "lat": 19.0705586, "lon": 72.9895977}, {"type": "node", "id": 2246851000, "lat": 19.0705777, "lon": 72.9893593}, {"type": "node", "id": 2246851018, "lat": 19.0709055, "lon": 72.9896022}, {"type": "node", "id": 2246851022, "lat": 19.0709202, "lon": 72.989403}, {"type": "node", "id": 2246851031, "lat": 19.071153, "lon": 72.9866076}, {"type": "node", "id": 2246851035, "lat": 19.0712366, "lon": 72.9896062}, {"type": "node", "id": 2246851037, "lat": 19.0712499, "lon": 72.9894262}, {"type": "node", "id": 2246851039, "lat": 19.0708608, "lon": 72.9864003}, {"type": "node", "id": 2246851048, "lat": 19.0714822, "lon": 72.9866187}, {"type": "node", "id": 2246851050, "lat": 19.0715951, "lon": 72.9894343}, {"type": "node", "id": 2246851051, "lat": 19.0716346, "lon": 72.986294}, {"type": "node", "id": 2246851061, "lat": 19.0717315, "lon": 72.9896126}, {"type": "node", "id": 2246851064, "lat": 19.0718326, "lon": 72.9866052}, {"type": "node", "id": 2246851066, "lat": 19.0719618, "lon": 72.9862881}, {"type": "node", "id": 2246851087, "lat": 19.0721517, "lon": 72.989618}, {"type": "node", "id": 2246851088, "lat": 19.0721866, "lon": 72.9865858}, {"type": "node", "id": 2246851092, "lat": 19.0723118, "lon": 72.9862818}, {"type": "node", "id": 3251866492, "lat": 19.0501715, "lon": 73.0210857, "tags": {"highway": "bus_stop", "name": "Shirvane Gaon"}}, {"type": "node", "id": 3448175282, "lat": 19.0713284, "lon": 72.9991206}, {"type": "node", "id": 3448176705, "lat": 19.0707234, "lon": 72.9990623}, {"type": "node", "id": 3451890495, "lat": 19.0438548, "lon": 73.0086889, "tags": {"amenity": "restaurant", "brand": "Domino's", "brand:ks": "\u0688\u0648\u0645\u06cc\u0646\u0648\u0632", "brand:pa": "\u0a21\u0a4b\u0a2e\u0a40\u0a28\u0a4b\u0a1c\u0a3c", "brand:ur": "\u0688\u0648\u0645\u06cc\u0646\u0648\u0632", "brand:wikidata": "Q839466", "brand:wikipedia": "en:Domino's Pizza", "cuisine": "pizza", "name": "Domino's", "name:ks": "\u0688\u0648\u0645\u06cc\u0646\u0648\u0632", "name:pa": "\u0a21\u0a4b\u0a2e\u0a40\u0a28\u0a4b\u0a1c\u0a3c", "name:ur": "\u0688\u0648\u0645\u06cc\u0646\u0648\u0632", "wheelchair": "yes"}}, {"type": "node", "id": 3596166693, "lat": 19.0422751, "lon": 73.0229387}, {"type": "node", "id": 3674750500, "lat": 19.0714664, "lon": 72.9926179}, {"type": "node", "id": 3674750501, "lat": 19.0722062, "lon": 72.9926704}, {"type": "node", "id": 3674750502, "lat": 19.0721227, "lon": 72.9937882}, {"type": "node", "id": 3674750503, "lat": 19.0713853, "lon": 72.9937257}, {"type": "node", "id": 3674750504, "lat": 19.0695642, "lon": 72.9937908}, {"type": "node", "id": 3674750505, "lat": 19.0703786, "lon": 72.9938606}, {"type": "node", "id": 3674750506, "lat": 19.0703253, "lon": 72.9945571}, {"type": "node", "id": 3674750507, "lat": 19.0695109, "lon": 72.9944873}, {"type": "node", "id": 3674750508, "lat": 19.0706649, "lon": 72.9958474}, {"type": "node", "id": 3674750509, "lat": 19.0706387, "lon": 72.9963166}, {"type": "node", "id": 3674750510, "lat": 19.0702001, "lon": 72.9962892}, {"type": "node", "id": 3674750511, "lat": 19.0702263, "lon": 72.99582}, {"type": "node", "id": 3674750651, "lat": 19.0620377, "lon": 73.0123338}, {"type": "node", "id": 3674750652, "lat": 19.0620552, "lon": 73.0132574}, {"type": "node", "id": 3674750653, "lat": 19.0615587, "lon": 73.0132679}, {"type": "node", "id": 3674750654, "lat": 19.0615412, "lon": 73.0123443}, {"type": "node", "id": 3674750670, "lat": 19.0560106, "lon": 73.0054077}, {"type": "node", "id": 3674851412, "lat": 19.044901, "lon": 73.0148321}, {"type": "node", "id": 3674851413, "lat": 19.0438321, "lon": 73.0160299}, {"type": "node", "id": 3674851418, "lat": 19.0439041, "lon": 73.0149188}, {"type": "node", "id": 3674851419, "lat": 19.0439433, "lon": 73.0148395}, {"type": "node", "id": 3674851420, "lat": 19.0440182, "lon": 73.0148183}, {"type": "node", "id": 3674851424, "lat": 19.0432428, "lon": 73.0158139}, {"type": "node", "id": 3674854425, "lat": 19.0432918, "lon": 73.0157752}, {"type": "node", "id": 3674854426, "lat": 19.043359, "lon": 73.0157473}, {"type": "node", "id": 3674854427, "lat": 19.0434325, "lon": 73.015756}, {"type": "node", "id": 3674854428, "lat": 19.0435082, "lon": 73.0158674}, {"type": "node", "id": 3674854429, "lat": 19.0434758, "lon": 73.0164227}, {"type": "node", "id": 3674854431, "lat": 19.0423174, "lon": 73.0175984}, {"type": "node", "id": 3674854433, "lat": 19.0415671, "lon": 73.0175683}, {"type": "node", "id": 3674854439, "lat": 19.0416218, "lon": 73.0183784}, {"type": "node", "id": 3674854441, "lat": 19.0408438, "lon": 73.0183359}, {"type": "node", "id": 3674854444, "lat": 19.0414596, "lon": 73.0177033}, {"type": "node", "id": 3674854446, "lat": 19.0422265, "lon": 73.0177427}, {"type": "node", "id": 3674854447, "lat": 19.040097, "lon": 73.0137792}, {"type": "node", "id": 3674854448, "lat": 19.0400674, "lon": 73.0145909}, {"type": "node", "id": 3674854449, "lat": 19.0394821, "lon": 73.0145707}, {"type": "node", "id": 3674854450, "lat": 19.039512, "lon": 73.0137516}, {"type": "node", "id": 3678437098, "lat": 19.0621471, "lon": 73.0097078}, {"type": "node", "id": 3678437099, "lat": 19.0621616, "lon": 73.010876}, {"type": "node", "id": 3678437100, "lat": 19.0617053, "lon": 73.010885}, {"type": "node", "id": 3678437101, "lat": 19.0616961, "lon": 73.0097633}, {"type": "node", "id": 4167520316, "lat": 19.062122, "lon": 73.0140922}, {"type": "node", "id": 4167520317, "lat": 19.0621233, "lon": 73.0141767}, {"type": "node", "id": 4167520326, "lat": 19.0622047, "lon": 73.0140908}, {"type": "node", "id": 4167520327, "lat": 19.062206, "lon": 73.0141753}, {"type": "node", "id": 4469858676, "lat": 19.0469206, "lon": 73.0178782}, {"type": "node", "id": 4469858679, "lat": 19.0462209, "lon": 73.0179104}, {"type": "node", "id": 4469858680, "lat": 19.0462614, "lon": 73.0187439}, {"type": "node", "id": 4469858681, "lat": 19.0469011, "lon": 73.01874}, {"type": "node", "id": 4637019766, "lat": 19.0712414, "lon": 73.0001764}, {"type": "node", "id": 4637019767, "lat": 19.0706469, "lon": 73.0001276}, {"type": "node", "id": 4646739694, "lat": 19.0559287, "lon": 73.0191551, "tags": {"bus": "yes", "highway": "bus_stop", "name:en": "Juinagar Railway Station", "operator": "NMMT", "public_transport": "platform"}}, {"type": "node", "id": 4646740094, "lat": 19.0564272, "lon": 73.0196658, "tags": {"bench": "yes", "bus": "yes", "check_date:shelter": "2023-06-03", "highway": "bus_stop", "name:en": "Juinagar Railway Station", "operator": "NMMT", "public_transport": "platform", "shelter": "no"}}, {"type": "node", "id": 4646904590, "lat": 19.0698151, "lon": 73.0194198, "tags": {"bus": "yes", "highway": "bus_stop", "name": "Turbhe Naka", "operator": "NMMT", "public_transport": "platform"}}, {"type": "node", "id": 4646945390, "lat": 19.051353, "lon": 73.0209186, "tags": {"bus": "yes", "highway": "bus_stop", "name:en": "Shiravane Village", "operator": "NMMT", "public_transport": "platform"}}, {"type": "node", "id": 4648373500, "lat": 19.0415133, "lon": 73.019361, "tags": {"bus": "yes", "highway": "bus_stop", "name:en": "Cidco Office", "operator": "NMMT", "public_transport": "platform"}}, {"type": "node", "id": 4648373501, "lat": 19.0440055, "lon": 73.0191378, "tags": {"bus": "yes", "highway": "bus_stop", "name:en": "Rajiv Gandhi Bridge", "operator": "NMMT", "public_transport": "platform"}}, {"type": "node", "id": 4648374192, "lat": 19.0442487, "lon": 73.0231477, "tags": {"bus": "yes", "highway": "bus_stop", "name:en": "Shivaji Chowk", "operator": "NMMT", "public_transport": "platform"}}, {"type": "node", "id": 4648374393, "lat": 19.0427169, "lon": 73.0222772, "tags": {"bus": "yes", "highway": "bus_stop", "name:en": "SIES College", "operator": "NMMT", "public_transport": "platform"}}, {"type": "node", "id": 4648482189, "lat": 19.0420799, "lon": 73.0223594, "tags": {"bus": "yes", "highway": "bus_stop", "name:en": "SIES College", "operator": "NMMT", "public_transport": "platform"}}, {"type": "node", "id": 4648504491, "lat": 19.0407527, "lon": 73.0212253, "tags": {"bus": "yes", "highway": "bus_stop", "name:en": "Parsik Bank Bus Stop", "operator": "NMMT", "public_transport": "platform"}}, {"type": "node", "id": 4652120891, "lat": 19.0371473, "lon": 73.0126657, "tags": {"bus": "yes", "highway": "bus_stop", "name:en": "Vidyaprasarak Shikshan Mandal", "operator": "NMMT", "public_transport": "platform"}}, {"type": "node", "id": 4663061098, "lat": 19.0697162, "lon": 72.987709, "tags": {"bus": "yes", "highway": "bus_stop", "name": "Vashi Gaon", "operator": "NMMT", "public_transport": "platform"}}, {"type": "node", "id": 4663067196, "lat": 19.071153, "lon": 72.9878155, "tags": {"bus": "yes", "highway": "bus_stop", "name:en": "Vashi Sector 6 Market", "operator": "NMMT", "public_transport": "platform"}}, {"type": "node", "id": 4663069694, "lat": 19.0708207, "lon": 72.9879083, "tags": {"bus": "yes", "highway": "bus_stop", "name:en": "Vashi Sector 6 Market", "operator": "NMMT", "public_transport": "platform"}}, {"type": "node", "id": 4663102897, "lat": 19.0677922, "lon": 72.9972623, "tags": {"bus": "yes", "highway": "bus_stop", "name:en": "Center One Mall", "operator": "NMMT", "public_transport": "platform"}}, {"type": "node", "id": 4663103402, "lat": 19.0712449, "lon": 72.9976478, "tags": {"bus": "yes", "highway": "bus_stop", "name": "Apna Bazaar", "name:en": "Apna Bazar", "operator": "NMMT", "public_transport": "platform"}}, {"type": "node", "id": 4663124190, "lat": 19.0701073, "lon": 72.9973175, "tags": {"bus": "yes", "highway": "bus_stop", "name": "Apna Bazaar", "operator": "NMMT", "public_transport": "platform"}}, {"type": "node", "id": 4663124293, "lat": 19.0678685, "lon": 72.9974349, "tags": {"bus": "yes", "highway": "bus_stop", "name:en": "Center One Mall", "operator": "NMMT", "public_transport": "platform"}}, {"type": "node", "id": 4663128392, "lat": 19.0643025, "lon": 72.9999608, "tags": {"addr:housenumber": "Sector 30A", "addr:postcode": "400703", "addr:street": "Vashi station road", "bus": "yes", "highway": "bus_stop", "name:en": "Vashi Station Bus Stop", "public_transport": "platform"}}, {"type": "node", "id": 4664991195, "lat": 19.070063, "lon": 73.0020428, "tags": {"bus": "yes", "highway": "bus_stop", "name:en": "Mahatma Phule Sabhagruh", "operator": "NMMT", "public_transport": "platform"}}, {"type": "node", "id": 4664991290, "lat": 19.0688801, "lon": 72.9980837, "tags": {"bus": "yes", "highway": "bus_stop", "name:en": "Vashi Highway", "operator": "NMMT", "public_transport": "platform"}}, {"type": "node", "id": 4664991291, "lat": 19.0681439, "lon": 73.000218, "tags": {"bus": "yes", "highway": "bus_stop", "name:en": "Maharashtra State Co-Operative Bank", "operator": "NMMT", "public_transport": "platform"}}, {"type": "node", "id": 4664991292, "lat": 19.068213, "lon": 73.0044722, "tags": {"bench": "no", "bin": "no", "bus": "yes", "highway": "bus_stop", "name:en": "Shamrao Vitthal Bank", "operator": "NMMT", "public_transport": "platform", "shelter": "no"}}, {"type": "node", "id": 4664991294, "lat": 19.0676136, "lon": 73.0086348, "tags": {"bus": "yes", "highway": "bus_stop", "name:en": "Sanpada Railway Station", "operator": "NMMT", "public_transport": "platform"}}, {"type": "node", "id": 4665009089, "lat": 19.0685844, "lon": 73.0005908, "tags": {"bus": "yes", "highway": "bus_stop", "name:en": "Maharashtra State Co-Operative Bank", "operator": "NMMT", "public_transport": "platform", "shelter": "no"}}, {"type": "node", "id": 4665010205, "lat": 19.067578, "lon": 73.0139977, "tags": {"bus": "yes", "highway": "bus_stop", "name:en": "Datta Mandir", "operator": "NMMT", "public_transport": "platform"}}, {"type": "node", "id": 4665010289, "lat": 19.0678412, "lon": 73.0044428, "tags": {"bus": "yes", "highway": "bus_stop", "name:en": "Shamrao Vitthal Bank", "operator": "NMMT", "public_transport": "platform"}}, {"type": "node", "id": 4665010293, "lat": 19.0679524, "lon": 73.0093933, "tags": {"bus": "yes", "highway": "bus_stop", "name:en": "Sanpada Railway Station", "operator": "NMMT", "public_transport": "platform"}}, {"type": "node", "id": 4665021705, "lat": 19.0626269, "lon": 73.0105998, "tags": {"bus": "yes", "highway": "bus_stop", "name:en": "Riddhi Siddhi Police Station", "operator": "NMMT", "public_transport": "platform"}}, {"type": "node", "id": 4665021797, "lat": 19.071995, "lon": 73.0025686, "tags": {"bus": "yes", "highway": "bus_stop", "name:en": "Shantaram Patil Chowk", "operator": "NMMT", "public_transport": "platform"}}, {"type": "node", "id": 4665029394, "lat": 19.0606458, "lon": 73.0140982, "tags": {"bus": "yes", "highway": "bus_stop", "name:en": "Nathu Joma Patil Chowk", "operator": "NMMT", "public_transport": "platform"}}, {"type": "node", "id": 4665029397, "lat": 19.0551161, "lon": 73.0161605, "tags": {"bus": "yes", "highway": "bus_stop", "name:en": "Juinagar Railway Station", "operator": "NMMT", "public_transport": "platform"}}, {"type": "node", "id": 4665029890, "lat": 19.072018, "lon": 73.0022289, "tags": {"bus": "yes", "highway": "bus_stop", "name:en": "Shantaram Patil Chowk", "operator": "NMMT", "public_transport": "platform"}}, {"type": "node", "id": 4665030193, "lat": 19.0629611, "lon": 73.013242, "tags": {"bus": "yes", "highway": "bus_stop", "name:en": "Vivekananda School", "operator": "NMMT", "public_transport": "platform"}}, {"type": "node", "id": 4665035791, "lat": 19.059388, "lon": 73.0028322, "tags": {"bus": "yes", "highway": "bus_stop", "name:en": "Moraj Residency,Sanpada", "operator": "NMMT", "public_transport": "platform"}}, {"type": "node", "id": 4665035792, "lat": 19.0629058, "lon": 73.0099273, "tags": {"bus": "yes", "highway": "bus_stop", "name:en": "Riddhi Siddhi Police Station", "operator": "NMMT", "public_transport": "platform"}}, {"type": "node", "id": 4665074590, "lat": 19.0630434, "lon": 73.0134636, "tags": {"bus": "yes", "highway": "bus_stop", "name:en": "Vivekananda School", "operator": "NMMT", "public_transport": "platform"}}, {"type": "node", "id": 4665107006, "lat": 19.0482738, "lon": 73.0174151, "tags": {"bus": "yes", "highway": "bus_stop", "name:en": "Dattatreya Apartment", "operator": "NMMT", "public_transport": "platform"}}, {"type": "node", "id": 4665107007, "lat": 19.0481616, "lon": 73.0173465, "tags": {"bus": "yes", "highway": "bus_stop", "name:en": "Dattatreya Apartment", "operator": "NMMT", "public_transport": "platform"}}, {"type": "node", "id": 4665107091, "lat": 19.0531467, "lon": 73.0166663, "tags": {"bus": "yes", "highway": "bus_stop", "name:en": "Aniruddha Bhavan", "operator": "NMMT", "public_transport": "platform"}}, {"type": "node", "id": 4665107092, "lat": 19.0520563, "lon": 73.0166908, "tags": {"bus": "yes", "highway": "bus_stop", "name:en": "Amruta Vidyalaya", "operator": "NMMT", "public_transport": "platform"}}, {"type": "node", "id": 4665107206, "lat": 19.0607136, "lon": 73.0138985, "tags": {"bus": "yes", "highway": "bus_stop", "name:en": "Nathu Joma Patil Chowk", "operator": "NMMT", "public_transport": "platform"}}, {"type": "node", "id": 4665107296, "lat": 19.0551816, "lon": 73.0162937, "tags": {"bus": "yes", "highway": "bus_stop", "name:en": "Juinagar Railway Station", "operator": "NMMT", "public_transport": "platform"}}, {"type": "node", "id": 4665107297, "lat": 19.0531473, "lon": 73.0165583, "tags": {"bus": "yes", "highway": "bus_stop", "name:en": "Aniruddha Bhavan", "operator": "NMMT", "public_transport": "platform"}}, {"type": "node", "id": 4665107300, "lat": 19.0511472, "lon": 73.0168452, "tags": {"bus": "yes", "highway": "bus_stop", "name": "Juipada Sector 23/24", "name:en": "Juipada Sector 23/24", "operator": "NMMT", "public_transport": "platform"}}, {"type": "node", "id": 4665109303, "lat": 19.0466984, "lon": 73.0176288, "tags": {"bus": "yes", "highway": "bus_stop", "name:en": "Chincholi Talao (Juinagar)", "operator": "NMMT", "public_transport": "platform"}}, {"type": "node", "id": 4665109304, "lat": 19.0440667, "lon": 73.017651, "tags": {"bus": "yes", "highway": "bus_stop", "name:en": "Ganesh Chowk (Nerul-E)", "operator": "NMMT", "public_transport": "platform"}}, {"type": "node", "id": 4665153705, "lat": 19.0436464, "lon": 73.0146601, "tags": {"bus": "yes", "highway": "bus_stop", "name": "Swatantryaveer Sawarkar Chowk", "name:en": "Swatantryaveer Sawarkar Chowk", "operator": "NMMT", "public_transport": "platform"}}, {"type": "node", "id": 4665153706, "lat": 19.0439156, "lon": 73.014306, "tags": {"bus": "yes", "highway": "bus_stop", "name": "Sarsole Koliwada", "name:en": "Sarsole Koliwada", "operator": "NMMT", "public_transport": "platform"}}, {"type": "node", "id": 4665153902, "lat": 19.0430206, "lon": 73.0146821, "tags": {"bus": "yes", "highway": "bus_stop", "name:en": "Sarsole Koliwada", "operator": "NMMT", "public_transport": "platform"}}, {"type": "node", "id": 4665153903, "lat": 19.038573, "lon": 73.0146009, "tags": {"bus": "yes", "highway": "bus_stop", "name:en": "Terna College", "operator": "NMMT", "public_transport": "platform"}}, {"type": "node", "id": 4665153999, "lat": 19.0436749, "lon": 73.0142363, "tags": {"bus": "yes", "highway": "bus_stop", "name": "Sarsole Koliwada", "name:en": "Sarsole Koliwada", "operator": "NMMT", "public_transport": "platform"}}, {"type": "node", "id": 4665154194, "lat": 19.0464647, "lon": 73.0175578, "tags": {"bus": "yes", "highway": "bus_stop", "name:en": "Chincholi Talao (Juinagar)", "operator": "NMMT", "public_transport": "platform"}}, {"type": "node", "id": 4665154197, "lat": 19.0403055, "lon": 73.014709, "tags": {"bus": "yes", "highway": "bus_stop", "name:en": "Sarsole Depot", "operator": "NMMT", "public_transport": "platform"}}, {"type": "node", "id": 4665158691, "lat": 19.0513732, "lon": 73.0169358, "tags": {"bus": "yes", "highway": "bus_stop", "name": "Juipada Sector 23/24", "name:en": "Juipada Sector 23/24", "operator": "NMMT", "public_transport": "platform"}}, {"type": "node", "id": 4665158704, "lat": 19.0476311, "lon": 73.0173703, "tags": {"bus": "yes", "highway": "bus_stop", "name:en": "Juinagar Sector-25", "operator": "NMMT", "public_transport": "platform"}}, {"type": "node", "id": 4665169289, "lat": 19.052105, "lon": 73.0168392, "tags": {"bus": "yes", "highway": "bus_stop", "name:en": "Amruta Vidyalaya", "operator": "NMMT", "public_transport": "platform"}}, {"type": "node", "id": 4665169310, "lat": 19.0501788, "lon": 73.0171221, "tags": {"bus": "yes", "highway": "bus_stop", "name:en": "Gaondevi Chowk (Juinagar)", "operator": "NMMT", "public_transport": "platform"}}, {"type": "node", "id": 4665169391, "lat": 19.0504624, "lon": 73.0169737, "tags": {"bus": "yes", "highway": "bus_stop", "name:en": "Gaondevi Chowk (Juinagar)", "operator": "NMMT", "public_transport": "platform"}}, {"type": "node", "id": 4665169393, "lat": 19.047505, "lon": 73.0175004, "tags": {"bus": "yes", "highway": "bus_stop", "name:en": "Juinagar Sector-25", "operator": "NMMT", "public_transport": "platform"}}, {"type": "node", "id": 4665191695, "lat": 19.0383042, "lon": 73.0145241, "tags": {"bus": "yes", "highway": "bus_stop", "name:en": "Terna College", "operator": "NMMT", "public_transport": "platform"}}, {"type": "node", "id": 4665191790, "lat": 19.0444372, "lon": 73.0178158, "tags": {"bus": "yes", "highway": "bus_stop", "name:en": "Ganesh Chowk (Nerul-E)", "operator": "NMMT", "public_transport": "platform"}}, {"type": "node", "id": 4665647294, "lat": 19.0411208, "lon": 73.0097661, "tags": {"bus": "yes", "highway": "bus_stop", "name:en": "Meridian", "operator": "NMMT", "public_transport": "platform"}}, {"type": "node", "id": 4665684192, "lat": 19.0439737, "lon": 73.011494, "tags": {"bus": "yes", "highway": "bus_stop", "name:en": "Nerul Sector-2/4", "operator": "NMMT", "public_transport": "platform"}}, {"type": "node", "id": 4665684294, "lat": 19.0429616, "lon": 73.0097301, "tags": {"bus": "yes", "highway": "bus_stop", "name:en": "Deep Sagar Society", "operator": "NMMT", "public_transport": "platform"}}, {"type": "node", "id": 4665684295, "lat": 19.0423903, "lon": 73.0098312, "tags": {"bus": "yes", "highway": "bus_stop", "name:en": "Deep Sagar Society", "operator": "NMMT", "public_transport": "platform"}}, {"type": "node", "id": 4665684392, "lat": 19.041035, "lon": 73.0096562, "tags": {"bus": "yes", "highway": "bus_stop", "name:en": "Meridian", "operator": "NMMT", "public_transport": "platform"}}, {"type": "node", "id": 4679940190, "lat": 19.0707767, "lon": 73.0234788, "tags": {"bus": "yes", "highway": "bus_stop", "name:en": "Faizer Company", "operator": "NMMT", "public_transport": "platform"}}, {"type": "node", "id": 4812725189, "lat": 19.0730116, "lon": 72.993445}, {"type": "node", "id": 4812725190, "lat": 19.0729355, "lon": 72.994357}, {"type": "node", "id": 4812725191, "lat": 19.0722815, "lon": 72.9942926}, {"type": "node", "id": 4812725192, "lat": 19.0723373, "lon": 72.9933914}, {"type": "node", "id": 4812853609, "lat": 19.0721892, "lon": 72.9892913}, {"type": "node", "id": 4819972338, "lat": 19.0645871, "lon": 72.9983145}, {"type": "node", "id": 4819972339, "lat": 19.0641818, "lon": 72.9985057}, {"type": "node", "id": 4819972340, "lat": 19.0645307, "lon": 72.9981809}, {"type": "node", "id": 4819972341, "lat": 19.0641254, "lon": 72.9983721}, {"type": "node", "id": 4819972342, "lat": 19.0646895, "lon": 72.9982542}, {"type": "node", "id": 4819972343, "lat": 19.0648202, "lon": 72.9981925}, {"type": "node", "id": 4819972344, "lat": 19.0646369, "lon": 72.9981294}, {"type": "node", "id": 4819972345, "lat": 19.0647676, "lon": 72.9980677}, {"type": "node", "id": 4819972346, "lat": 19.0648757, "lon": 72.998014}, {"type": "node", "id": 4819972347, "lat": 19.0652715, "lon": 72.9978272}, {"type": "node", "id": 4819972348, "lat": 19.0649312, "lon": 72.9981459}, {"type": "node", "id": 4819972349, "lat": 19.0653271, "lon": 72.9979591}, {"type": "node", "id": 4819972350, "lat": 19.0655593, "lon": 72.9978379}, {"type": "node", "id": 4819972351, "lat": 19.065441, "lon": 72.9978937}, {"type": "node", "id": 4819972352, "lat": 19.0655082, "lon": 72.9977165}, {"type": "node", "id": 4819972353, "lat": 19.0653899, "lon": 72.9977723}, {"type": "node", "id": 4819972354, "lat": 19.0660766, "lon": 72.9976019}, {"type": "node", "id": 4819972355, "lat": 19.0656711, "lon": 72.9977932}, {"type": "node", "id": 4819972356, "lat": 19.0660246, "lon": 72.9974784}, {"type": "node", "id": 4819972357, "lat": 19.065619, "lon": 72.9976697}, {"type": "node", "id": 4819972385, "lat": 19.0643386, "lon": 72.9979598}, {"type": "node", "id": 4819972386, "lat": 19.0642233, "lon": 72.9976863}, {"type": "node", "id": 4819972387, "lat": 19.0639539, "lon": 72.9978134}, {"type": "node", "id": 4819972388, "lat": 19.0640692, "lon": 72.9980869}, {"type": "node", "id": 4819976530, "lat": 19.0639625, "lon": 72.9993747}, {"type": "node", "id": 4819976531, "lat": 19.064031, "lon": 72.9996116}, {"type": "node", "id": 4819976532, "lat": 19.0631775, "lon": 72.9978371}, {"type": "node", "id": 4819976533, "lat": 19.0633573, "lon": 72.9979796}, {"type": "node", "id": 4819976534, "lat": 19.0642566, "lon": 72.9995357}, {"type": "node", "id": 4819976535, "lat": 19.0641856, "lon": 72.9992996}, {"type": "node", "id": 4819976536, "lat": 19.0635518, "lon": 72.997862}, {"type": "node", "id": 4819976537, "lat": 19.0634372, "lon": 72.997652}, {"type": "node", "id": 5411531789, "lat": 19.0398762, "lon": 73.0103758}, {"type": "node", "id": 5411531790, "lat": 19.0390369, "lon": 73.0103356}, {"type": "node", "id": 5411531791, "lat": 19.038971, "lon": 73.0115265}, {"type": "node", "id": 5411531792, "lat": 19.0398179, "lon": 73.0115801}, {"type": "node", "id": 5414139578, "lat": 19.040935, "lon": 73.0233369, "tags": {"access": "private", "barrier": "gate"}}, {"type": "node", "id": 5414139589, "lat": 19.0403561, "lon": 73.0240311}, {"type": "node", "id": 5428254306, "lat": 19.047151, "lon": 73.0187402}, {"type": "node", "id": 5428254307, "lat": 19.0472296, "lon": 73.01854}, {"type": "node", "id": 5428254308, "lat": 19.0473053, "lon": 73.0183119}, {"type": "node", "id": 5428254309, "lat": 19.0472558, "lon": 73.0178899}, {"type": "node", "id": 5428254310, "lat": 19.0471481, "lon": 73.0177543}, {"type": "node", "id": 5428254311, "lat": 19.0470141, "lon": 73.0176742}, {"type": "node", "id": 5428254312, "lat": 19.0469034, "lon": 73.0176372}, {"type": "node", "id": 5428254313, "lat": 19.0461083, "lon": 73.0177543}, {"type": "node", "id": 5428254314, "lat": 19.0462015, "lon": 73.0187433}, {"type": "node", "id": 5430685717, "lat": 19.0384113, "lon": 73.0138326}, {"type": "node", "id": 5430685719, "lat": 19.0385621, "lon": 73.0138374}, {"type": "node", "id": 5430685720, "lat": 19.0385422, "lon": 73.0145383}, {"type": "node", "id": 5430687321, "lat": 19.0379931, "lon": 73.0138194}, {"type": "node", "id": 5430687322, "lat": 19.0379733, "lon": 73.0145186}, {"type": "node", "id": 5430779472, "lat": 19.0383913, "lon": 73.0161857}, {"type": "node", "id": 5430779473, "lat": 19.0379582, "lon": 73.0161566}, {"type": "node", "id": 5430779474, "lat": 19.0379256, "lon": 73.0167283}, {"type": "node", "id": 5430779475, "lat": 19.0383569, "lon": 73.0167573}, {"type": "node", "id": 5430779476, "lat": 19.0434841, "lon": 73.0157705}, {"type": "node", "id": 5430779478, "lat": 19.0435072, "lon": 73.0158044}, {"type": "node", "id": 5430779480, "lat": 19.0383004, "lon": 73.0215555}, {"type": "node", "id": 5430779484, "lat": 19.0386144, "lon": 73.0218622}, {"type": "node", "id": 5430779489, "lat": 19.0383435, "lon": 73.0214975}, {"type": "node", "id": 5430779490, "lat": 19.0386537, "lon": 73.0218094}, {"type": "node", "id": 5430779491, "lat": 19.0396264, "lon": 73.0205024}, {"type": "node", "id": 5430779492, "lat": 19.0395363, "lon": 73.0204391}, {"type": "node", "id": 5430779493, "lat": 19.0393883, "lon": 73.0203813}, {"type": "node", "id": 5430779494, "lat": 19.0394644, "lon": 73.0204052}, {"type": "node", "id": 5430779495, "lat": 19.0392837, "lon": 73.0203668}, {"type": "node", "id": 5430779496, "lat": 19.0391901, "lon": 73.0203959}, {"type": "node", "id": 5430779497, "lat": 19.0391217, "lon": 73.0204507}, {"type": "node", "id": 5430795631, "lat": 19.0365958, "lon": 73.0222785}, {"type": "node", "id": 5430795632, "lat": 19.0372623, "lon": 73.0229392}, {"type": "node", "id": 5430795633, "lat": 19.0371101, "lon": 73.0231421}, {"type": "node", "id": 5430795634, "lat": 19.036424, "lon": 73.0224709}, {"type": "node", "id": 5430795635, "lat": 19.0392365, "lon": 73.0224455}, {"type": "node", "id": 5430795636, "lat": 19.038856, "lon": 73.0228886}, {"type": "node", "id": 5430795637, "lat": 19.0395409, "lon": 73.0235616}, {"type": "node", "id": 5430795638, "lat": 19.0399754, "lon": 73.0232588}, {"type": "node", "id": 5430795639, "lat": 19.0399467, "lon": 73.0224474}, {"type": "node", "id": 5430795640, "lat": 19.0400572, "lon": 73.0240575}, {"type": "node", "id": 5430795644, "lat": 19.0394652, "lon": 73.0234832}, {"type": "node", "id": 5430804028, "lat": 19.0419405, "lon": 73.0243458}, {"type": "node", "id": 5430804033, "lat": 19.0415121, "lon": 73.0252371}, {"type": "node", "id": 5430804034, "lat": 19.0410878, "lon": 73.0255201}, {"type": "node", "id": 5430804036, "lat": 19.0403628, "lon": 73.0250895}, {"type": "node", "id": 5430804038, "lat": 19.0403799, "lon": 73.0245153}, {"type": "node", "id": 5430804040, "lat": 19.0411684, "lon": 73.0235666}, {"type": "node", "id": 5430903454, "lat": 19.0437452, "lon": 73.0212717}, {"type": "node", "id": 5430903455, "lat": 19.0438376, "lon": 73.0212837}, {"type": "node", "id": 5430903456, "lat": 19.0442229, "lon": 73.0215083}, {"type": "node", "id": 5430903457, "lat": 19.0437371, "lon": 73.0219982}, {"type": "node", "id": 5430932918, "lat": 19.0425792, "lon": 73.0209139}, {"type": "node", "id": 5430932919, "lat": 19.0426911, "lon": 73.0209576}, {"type": "node", "id": 5430932920, "lat": 19.0426534, "lon": 73.0215001}, {"type": "node", "id": 5430933722, "lat": 19.0423395, "lon": 73.0200253}, {"type": "node", "id": 5430933723, "lat": 19.0428867, "lon": 73.0205651}, {"type": "node", "id": 5430933724, "lat": 19.0423019, "lon": 73.0212286}, {"type": "node", "id": 5430933725, "lat": 19.0417547, "lon": 73.0206888}, {"type": "node", "id": 5430933726, "lat": 19.0420411, "lon": 73.0203639}, {"type": "node", "id": 5430933727, "lat": 19.0413551, "lon": 73.0203112}, {"type": "node", "id": 5430933730, "lat": 19.0429358, "lon": 73.0161299}, {"type": "node", "id": 5430933731, "lat": 19.0421241, "lon": 73.0169655}, {"type": "node", "id": 5430933733, "lat": 19.0377382, "lon": 73.0203894}, {"type": "node", "id": 5430933734, "lat": 19.0377174, "lon": 73.020762}, {"type": "node", "id": 5430933735, "lat": 19.0378654, "lon": 73.0210266}, {"type": "node", "id": 5430933736, "lat": 19.0428702, "lon": 73.0098786}, {"type": "node", "id": 5430933737, "lat": 19.0422422, "lon": 73.0098437}, {"type": "node", "id": 5430933738, "lat": 19.0422149, "lon": 73.010392}, {"type": "node", "id": 5430933739, "lat": 19.0428429, "lon": 73.010427}, {"type": "node", "id": 5430933740, "lat": 19.0459625, "lon": 73.0114142}, {"type": "node", "id": 5430933741, "lat": 19.0450825, "lon": 73.0113722}, {"type": "node", "id": 5430933742, "lat": 19.0451032, "lon": 73.0109596}, {"type": "node", "id": 5430933743, "lat": 19.0459884, "lon": 73.0110034}, {"type": "node", "id": 5450694469, "lat": 19.0730475, "lon": 72.985018}, {"type": "node", "id": 5450694470, "lat": 19.0729544, "lon": 72.9860286}, {"type": "node", "id": 5450694471, "lat": 19.0731727, "lon": 72.9860502}, {"type": "node", "id": 5450694472, "lat": 19.0731356, "lon": 72.986446}, {"type": "node", "id": 5450694473, "lat": 19.0723953, "lon": 72.9863737}, {"type": "node", "id": 5450694474, "lat": 19.0725176, "lon": 72.9849687}, {"type": "node", "id": 5450807810, "lat": 19.0725246, "lon": 72.9908404}, {"type": "node", "id": 5450807811, "lat": 19.0732162, "lon": 72.9908974}, {"type": "node", "id": 5450807812, "lat": 19.0731509, "lon": 72.9917105}, {"type": "node", "id": 5450807813, "lat": 19.0724593, "lon": 72.9916535}, {"type": "node", "id": 5502973470, "lat": 19.0378339, "lon": 73.0130769}, {"type": "node", "id": 5502973471, "lat": 19.0371728, "lon": 73.0130414}, {"type": "node", "id": 5502973472, "lat": 19.0371452, "lon": 73.0136176}, {"type": "node", "id": 5502973473, "lat": 19.0378062, "lon": 73.0136531}, {"type": "node", "id": 5502994953, "lat": 19.0433182, "lon": 73.0138818}, {"type": "node", "id": 5502994954, "lat": 19.0432948, "lon": 73.0146675}, {"type": "node", "id": 5502994955, "lat": 19.0426691, "lon": 73.0146533}, {"type": "node", "id": 5502994956, "lat": 19.0427461, "lon": 73.0138216}, {"type": "node", "id": 5502994960, "lat": 19.0442869, "lon": 73.0155202}, {"type": "node", "id": 5507274423, "lat": 19.0707881, "lon": 72.9950159}, {"type": "node", "id": 5507274424, "lat": 19.0717677, "lon": 72.9950859}, {"type": "node", "id": 5507274425, "lat": 19.0717194, "lon": 72.9958428}, {"type": "node", "id": 5507274426, "lat": 19.0707333, "lon": 72.9958748}, {"type": "node", "id": 5507313295, "lat": 19.0729981, "lon": 73.0130796}, {"type": "node", "id": 5507313296, "lat": 19.0723697, "lon": 73.013023}, {"type": "node", "id": 5507313297, "lat": 19.0723243, "lon": 73.0135864}, {"type": "node", "id": 5507313298, "lat": 19.0729527, "lon": 73.013643}, {"type": "node", "id": 5507313299, "lat": 19.072427, "lon": 73.0123703}, {"type": "node", "id": 5507313300, "lat": 19.0730717, "lon": 73.0124336}, {"type": "node", "id": 5507313301, "lat": 19.0731195, "lon": 73.0118888}, {"type": "node", "id": 5507313302, "lat": 19.0724748, "lon": 73.0118254}, {"type": "node", "id": 5508334424, "lat": 19.0663487, "lon": 73.0049092}, {"type": "node", "id": 5508334425, "lat": 19.0663064, "lon": 73.0057563}, {"type": "node", "id": 5508334426, "lat": 19.065698, "lon": 73.0057223}, {"type": "node", "id": 5508334427, "lat": 19.065479, "lon": 73.0048606}, {"type": "node", "id": 5511120959, "lat": 19.0702468, "lon": 72.9895936}, {"type": "node", "id": 5511120960, "lat": 19.070275, "lon": 72.9893016}, {"type": "node", "id": 5511120961, "lat": 19.0720094, "lon": 72.9894472}, {"type": "node", "id": 5511120967, "lat": 19.0724034, "lon": 72.9862802}, {"type": "node", "id": 5511120968, "lat": 19.0715274, "lon": 72.9862959}, {"type": "node", "id": 5511120969, "lat": 19.0711888, "lon": 72.9863557}, {"type": "node", "id": 5511120971, "lat": 19.0708459, "lon": 72.9865972}, {"type": "node", "id": 5511120972, "lat": 19.0715453, "lon": 72.9866209}, {"type": "node", "id": 5511120973, "lat": 19.0723702, "lon": 72.9865758}, {"type": "node", "id": 5511120985, "lat": 19.070388, "lon": 72.9874425}, {"type": "node", "id": 5511120986, "lat": 19.0702446, "lon": 72.9876702}, {"type": "node", "id": 5511120987, "lat": 19.0702349, "lon": 72.9878999}, {"type": "node", "id": 5511120988, "lat": 19.0698021, "lon": 72.9878794}, {"type": "node", "id": 5511120989, "lat": 19.0698104, "lon": 72.9876824}, {"type": "node", "id": 5511120990, "lat": 19.0699545, "lon": 72.9876892}, {"type": "node", "id": 5511120991, "lat": 19.0699657, "lon": 72.9874226}, {"type": "node", "id": 5518334374, "lat": 19.0493208, "lon": 73.0163788}, {"type": "node", "id": 5518334375, "lat": 19.0485633, "lon": 73.0165035}, {"type": "node", "id": 5518334376, "lat": 19.0485744, "lon": 73.0165942}, {"type": "node", "id": 5518334377, "lat": 19.0480863, "lon": 73.0166745}, {"type": "node", "id": 5518334378, "lat": 19.0481803, "lon": 73.0173158}, {"type": "node", "id": 5518334379, "lat": 19.0486731, "lon": 73.017236}, {"type": "node", "id": 5518334380, "lat": 19.0486277, "lon": 73.0169223}, {"type": "node", "id": 5518334381, "lat": 19.049386, "lon": 73.0167994}, {"type": "node", "id": 5518334382, "lat": 19.0480347, "lon": 73.0163234}, {"type": "node", "id": 5518334383, "lat": 19.0485253, "lon": 73.0162451}, {"type": "node", "id": 5518334388, "lat": 19.0517218, "lon": 73.0162045}, {"type": "node", "id": 5518334389, "lat": 19.0510561, "lon": 73.0162965}, {"type": "node", "id": 5518334390, "lat": 19.0510929, "lon": 73.016838}, {"type": "node", "id": 5518334391, "lat": 19.0517754, "lon": 73.0167353}, {"type": "node", "id": 5518334397, "lat": 19.0434863, "lon": 73.0199749}, {"type": "node", "id": 5518334398, "lat": 19.0430585, "lon": 73.0205088}, {"type": "node", "id": 5518334399, "lat": 19.0428722, "lon": 73.0203417}, {"type": "node", "id": 5518334400, "lat": 19.0429506, "lon": 73.0202438}, {"type": "node", "id": 5518334401, "lat": 19.0427966, "lon": 73.0201057}, {"type": "node", "id": 5518334402, "lat": 19.0430314, "lon": 73.0198126}, {"type": "node", "id": 5518334403, "lat": 19.0433234, "lon": 73.0198228}, {"type": "node", "id": 5518334404, "lat": 19.0433288, "lon": 73.0196492}, {"type": "node", "id": 5518334405, "lat": 19.0434916, "lon": 73.0196549}, {"type": "node", "id": 5541844963, "lat": 19.0393705, "lon": 73.0208524}, {"type": "node", "id": 5541844964, "lat": 19.039653, "lon": 73.0211186}, {"type": "node", "id": 5541844965, "lat": 19.0393586, "lon": 73.0214546}, {"type": "node", "id": 5541844966, "lat": 19.0390971, "lon": 73.0212134}, {"type": "node", "id": 5541844969, "lat": 19.0396542, "lon": 73.0217507}, {"type": "node", "id": 5541844971, "lat": 19.0391325, "lon": 73.0215158}, {"type": "node", "id": 5541844972, "lat": 19.0390373, "lon": 73.0216204}, {"type": "node", "id": 5541844973, "lat": 19.0388882, "lon": 73.0214939}, {"type": "node", "id": 5544516302, "lat": 19.0682113, "lon": 73.0138375}, {"type": "node", "id": 5544516303, "lat": 19.0687826, "lon": 73.0138856}, {"type": "node", "id": 5544516304, "lat": 19.0687282, "lon": 73.014592}, {"type": "node", "id": 5544516305, "lat": 19.0681564, "lon": 73.0145416}, {"type": "node", "id": 5544516306, "lat": 19.0688328, "lon": 73.0132798}, {"type": "node", "id": 5544516307, "lat": 19.0682618, "lon": 73.0132269}, {"type": "node", "id": 5544516318, "lat": 19.0641465, "lon": 73.0118991}, {"type": "node", "id": 5544516319, "lat": 19.0635699, "lon": 73.0119052}, {"type": "node", "id": 5544516320, "lat": 19.0635758, "lon": 73.0126354}, {"type": "node", "id": 5544516621, "lat": 19.0631199, "lon": 73.0126389}, {"type": "node", "id": 5544516622, "lat": 19.0631273, "lon": 73.013304}, {"type": "node", "id": 5544516623, "lat": 19.0636952, "lon": 73.0132886}, {"type": "node", "id": 5544516624, "lat": 19.0638058, "lon": 73.0126724}, {"type": "node", "id": 5544516625, "lat": 19.0641582, "lon": 73.012657}, {"type": "node", "id": 5544516626, "lat": 19.064201, "lon": 73.0119022}, {"type": "node", "id": 5544516627, "lat": 19.0642365, "lon": 73.0119183}, {"type": "node", "id": 5544516628, "lat": 19.0642619, "lon": 73.0119585}, {"type": "node", "id": 5544516629, "lat": 19.0642719, "lon": 73.012594}, {"type": "node", "id": 5544516630, "lat": 19.0642324, "lon": 73.0126573}, {"type": "node", "id": 5544516631, "lat": 19.0642628, "lon": 73.0126332}, {"type": "node", "id": 5544516641, "lat": 19.0613913, "lon": 73.0116227}, {"type": "node", "id": 5544516642, "lat": 19.0607455, "lon": 73.0123568}, {"type": "node", "id": 5544516643, "lat": 19.0601139, "lon": 73.0117349}, {"type": "node", "id": 5544516644, "lat": 19.0613736, "lon": 73.0109864}, {"type": "node", "id": 5544516645, "lat": 19.0614005, "lon": 73.0123459}, {"type": "node", "id": 5544516646, "lat": 19.0607597, "lon": 73.0110008}, {"type": "node", "id": 5544516647, "lat": 19.0601101, "lon": 73.0110092}, {"type": "node", "id": 5544516648, "lat": 19.060127, "lon": 73.0123694}, {"type": "node", "id": 5544516662, "lat": 19.0590552, "lon": 73.0147855}, {"type": "node", "id": 5544516663, "lat": 19.0577564, "lon": 73.0148058}, {"type": "node", "id": 5544516664, "lat": 19.0577756, "lon": 73.0155092}, {"type": "node", "id": 5544516665, "lat": 19.0582367, "lon": 73.015497}, {"type": "node", "id": 5544516666, "lat": 19.0582367, "lon": 73.0152734}, {"type": "node", "id": 5544516667, "lat": 19.0590552, "lon": 73.015253}, {"type": "node", "id": 5544732575, "lat": 19.0655038, "lon": 73.0151441}, {"type": "node", "id": 5544732576, "lat": 19.0652663, "lon": 73.0149034}, {"type": "node", "id": 5544732577, "lat": 19.065247, "lon": 73.0142558}, {"type": "node", "id": 5544732578, "lat": 19.064905, "lon": 73.014272}, {"type": "node", "id": 5544732579, "lat": 19.0649252, "lon": 73.0145644}, {"type": "node", "id": 5544732580, "lat": 19.0652557, "lon": 73.0145483}, {"type": "node", "id": 5544732581, "lat": 19.0649531, "lon": 73.0149211}, {"type": "node", "id": 5544732582, "lat": 19.0649861, "lon": 73.0154254}, {"type": "node", "id": 5544732583, "lat": 19.0649633, "lon": 73.0157875}, {"type": "node", "id": 5544732584, "lat": 19.0650013, "lon": 73.0158197}, {"type": "node", "id": 5544732585, "lat": 19.0653511, "lon": 73.0159082}, {"type": "node", "id": 5544732586, "lat": 19.0654782, "lon": 73.0157756}, {"type": "node", "id": 5544732599, "lat": 19.0662362, "lon": 73.015866}, {"type": "node", "id": 5544732614, "lat": 19.0660689, "lon": 73.0158893}, {"type": "node", "id": 5544732615, "lat": 19.0660142, "lon": 73.0164087}, {"type": "node", "id": 5544732616, "lat": 19.0663001, "lon": 73.0163739}, {"type": "node", "id": 5544733021, "lat": 19.0617953, "lon": 73.0097047}, {"type": "node", "id": 5544733061, "lat": 19.0652411, "lon": 73.0115348}, {"type": "node", "id": 5544733062, "lat": 19.065338, "lon": 73.0121395}, {"type": "node", "id": 5544733063, "lat": 19.0650115, "lon": 73.0121981}, {"type": "node", "id": 5544733064, "lat": 19.0649146, "lon": 73.0115933}, {"type": "node", "id": 5544733070, "lat": 19.0583698, "lon": 73.0147962}, {"type": "node", "id": 5544775979, "lat": 19.0564896, "lon": 73.0048448}, {"type": "node", "id": 5544775980, "lat": 19.0568966, "lon": 73.0052324}, {"type": "node", "id": 5544775981, "lat": 19.0564176, "lon": 73.0057954}, {"type": "node", "id": 5544791016, "lat": 19.0615245, "lon": 73.0048322}, {"type": "node", "id": 5544791017, "lat": 19.061946, "lon": 73.0051315}, {"type": "node", "id": 5544791018, "lat": 19.0616299, "lon": 73.0056219}, {"type": "node", "id": 5544791019, "lat": 19.06123, "lon": 73.0053333}, {"type": "node", "id": 5544831695, "lat": 19.05243, "lon": 73.0149118}, {"type": "node", "id": 5544831696, "lat": 19.0526513, "lon": 73.0153709}, {"type": "node", "id": 5544831697, "lat": 19.0522523, "lon": 73.0155496}, {"type": "node", "id": 5544831698, "lat": 19.0521795, "lon": 73.0155064}, {"type": "node", "id": 5544831699, "lat": 19.0522785, "lon": 73.01526}, {"type": "node", "id": 5544831700, "lat": 19.0522479, "lon": 73.0150835}, {"type": "node", "id": 5556203758, "lat": 19.0654003, "lon": 73.0087753}, {"type": "node", "id": 5556203759, "lat": 19.0653962, "lon": 73.0083911}, {"type": "node", "id": 5556203760, "lat": 19.0659883, "lon": 73.0082354}, {"type": "node", "id": 5556203761, "lat": 19.0661331, "lon": 73.0085662}, {"type": "node", "id": 5556203762, "lat": 19.0665749, "lon": 73.0104476}, {"type": "node", "id": 5556203763, "lat": 19.0665393, "lon": 73.0106799}, {"type": "node", "id": 5556203764, "lat": 19.0659664, "lon": 73.0108304}, {"type": "node", "id": 5556203765, "lat": 19.0658315, "lon": 73.0106121}, {"type": "node", "id": 5653898719, "lat": 19.0600026, "lon": 73.0015918}, {"type": "node", "id": 5653898720, "lat": 19.0599169, "lon": 73.0027043}, {"type": "node", "id": 5653898821, "lat": 19.0595675, "lon": 73.002841}, {"type": "node", "id": 5653898822, "lat": 19.0594382, "lon": 73.0027629}, {"type": "node", "id": 5653898823, "lat": 19.0594056, "lon": 73.0021496}, {"type": "node", "id": 5653898824, "lat": 19.0596193, "lon": 73.0017464}, {"type": "node", "id": 5653898825, "lat": 19.0594921, "lon": 73.001911}, {"type": "node", "id": 5653898826, "lat": 19.0594622, "lon": 73.0028032}, {"type": "node", "id": 5679399669, "lat": 19.0400289, "lon": 73.0254775}, {"type": "node", "id": 5679399676, "lat": 19.0406077, "lon": 73.0242436}, {"type": "node", "id": 5725817198, "lat": 19.0664482, "lon": 73.0099082}, {"type": "node", "id": 5725817199, "lat": 19.0657147, "lon": 73.0101146}, {"type": "node", "id": 5727570447, "lat": 19.0666132, "lon": 72.9926888}, {"type": "node", "id": 5727570448, "lat": 19.066347, "lon": 72.9924646}, {"type": "node", "id": 5727570449, "lat": 19.0668491, "lon": 72.9917972}, {"type": "node", "id": 5727570450, "lat": 19.0671153, "lon": 72.9920214}, {"type": "node", "id": 5753961350, "lat": 19.0657305, "lon": 73.0101817}, {"type": "node", "id": 6050884359, "lat": 19.0568282, "lon": 73.0176952}, {"type": "node", "id": 6050884360, "lat": 19.0571656, "lon": 73.0177807}, {"type": "node", "id": 6050884362, "lat": 19.0571816, "lon": 73.0186746}, {"type": "node", "id": 6050884363, "lat": 19.0568242, "lon": 73.0186828}, {"type": "node", "id": 6050884364, "lat": 19.056826, "lon": 73.0187695}, {"type": "node", "id": 6050884365, "lat": 19.055067, "lon": 73.0188037}, {"type": "node", "id": 6050884366, "lat": 19.0550651, "lon": 73.0186984}, {"type": "node", "id": 6050884367, "lat": 19.0545634, "lon": 73.0187082}, {"type": "node", "id": 6050884368, "lat": 19.0545485, "lon": 73.0178564}, {"type": "node", "id": 6050884369, "lat": 19.0550562, "lon": 73.0178465}, {"type": "node", "id": 6050884370, "lat": 19.0550542, "lon": 73.0177297}, {"type": "node", "id": 6056883513, "lat": 19.0441781, "lon": 73.0091609}, {"type": "node", "id": 6056883514, "lat": 19.0446805, "lon": 73.0091881}, {"type": "node", "id": 6056883515, "lat": 19.0447083, "lon": 73.0086139}, {"type": "node", "id": 6056883516, "lat": 19.0442231, "lon": 73.0086082}, {"type": "node", "id": 6072356069, "lat": 19.0368373, "lon": 73.0235057}, {"type": "node", "id": 6072356070, "lat": 19.0370538, "lon": 73.0238999}, {"type": "node", "id": 6091712997, "lat": 19.0568298, "lon": 73.0177873}, {"type": "node", "id": 6091869581, "lat": 19.0709138, "lon": 73.0001462}, {"type": "node", "id": 6651081020, "lat": 19.0433035, "lon": 73.0232229}, {"type": "node", "id": 6651081021, "lat": 19.0430945, "lon": 73.0234173}, {"type": "node", "id": 6651081022, "lat": 19.0433493, "lon": 73.0237239}, {"type": "node", "id": 6651081023, "lat": 19.0435583, "lon": 73.0235295}, {"type": "node", "id": 6651081025, "lat": 19.044209, "lon": 73.0229567, "tags": {"bus": "yes", "highway": "bus_stop", "name:en": "Shivaji Chowk", "operator": "NMMT", "public_transport": "platform"}}, {"type": "node", "id": 6691178212, "lat": 19.0414803, "lon": 73.0238815}, {"type": "node", "id": 6691178215, "lat": 19.0416305, "lon": 73.0240347}, {"type": "node", "id": 6691219929, "lat": 19.0402495, "lon": 73.0256891}, {"type": "node", "id": 6691219930, "lat": 19.0406018, "lon": 73.0252597}, {"type": "node", "id": 6986966477, "lat": 19.0399515, "lon": 73.0214113}, {"type": "node", "id": 6986966478, "lat": 19.040601, "lon": 73.0213838, "tags": {"bus": "yes", "highway": "bus_stop", "name:en": "Parsik Bank Bus Stop", "operator": "NMMT", "public_transport": "platform"}}, {"type": "node", "id": 6986966479, "lat": 19.0399203, "lon": 73.0203679, "tags": {"bus": "yes", "highway": "bus_stop", "public_transport": "platform"}}, {"type": "node", "id": 6986966480, "lat": 19.0390704, "lon": 73.0201153, "tags": {"bus": "yes", "highway": "bus_stop", "name": "Balaji Building", "public_transport": "platform"}}, {"type": "node", "id": 7005564236, "lat": 19.0406268, "lon": 73.0231442}, {"type": "node", "id": 7005564237, "lat": 19.0407355, "lon": 73.0232475}, {"type": "node", "id": 7005564238, "lat": 19.040309, "lon": 73.0237523}, {"type": "node", "id": 7005564239, "lat": 19.0401991, "lon": 73.0236479}, {"type": "node", "id": 7005564240, "lat": 19.040256, "lon": 73.023815}, {"type": "node", "id": 7005564241, "lat": 19.0399335, "lon": 73.0239387}, {"type": "node", "id": 7005564242, "lat": 19.040138, "lon": 73.0237012}, {"type": "node", "id": 7005564249, "lat": 19.037022, "lon": 73.0238421}, {"type": "node", "id": 7005644704, "lat": 19.0442688, "lon": 73.0085901}, {"type": "node", "id": 7005644705, "lat": 19.0442025, "lon": 73.0086585}, {"type": "node", "id": 7005644706, "lat": 19.0442438, "lon": 73.0085935}, {"type": "node", "id": 7005644707, "lat": 19.0442107, "lon": 73.0086299}, {"type": "node", "id": 7043182325, "lat": 19.0624707, "lon": 73.0060434, "tags": {"addr:district": "Thane", "addr:full": "Plot No.-1&1A, Sun Palm View Bldg., Sanapada, Sector-15, Navi Mumbai", "addr:postcode": "400705", "addr:state": "Maharashtra", "amenity": "hospital", "name": "Dr. R.N. Patil's Suraj Neurologiacal and Multispeciality Hospital", "source": "OpenGovernmentData"}}, {"type": "node", "id": 7044178724, "lat": 19.0418141, "lon": 73.016746, "tags": {"addr:district": "Thane", "addr:full": "Plot No 8-3,Sector -8, Nerul Phase-Ii, Behind M G M School, Nerul Navi Mumbai", "addr:postcode": "400706", "addr:state": "Maharashtra", "amenity": "clinic", "name": "Ojas Nursing Home", "source": "OpenGovernmentData"}}, {"type": "node", "id": 7048504206, "lat": 19.0410522, "lon": 73.014902, "tags": {"addr:district": "Thane", "addr:full": "Sai Prasad Shopping Complex,Plot, No.17, Sec-8,Nerul, Navi Mumbai", "addr:postcode": "400706", "addr:state": "Maharashtra", "amenity": "hospital", "name": "Aryan Hospital", "source": "OpenGovernmentData"}}, {"type": "node", "id": 7049597126, "lat": 19.0432478, "lon": 73.0096382, "tags": {"addr:district": "Thane", "addr:full": "Plot No 22A, Palm Beach Road Nerul (W) , Sector 6 Navi Mumbai", "addr:postcode": "400705", "addr:state": "Maharashtra", "amenity": "hospital", "name": "Sushrusha Heart Care Center and Speciality Hospital", "source": "OpenGovernmentData"}}, {"type": "node", "id": 7049696525, "lat": 19.0409539, "lon": 73.0145547, "tags": {"addr:district": "Thane", "addr:full": "Sangharsha Bldg., Plot No. 53A 1st Floor, Near Sarsole Bus Depot, Phase Iii, Nerul", "addr:postcode": "400706", "addr:state": "Maharashtra", "amenity": "hospital", "name": "Sanjivani Hospital and Iccu", "source": "OpenGovernmentData"}}, {"type": "node", "id": 7050371648, "lat": 19.0434152, "lon": 73.0155337, "tags": {"addr:district": "Thane", "addr:full": "Ambika Shopping Complex, Plot No. 23 , Sector 8, Nerul, Navi Mumbai", "addr:postcode": "400706", "addr:state": "Maharashtra", "amenity": "hospital", "name": "Kamlesh Mother and Child Hospital", "source": "OpenGovernmentData"}}, {"type": "node", "id": 7052244354, "lat": 19.0434063, "lon": 73.0204596, "tags": {"addr:district": "Thane", "addr:full": "Sec-3, Plot-22, Near Rajiv Gandhi Bridge, Nerul (E) Navi Mumbai", "addr:postcode": "400706", "addr:state": "Maharashtra", "amenity": "hospital", "name": "Harish Hospital and Iccu", "source": "OpenGovernmentData"}}, {"type": "node", "id": 7052505337, "lat": 19.0634121, "lon": 73.0124558, "tags": {"addr:district": "Thane", "addr:full": "1st Floor, Priyanka Palace, Sector -10,Sanpada Navi Mumbai", "addr:postcode": "400705", "addr:state": "Maharashtra", "amenity": "hospital", "name": "Sanpada General Hopital", "source": "OpenGovernmentData"}}, {"type": "node", "id": 7052946842, "lat": 19.0432833, "lon": 73.017892, "tags": {"addr:district": "Mumbai", "addr:full": "Plot No. 2, Sector - 8, Phase Ii, Near Rajiv Gandhi Bridge, Nerul(W)", "addr:postcode": "400053", "addr:state": "Maharashtra", "amenity": "hospital", "name": "Manak Healthcare Hospital", "source": "OpenGovernmentData"}}, {"type": "node", "id": 7055020533, "lat": 19.0725762, "lon": 72.9981892, "tags": {"addr:district": "Thane", "addr:full": "14, 2nd Floor, Shanti Centre Bulding, Near Navratna Hotel, Sector-17", "addr:postcode": "400703", "addr:state": "Maharashtra", "amenity": "doctors", "healthcare": "doctor", "healthcare:speciality": "ophthalmology", "name": "Surya Netralaya", "source": "OpenGovernmentData"}}, {"type": "node", "id": 7059215459, "lat": 19.0420029, "lon": 73.0169338, "tags": {"addr:district": "Thane", "addr:full": "Plot No 8-1, Sector 8, Near M G M School & L Market Nerul", "addr:postcode": "400706", "addr:state": "Maharashtra", "amenity": "hospital", "name": "Chaitanya Child Care Centre", "source": "OpenGovernmentData"}}, {"type": "node", "id": 7062356523, "lat": 19.0729185, "lon": 72.9981637, "tags": {"addr:district": "Thane", "addr:full": "Ralkar Bhavan Premises, Plot No.44, Sector-17, Vashi, Navi Mumbai", "addr:postcode": "400705", "addr:state": "Maharashtra", "amenity": "doctors", "healthcare": "doctor", "healthcare:speciality": "ophthalmology", "name": "Dhrushti Eye Clinic and Microsourgery Centre", "source": "OpenGovernmentData"}}, {"type": "node", "id": 7064346355, "lat": 19.0705622, "lon": 72.998676, "tags": {"addr:district": "Thane", "addr:full": "Archana Jyoti, 1st Floor, Plot No. 18, Sector 17 Dbc, Vashi, , Navi Mumbai", "addr:postcode": "400705", "addr:state": "Maharashtra", "amenity": "hospital", "healthcare": "hospital", "name": "Navjeevan Hospital", "source": "OpenGovernmentData"}}, {"type": "node", "id": 7064400808, "lat": 19.0719742, "lon": 72.9999232, "tags": {"addr:district": "Thane", "addr:full": "102/A, Anand Sagar, Abhyudaya Bank Marg, Sector-17, Vashi, Navi Mumbai", "addr:postcode": "400705", "addr:state": "Maharashtra", "amenity": "hospital", "healthcare": "hospital", "healthcare:speciality": "maternity", "name": "Dr. Tilwe Maternity and Nursing Home", "source": "OpenGovernmentData"}}, {"type": "node", "id": 7075571870, "lat": 19.0518189, "lon": 73.0173206, "tags": {"addr:city": "Navi Mumbai", "addr:district": "Thane", "addr:full": "Plot No.27, Sector - 24, Near To Juinagar, West Railway Station, Sanpada - Juinagar, Navi Mumbai", "addr:housenumber": "Plot No. 27", "addr:postcode": "400706", "addr:state": "Maharashtra", "addr:street": "Sanpada, Ganesh Mandir Marg, Sector 24, Juinagar", "amenity": "clinic", "contact:facebook": "https://www.facebook.com/MangalPrabhuHospital/", "healthcare": "clinic", "healthcare:speciality": "paediatrics;paediatric_surgery;orthopaedics;surgery;oncology;urology;nephrology;child_psychiatry;general;gynaecology;haematology;blood_check;internal", "mobile": "+91-8108199861", "name": "Mangal Prabhu Nursing Home, Polyclinic and Diagnostic Center", "opening_hours": "24/7", "operator": "Mangal Prabhu", "operator:type": "public", "source": "OpenGovernmentData", "website": "https://mangalprabhu.com/", "wheelchair": "yes"}}, {"type": "node", "id": 7080229647, "lat": 19.0599009, "lon": 73.0143441, "tags": {"addr:district": "Thane", "addr:full": "1st Floor Priyanka Palace Sec-10 Sanpada Navi Mumbai", "addr:postcode": "400705", "addr:state": "Maharashtra", "amenity": "hospital", "name": "Millennium Life Line Hospital and Research Centre", "source": "OpenGovernmentData"}}, {"type": "node", "id": 7538177726, "lat": 19.0422865, "lon": 73.0227159}, {"type": "node", "id": 7538177727, "lat": 19.0423853, "lon": 73.022833}, {"type": "node", "id": 7538177728, "lat": 19.0421755, "lon": 73.0228225}, {"type": "node", "id": 7540589984, "lat": 19.0412847, "lon": 73.0254162}, {"type": "node", "id": 7540597140, "lat": 19.0419461, "lon": 73.0244912}, {"type": "node", "id": 7540614885, "lat": 19.0409286, "lon": 73.0255219}, {"type": "node", "id": 7540614886, "lat": 19.0408157, "lon": 73.025435}, {"type": "node", "id": 7547895122, "lat": 19.0692166, "lon": 72.9872492, "tags": {"bus": "yes", "highway": "bus_stop", "name": "Vashi Gaon", "public_transport": "platform"}}, {"type": "node", "id": 7655342132, "lat": 19.0631723, "lon": 72.9995339}, {"type": "node", "id": 7655361181, "lat": 19.0595535, "lon": 73.0018149}, {"type": "node", "id": 7655361182, "lat": 19.0594358, "lon": 73.0020318}, {"type": "node", "id": 7655361183, "lat": 19.059711, "lon": 73.0016836}, {"type": "node", "id": 7655361184, "lat": 19.0598588, "lon": 73.0016306}, {"type": "node", "id": 7655366385, "lat": 19.0595016, "lon": 73.0028303}, {"type": "node", "id": 7704464157, "lat": 19.0654739, "lon": 72.9934915}, {"type": "node", "id": 7704464158, "lat": 19.0657953, "lon": 72.9937627}, {"type": "node", "id": 7704464159, "lat": 19.065103, "lon": 72.9946811}, {"type": "node", "id": 7704464160, "lat": 19.0647815, "lon": 72.9944097}, {"type": "node", "id": 7704464162, "lat": 19.0636533, "lon": 72.9958834}, {"type": "node", "id": 7704464163, "lat": 19.0638651, "lon": 72.9960701}, {"type": "node", "id": 7704464164, "lat": 19.0635881, "lon": 72.9964216}, {"type": "node", "id": 7704464165, "lat": 19.0633763, "lon": 72.9962349}, {"type": "node", "id": 7704464179, "lat": 19.0576299, "lon": 73.0141806}, {"type": "node", "id": 7704464180, "lat": 19.0569894, "lon": 73.0142181}, {"type": "node", "id": 7704464181, "lat": 19.0569347, "lon": 73.0142569}, {"type": "node", "id": 7704464182, "lat": 19.0569429, "lon": 73.0153934}, {"type": "node", "id": 7704464183, "lat": 19.0576613, "lon": 73.015375}, {"type": "node", "id": 7709978834, "lat": 19.066968, "lon": 73.0071188}, {"type": "node", "id": 7709978837, "lat": 19.0666721, "lon": 73.0070977}, {"type": "node", "id": 7723518190, "lat": 19.0671426, "lon": 73.0067725}, {"type": "node", "id": 7723518191, "lat": 19.0671194, "lon": 73.00713}, {"type": "node", "id": 7723518192, "lat": 19.0666951, "lon": 73.00674}, {"type": "node", "id": 7723518198, "lat": 19.0654864, "lon": 73.0104266}, {"type": "node", "id": 7723518201, "lat": 19.0645616, "lon": 73.0106739}, {"type": "node", "id": 7723518214, "lat": 19.0571355, "lon": 73.0141929}, {"type": "node", "id": 7723518215, "lat": 19.0569521, "lon": 73.0142374}, {"type": "node", "id": 7723518216, "lat": 19.057062, "lon": 73.0142009}, {"type": "node", "id": 7723518217, "lat": 19.0569227, "lon": 73.0142805}, {"type": "node", "id": 7728274548, "lat": 19.065138, "lon": 73.0089852}, {"type": "node", "id": 7728274549, "lat": 19.0651786, "lon": 73.009156}, {"type": "node", "id": 7728274550, "lat": 19.064555, "lon": 73.0093235}, {"type": "node", "id": 7728274551, "lat": 19.0645541, "lon": 73.0091413}, {"type": "node", "id": 7728274552, "lat": 19.0653716, "lon": 73.0099679}, {"type": "node", "id": 7728274553, "lat": 19.0654126, "lon": 73.010138}, {"type": "node", "id": 7728274554, "lat": 19.0651969, "lon": 73.0092331}, {"type": "node", "id": 7728274555, "lat": 19.0652376, "lon": 73.0094042}, {"type": "node", "id": 7728274556, "lat": 19.0645563, "lon": 73.0095882}, {"type": "node", "id": 7728274557, "lat": 19.0645554, "lon": 73.0094038}, {"type": "node", "id": 7728274558, "lat": 19.0645593, "lon": 73.0101878}, {"type": "node", "id": 7728274559, "lat": 19.0645602, "lon": 73.0103685}, {"type": "node", "id": 7728274560, "lat": 19.0654457, "lon": 73.0102564}, {"type": "node", "id": 7728274561, "lat": 19.0645609, "lon": 73.0104956}, {"type": "node", "id": 7728274569, "lat": 19.0643198, "lon": 72.997429}, {"type": "node", "id": 7728274570, "lat": 19.0645676, "lon": 72.9980188}, {"type": "node", "id": 7728274571, "lat": 19.0650835, "lon": 72.9970662}, {"type": "node", "id": 7728274572, "lat": 19.0653317, "lon": 72.9976581}, {"type": "node", "id": 7728274573, "lat": 19.0647448, "lon": 72.9979352}, {"type": "node", "id": 7728274574, "lat": 19.0644969, "lon": 72.9973449}, {"type": "node", "id": 7728274577, "lat": 19.0655089, "lon": 72.9975745}, {"type": "node", "id": 7728274578, "lat": 19.0652605, "lon": 72.996982}, {"type": "node", "id": 7728274581, "lat": 19.0659211, "lon": 72.9985336}, {"type": "node", "id": 7728274582, "lat": 19.0656756, "lon": 72.997949}, {"type": "node", "id": 7728274583, "lat": 19.0654986, "lon": 72.9980325}, {"type": "node", "id": 7728274584, "lat": 19.0657437, "lon": 72.9986169}, {"type": "node", "id": 7728278685, "lat": 19.0651506, "lon": 72.9988999}, {"type": "node", "id": 7728278686, "lat": 19.0649044, "lon": 72.9983129}, {"type": "node", "id": 7728278687, "lat": 19.0647272, "lon": 72.9983965}, {"type": "node", "id": 7728278688, "lat": 19.0649732, "lon": 72.9989832}, {"type": "node", "id": 7728934345, "lat": 19.0699843, "lon": 72.9880083}, {"type": "node", "id": 7728934346, "lat": 19.0699734, "lon": 72.9882084}, {"type": "node", "id": 7728934347, "lat": 19.0699046, "lon": 72.9882042}, {"type": "node", "id": 7728934348, "lat": 19.069899, "lon": 72.9883083}, {"type": "node", "id": 7728934349, "lat": 19.0697833, "lon": 72.9883013}, {"type": "node", "id": 7728934350, "lat": 19.0697998, "lon": 72.9879971}, {"type": "node", "id": 7728934352, "lat": 19.0684063, "lon": 72.9965468, "tags": {"bus": "yes", "highway": "bus_stop", "name:en": "Vashi Highway", "operator": "NMMT", "public_transport": "platform"}}, {"type": "node", "id": 7728934354, "lat": 19.0674641, "lon": 72.9874057}, {"type": "node", "id": 7728934355, "lat": 19.0676095, "lon": 72.9874917}, {"type": "node", "id": 7728934356, "lat": 19.0676352, "lon": 72.9875277}, {"type": "node", "id": 7728934357, "lat": 19.0676466, "lon": 72.9876042}, {"type": "node", "id": 7728934358, "lat": 19.0676327, "lon": 72.9876806}, {"type": "node", "id": 7728934359, "lat": 19.0672765, "lon": 72.988205}, {"type": "node", "id": 7728934360, "lat": 19.0670787, "lon": 72.9880736}, {"type": "node", "id": 7728961690, "lat": 19.0602045, "lon": 73.019801}, {"type": "node", "id": 7728961691, "lat": 19.0602088, "lon": 73.0200573}, {"type": "node", "id": 7728961692, "lat": 19.0592754, "lon": 73.0200753}, {"type": "node", "id": 7728961693, "lat": 19.059271, "lon": 73.0198169}, {"type": "node", "id": 7728961714, "lat": 19.0422127, "lon": 73.0214686}, {"type": "node", "id": 7728961715, "lat": 19.0420109, "lon": 73.0216959}, {"type": "node", "id": 7728961716, "lat": 19.0418972, "lon": 73.0216855}, {"type": "node", "id": 7728961720, "lat": 19.0419471, "lon": 73.0216292}, {"type": "node", "id": 7728961722, "lat": 19.0418068, "lon": 73.0217833}, {"type": "node", "id": 7728961723, "lat": 19.0419538, "lon": 73.0217952}, {"type": "node", "id": 7728961724, "lat": 19.0416931, "lon": 73.0220952}, {"type": "node", "id": 7728961725, "lat": 19.0416078, "lon": 73.0220123}, {"type": "node", "id": 7728961727, "lat": 19.039142, "lon": 73.0231694}, {"type": "node", "id": 7728961740, "lat": 19.0377608, "lon": 73.0208916}, {"type": "node", "id": 7781000005, "lat": 19.059989, "lon": 73.0017689}, {"type": "node", "id": 7803569018, "lat": 19.070037, "lon": 73.0024191, "tags": {"bus": "yes", "highway": "bus_stop", "name:en": "Mahatma Phule Sabhagruh", "operator": "NMMT", "public_transport": "platform"}}, {"type": "node", "id": 8230345924, "lat": 19.0377276, "lon": 73.0208248}, {"type": "node", "id": 8894174512, "lat": 19.039228, "lon": 73.0216036}, {"type": "node", "id": 8894208028, "lat": 19.0472762, "lon": 73.0184383}, {"type": "node", "id": 8894208029, "lat": 19.0471903, "lon": 73.0186339}, {"type": "node", "id": 8894208030, "lat": 19.0472136, "lon": 73.0178098}, {"type": "node", "id": 9347970555, "lat": 19.0631375, "lon": 72.9994406}, {"type": "node", "id": 9349022671, "lat": 19.057986, "lon": 73.0028817}, {"type": "node", "id": 9349022672, "lat": 19.0580432, "lon": 73.0029884}, {"type": "node", "id": 9349022673, "lat": 19.0582133, "lon": 73.0025982}, {"type": "node", "id": 9349022674, "lat": 19.058311, "lon": 73.0028268}, {"type": "node", "id": 9350085420, "lat": 19.0639535, "lon": 72.9986406}, {"type": "node", "id": 9350085421, "lat": 19.0638735, "lon": 72.9984507}, {"type": "node", "id": 9350085422, "lat": 19.0637643, "lon": 72.9985022}, {"type": "node", "id": 9350085423, "lat": 19.0638443, "lon": 72.9986921}, {"type": "node", "id": 9350085458, "lat": 19.062787, "lon": 72.9986195}, {"type": "node", "id": 9376944324, "lat": 19.0714656, "lon": 72.9959272}, {"type": "node", "id": 9376944325, "lat": 19.0714722, "lon": 72.9958252}, {"type": "node", "id": 9633827404, "lat": 19.0438161, "lon": 73.02199}, {"type": "node", "id": 9633827405, "lat": 19.043727, "lon": 73.0219687}, {"type": "node", "id": 9633827406, "lat": 19.0437526, "lon": 73.0220134}, {"type": "node", "id": 9633827407, "lat": 19.0437757, "lon": 73.0220139}, {"type": "node", "id": 9633827408, "lat": 19.0437969, "lon": 73.022005}, {"type": "node", "id": 9633827409, "lat": 19.0437298, "lon": 73.0219841}, {"type": "node", "id": 9633827410, "lat": 19.0437439, "lon": 73.0220068}, {"type": "node", "id": 9633827411, "lat": 19.0437638, "lon": 73.0220157}, {"type": "node", "id": 9633827412, "lat": 19.0439585, "lon": 73.0213201}, {"type": "node", "id": 9633827413, "lat": 19.0440543, "lon": 73.021371}, {"type": "node", "id": 9633827414, "lat": 19.0441319, "lon": 73.021421}, {"type": "node", "id": 9654119337, "lat": 19.0456239, "lon": 73.0178445}, {"type": "node", "id": 9654119338, "lat": 19.0457263, "lon": 73.018424}, {"type": "node", "id": 9654119339, "lat": 19.0446451, "lon": 73.0184727}, {"type": "node", "id": 9654119340, "lat": 19.0451347, "lon": 73.0178383}, {"type": "node", "id": 9685155714, "lat": 19.0401092, "lon": 73.0248394}, {"type": "node", "id": 9776572421, "lat": 19.0699931, "lon": 73.0191556, "tags": {"bus": "yes", "highway": "bus_stop", "name": "Turbhe Naka", "operator": "NMMT", "public_transport": "platform"}}, {"type": "node", "id": 9776618562, "lat": 19.0631549, "lon": 73.0190873, "tags": {"bus": "yes", "highway": "bus_stop", "public_transport": "platform"}}, {"type": "node", "id": 9776618563, "lat": 19.0619782, "lon": 73.0193877, "tags": {"bus": "yes", "highway": "bus_stop", "public_transport": "platform"}}, {"type": "node", "id": 9891102580, "lat": 19.0712479, "lon": 72.9863453}, {"type": "node", "id": 9903671909, "lat": 19.0675128, "lon": 73.004509}, {"type": "node", "id": 9903671910, "lat": 19.0675879, "lon": 73.0045149}, {"type": "node", "id": 9903671911, "lat": 19.0676518, "lon": 73.0045296}, {"type": "node", "id": 9903671912, "lat": 19.067713, "lon": 73.0045796}, {"type": "node", "id": 9903671913, "lat": 19.0677568, "lon": 73.0046563}, {"type": "node", "id": 9903671914, "lat": 19.0677992, "lon": 73.0047826}, {"type": "node", "id": 9903671915, "lat": 19.0676098, "lon": 73.0078273}, {"type": "node", "id": 9903671916, "lat": 19.0675138, "lon": 73.0078203}, {"type": "node", "id": 9903705117, "lat": 19.0673777, "lon": 73.0074068}, {"type": "node", "id": 9903705118, "lat": 19.0673379, "lon": 73.0072126}, {"type": "node", "id": 10097650697, "lat": 19.0419271, "lon": 73.0248206}, {"type": "node", "id": 10561900742, "lat": 19.0419568, "lon": 73.0247885}, {"type": "node", "id": 10827297701, "lat": 19.0672487, "lon": 73.0086846, "tags": {"addr:floor": "1", "amenity": "restaurant", "check_date": "2023-04-20", "diet:vegetarian": "yes", "level": "1", "name": "\u092e\u0928\u092e\u094b\u0939\u0928 \u0930\u0947\u0938\u094d\u091f\u0949\u0930\u0902\u091f", "name:en": "Manmohan restaurant", "name:mr": "\u092e\u0928\u092e\u094b\u0939\u0928 \u0930\u0947\u0938\u094d\u091f\u0949\u0930\u0902\u091f", "opening_hours": "11:00-23:30", "wheelchair": "no"}}, {"type": "node", "id": 10832119728, "lat": 19.0628312, "lon": 72.9974953}, {"type": "node", "id": 10832119729, "lat": 19.0627908, "lon": 72.9974882}, {"type": "node", "id": 10832119730, "lat": 19.0627843, "lon": 72.9974963}, {"type": "node", "id": 10832119731, "lat": 19.062783, "lon": 72.9975302}, {"type": "node", "id": 10832119732, "lat": 19.0631503, "lon": 72.9976833}, {"type": "node", "id": 10832119733, "lat": 19.0631708, "lon": 72.9977116}, {"type": "node", "id": 10832119734, "lat": 19.0631245, "lon": 72.9977507}, {"type": "node", "id": 10832119735, "lat": 19.0628155, "lon": 72.9986778}, {"type": "node", "id": 10832119736, "lat": 19.062967, "lon": 72.9994442}, {"type": "node", "id": 10832119737, "lat": 19.0631184, "lon": 72.9993847}, {"type": "node", "id": 11024360265, "lat": 19.0421588, "lon": 73.0169298}, {"type": "node", "id": 11024471318, "lat": 19.0401276, "lon": 73.0248174}, {"type": "node", "id": 11024471319, "lat": 19.0404173, "lon": 73.0244703}, {"type": "node", "id": 11024471334, "lat": 19.0405506, "lon": 73.0243116}, {"type": "node", "id": 11422181453, "lat": 19.0703685, "lon": 72.9959893, "tags": {"leisure": "park"}}, {"type": "node", "id": 11422181454, "lat": 19.0704347, "lon": 72.9960453, "tags": {"addr:city": "mumbai", "addr:district": "mata vaishnodevi", "addr:housenumber": "3", "addr:postcode": "400027", "addr:street": "apna bazaar", "leisure": "park", "name": "jijamata udyan", "opening_hours": "Mo-Su 10:00-21:00", "operator": "ilsa", "operator:type": "government"}}, {"type": "node", "id": 11691666027, "lat": 19.0656424, "lon": 73.0010949, "tags": {"amenity": "restaurant", "name": "Pot Pourri Eat & Drinkery"}}, {"type": "node", "id": 11691681422, "lat": 19.0654802, "lon": 73.0010938, "tags": {"amenity": "fast_food", "brand": "Wow! Momo", "brand:wikidata": "Q8037446", "cuisine": "momo", "name": "Wow! Momo", "takeaway": "yes"}}, {"type": "node", "id": 11691718099, "lat": 19.0659097, "lon": 73.0007927, "tags": {"alt_name": "Kentucky Fried Chicken", "alt_name:en": "Kentucky Fried Chicken", "alt_name:hi": "\u0915\u0947\u0902\u091f\u0941\u0915\u0940 \u092b\u094d\u0930\u093e\u0907\u0921 \u091a\u093f\u0915\u0928", "alt_name:pa": "\u0a15\u0a48\u0a02\u0a1f\u0a41\u0a15\u0a40 \u0a2b\u0a4d\u0a30\u0a3e\u0a08\u0a21 \u0a1a\u0a3f\u0a15\u0a28", "alt_name:pnb": "\u06a9\u06cc\u0646\u0679\u06a9\u06cc \u0641\u0631\u0627\u0626\u06cc\u0688 \u0686\u06a9\u0646", "alt_name:ur": "\u06a9\u06cc\u0646\u0679\u06a9\u06cc \u0641\u0631\u0627\u0626\u06cc\u0688 \u0686\u06a9\u0646", "amenity": "fast_food", "brand": "KFC", "brand:en": "KFC", "brand:hi": "\u0915\u0947\u090f\u092b\u0938\u0940", "brand:pa": "\u0a15\u0a47\u0a10\u0a2b\u0a38\u0a40", "brand:pnb": "\u06a9\u06d2 \u0627\u06cc\u0641 \u0633\u06cc", "brand:ur": "\u06a9\u06d2 \u0627\u06cc\u0641 \u0633\u06cc", "brand:wikidata": "Q524757", "cuisine": "chicken", "name": "KFC", "name:en": "KFC", "name:hi": "\u0915\u0947\u090f\u092b\u0938\u0940", "name:pa": "\u0a15\u0a47\u0a10\u0a2b\u0a38\u0a40", "name:pnb": "\u06a9\u06d2 \u0627\u06cc\u0641 \u0633\u06cc", "name:ur": "\u06a9\u06d2 \u0627\u06cc\u0641 \u0633\u06cc", "takeaway": "yes"}}, {"type": "node", "id": 11691734217, "lat": 19.0655719, "lon": 73.0011055, "tags": {"amenity": "restaurant", "name": "Urban Tadka"}}, {"type": "node", "id": 11691737747, "lat": 19.065439, "lon": 73.0010969, "tags": {"amenity": "restaurant", "name": "Big Squeeze"}}, {"type": "node", "id": 11691740513, "lat": 19.0656361, "lon": 73.0009892, "tags": {"amenity": "restaurant", "name": "Falafel's"}}, {"type": "node", "id": 11691740514, "lat": 19.0659562, "lon": 73.0007128, "tags": {"amenity": "restaurant", "name": "Malgudi"}}, {"type": "node", "id": 11691741789, "lat": 19.065864, "lon": 73.0008335, "tags": {"amenity": "cafe", "brand": "Starbucks", "brand:wikidata": "Q37158", "cuisine": "coffee_shop", "name": "Starbucks", "official_name": "Starbucks Coffee", "takeaway": "yes"}}, {"type": "node", "id": 11691753209, "lat": 19.0659622, "lon": 73.0008123, "tags": {"amenity": "cafe", "branch": "Cafe at Inorbit", "brand": "Chaayos", "brand:wikidata": "Q117235235", "cuisine": "tea", "name": "Chaayos", "takeaway": "yes"}}, {"type": "node", "id": 11691756214, "lat": 19.0653964, "lon": 73.0010912, "tags": {"amenity": "restaurant", "name": "Shawarma King"}}, {"type": "node", "id": 11691758161, "lat": 19.0656072, "lon": 73.0009926, "tags": {"amenity": "fast_food", "brand": "Subway", "brand:wikidata": "Q244457", "brand:wikipedia": "en:Subway (restaurant)", "cuisine": "sandwich", "name": "Subway", "takeaway": "yes"}}, {"type": "node", "id": 11691758197, "lat": 19.0658977, "lon": 73.0007416, "tags": {"amenity": "restaurant", "name": "Mad Over Donuts"}}, {"type": "node", "id": 11704499929, "lat": 19.0405481, "lon": 73.0220567}, {"type": "node", "id": 11704499930, "lat": 19.0402516, "lon": 73.0223999}, {"type": "node", "id": 11704499931, "lat": 19.0402091, "lon": 73.0224201}, {"type": "node", "id": 11704499932, "lat": 19.0401665, "lon": 73.0224216}, {"type": "node", "id": 11704499933, "lat": 19.0399571, "lon": 73.0227417}, {"type": "node", "id": 11704499934, "lat": 19.0401797, "lon": 73.0227819}, {"type": "node", "id": 11704499935, "lat": 19.0402546, "lon": 73.0227073}, {"type": "node", "id": 11704499936, "lat": 19.0403294, "lon": 73.022667}, {"type": "node", "id": 11704499937, "lat": 19.040397, "lon": 73.0227462}, {"type": "node", "id": 11704499938, "lat": 19.0407874, "lon": 73.0223005}, {"type": "node", "id": 11771037212, "lat": 19.0417782, "lon": 73.0167125, "tags": {"addr:city": "Navi Mumbai", "addr:district": "Thane", "addr:postcode": "410210", "addr:street": "Medicity Hospital, Aum Sai CHS, Plot No. C/23, next to Kharghar Police Station, Highway Facing, Sector 7, Kharghar,", "amenity": "clinic", "healthcare": "clinic", "healthcare:speciality": "orthopaedics", "name": "Rahul Jagtap, Orthopedics Surgeon", "operator": "Novosalus Technology", "operator:type": "private"}}, {"type": "node", "id": 12307075664, "lat": 19.0374143, "lon": 73.0199618, "tags": {"amenity": "fast_food", "cuisine": "juice", "name": "A1 Juice Center"}}, {"type": "node", "id": 12307080605, "lat": 19.0372128, "lon": 73.0192478, "tags": {"amenity": "fast_food", "fast_food": "cafeteria", "name": "Sai Sabari Snacks Corner"}}, {"type": "node", "id": 12307080606, "lat": 19.0372525, "lon": 73.0190362, "tags": {"amenity": "restaurant", "name": "Foodway Family Resturant"}}, {"type": "node", "id": 12307080607, "lat": 19.0373306, "lon": 73.0189494, "tags": {"amenity": "hospital", "healthcare": "hospital", "healthcare:speciality": "general;dentist;internal;physiotherapy;fertility", "level": "1", "name": "Sai Asha Hospital"}}, {"type": "node", "id": 12328669413, "lat": 19.0663174, "lon": 73.0055359}, {"type": "node", "id": 12358341714, "lat": 19.0383746, "lon": 73.0204992}, {"type": "node", "id": 12358341715, "lat": 19.0383643, "lon": 73.0207679}, {"type": "node", "id": 12358341716, "lat": 19.0380877, "lon": 73.0210882}, {"type": "node", "id": 12358341717, "lat": 19.0377878, "lon": 73.0207984}, {"type": "node", "id": 12358341718, "lat": 19.0378002, "lon": 73.0204746}, {"type": "node", "id": 12964338469, "lat": 19.0400543, "lon": 73.025448}, {"type": "node", "id": 12964338470, "lat": 19.0403287, "lon": 73.0255986}, {"type": "node", "id": 12969027379, "lat": 19.0400689, "lon": 73.0240433}, {"type": "way", "id": 151768155, "nodes": [4819976537, 4819976536, 4819976533, 1646070358, 1646070361, 4819976530, 4819976535, 4819976534, 4819976531, 1646070373, 1646070367, 1646070365, 1646070355, 7655342132, 9347970555, 10832119737, 10832119736, 1646070353, 10832119735, 1646070347, 9350085458, 1646070346, 10832119731, 10832119730, 10832119729, 1646070350, 10832119728, 1646070348, 1646070351, 10832119732, 10832119733, 10832119734, 4819976532, 4819976537], "tags": {"addr:city": "Navi Mumbai", "addr:postcode": "400703", "addr:street": "Vashi Station Road", "building": "train_station", "building:levels": "7", "internet_access": "wlan", "internet_access:ssid": "RailWire Wi-Fi", "layer": "1", "name": "Vashi", "network": "Mumbai Suburban Railway Network", "operator": "Central Railways", "platforms": "4", "public_transport": "station", "railway": "station", "ref": "VSH", "train": "yes", "wheelchair": "limited", "wikidata": "Q7916505", "wikipedia": "en:Vashi railway station"}}, {"type": "way", "id": 151769149, "nodes": [1646085908, 5556203760, 5556203759, 1646085879, 5556203758, 5725817199, 5753961350, 5556203765, 1646085899, 5556203764, 5556203763, 1646085913, 5556203762, 338318837, 5725817198, 5556203761, 1646085908], "tags": {"addr:city": "Navi Mumbai", "addr:postcode": "400706", "addr:street": "Sanpada Station Road", "building": "retail", "internet_access": "yes", "layer": "1", "name": "Sanpada", "network": "Mumbai Suburban Railway Network", "operator": "Central Railways", "platforms": "4", "public_transport": "station", "railway": "station", "ref": "SNCR", "train": "yes", "wheelchair": "limited", "wikidata": "Q7418902", "wikipedia": "en:Sanpada railway station"}}, {"type": "way", "id": 363297237, "nodes": [3674750500, 3674750501, 3674750502, 3674750503, 3674750500], "tags": {"leisure": "park"}}, {"type": "way", "id": 363297238, "nodes": [3674750504, 3674750505, 3674750506, 3674750507, 3674750504], "tags": {"leisure": "park"}}, {"type": "way", "id": 363297240, "nodes": [3674750508, 3674750509, 3674750510, 3674750511, 3674750508], "tags": {"leisure": "park", "name": "Veermata Jijabai Park", "name:etymology:wikidata": "Q6192525"}}, {"type": "way", "id": 363297249, "nodes": [3674750651, 3674750652, 3674750653, 3674750654, 3674750651], "tags": {"leisure": "park", "name": "Tukaram Maharaj Park", "name:etymology:wikidata": "Q468361"}}, {"type": "way", "id": 363309582, "nodes": [3674851412, 5502994960, 3674851413, 3674851418, 3674851419, 3674851420, 3674851412], "tags": {"leisure": "park", "name": "Shivaji Garden", "name:etymology:wikidata": "Q239505"}}, {"type": "way", "id": 363309583, "nodes": [3674851424, 3674854425, 3674854426, 3674854427, 5430779476, 5430779478, 3674854428, 3674854429, 3674854431, 3674854433, 5430933731, 11024360265, 5430933730, 3674851424], "tags": {"leisure": "park", "name": "CIDCO Garden"}}, {"type": "way", "id": 363309584, "nodes": [3674854439, 3674854441, 3674854444, 3674854446, 3674854439], "tags": {"leisure": "park", "name": "Bhausaheb Shere Garden"}}, {"type": "way", "id": 363309585, "nodes": [3674854447, 3674854448, 3674854449, 3674854450, 3674854447], "tags": {"leisure": "park", "name": "Pandit Rama Bhagat Park, nerul"}}, {"type": "way", "id": 363690239, "nodes": [3678437098, 3678437099, 3678437100, 3678437101, 5544733021, 3678437098], "tags": {"amenity": "school", "name": "Seventh Day Adventist High School"}}, {"type": "way", "id": 415791203, "nodes": [4167520326, 4167520327, 4167520317, 4167520316, 4167520326], "tags": {"addr:city": "Sanpada", "addr:postcode": "400705", "amenity": "clinic", "building": "yes", "healthcare": "clinic", "name": "General Clinic"}}, {"type": "way", "id": 488981959, "nodes": [4812725189, 4812725190, 4812725191, 4812725192, 4812725189], "tags": {"addr:district": "Thane", "addr:full": "Plot - 35, Sector - 3, Vashi, Navi Mumbai", "addr:postcode": "400703", "addr:state": "Maharashtra", "alt_name": "MGM Hospital", "alt_name:en": "MGM Hospital", "amenity": "hospital", "healthcare": "hospital", "name": "Mahatma Gandhi Mission's New Bombay Hospital", "name:etymology:wikidata": "Q1001", "source": "OpenGovernmentData"}}, {"type": "way", "id": 489784620, "nodes": [4819972341, 4819972339, 4819972338, 4819972340, 4819972341], "tags": {"leisure": "garden"}}, {"type": "way", "id": 489784621, "nodes": [4819972345, 4819972343, 4819972342, 4819972344, 4819972345], "tags": {"leisure": "garden"}}, {"type": "way", "id": 489784623, "nodes": [4819972349, 4819972347, 4819972346, 4819972348, 4819972349], "tags": {"leisure": "garden"}}, {"type": "way", "id": 489784626, "nodes": [4819972353, 4819972351, 4819972350, 4819972352, 4819972353], "tags": {"leisure": "garden"}}, {"type": "way", "id": 489784628, "nodes": [4819972357, 4819972355, 4819972354, 4819972356, 4819972357], "tags": {"leisure": "garden"}}, {"type": "way", "id": 489784645, "nodes": [4819972388, 4819972387, 4819972386, 4819972385, 4819972388], "tags": {"leisure": "garden"}}, {"type": "way", "id": 561157352, "nodes": [5411531789, 5411531790, 5411531791, 5411531792, 5411531789], "tags": {"leisure": "park", "name": "Gaondevi Park"}}, {"type": "way", "id": 561501151, "nodes": [5414139578, 5430804040, 6691178212, 6691178215, 5430804028, 7540597140, 10561900742, 10097650697, 5430804033, 7540589984, 5430804034, 7540614885, 7540614886, 6691219930, 12964338470, 6691219929, 5679399669, 12964338469, 5430804036, 9685155714, 11024471318, 5430804038, 11024471319, 11024471334, 5679399676, 5414139589, 5414139578], "tags": {"addr:district": "Thane", "addr:full": "Sector-05, Nerul, Navi Mumbai", "addr:postcode": "400706", "addr:state": "Maharashtra", "amenity": "hospital", "healthcare": "hospital", "name": "Dr. D.Y. Patil Hospital", "name:etymology:wikidata": "Q301947", "source": "OpenGovernmentData"}}, {"type": "way", "id": 563239081, "nodes": [5428254306, 8894208029, 5428254307, 8894208028, 5428254308, 5428254309, 8894208030, 5428254310, 5428254311, 5428254312, 5428254313, 5428254314, 4469858680, 4469858679, 4469858676, 4469858681, 5428254306], "tags": {"leisure": "park", "name": "Chincholi Park"}}, {"type": "way", "id": 563546838, "nodes": [5430685717, 5430687321, 5430687322, 5430685720, 5430685719, 5430685717], "tags": {"amenity": "school", "name": "Terna High School, nerul"}}, {"type": "way", "id": 563558938, "nodes": [5430779472, 5430779473, 5430779474, 5430779475, 5430779472], "tags": {"leisure": "park", "name": "Anna Saheb Park, nerul"}}, {"type": "way", "id": 563558939, "nodes": [5430779480, 5430795632, 5430795633, 6072356069, 7005564249, 6072356070, 5430779484, 5430779480], "tags": {"leisure": "park", "name": "Sardar Vallabhai Patel Park", "name:etymology:wikidata": "Q9455"}}, {"type": "way", "id": 563558940, "nodes": [5430779491, 5541844963, 5541844966, 5541844973, 5430779490, 5430779489, 5430779497, 5430779496, 5430779495, 5430779493, 5430779494, 5430779492, 5430779491], "tags": {"leisure": "park", "name": "Dr. Babasaheb Ambedkar Park", "name:etymology:wikidata": "Q231690"}}, {"type": "way", "id": 563561683, "nodes": [5430795631, 5430795632, 5430795633, 5430795634, 5430795631], "tags": {"leisure": "garden", "name": "Step Garden"}}, {"type": "way", "id": 563561684, "nodes": [5430795635, 5430795636, 7728961727, 5430795644, 5430795637, 5430795638, 11704499933, 5430795639, 5430795635], "tags": {"leisure": "park", "name": "Sector-9 Park, NERUL"}}, {"type": "way", "id": 563576753, "nodes": [5430903454, 5430903455, 9633827412, 9633827413, 9633827414, 5430903456, 9633827404, 9633827408, 9633827407, 9633827411, 9633827406, 9633827410, 5430903457, 9633827409, 9633827405, 5430903454], "tags": {"leisure": "park"}}, {"type": "way", "id": 563580225, "nodes": [5430932918, 5430932919, 5430932920, 7728961714, 7728961715, 7728961716, 7728961720, 5430933724, 5430932918], "tags": {"leisure": "park", "name": "NMMC Park"}}, {"type": "way", "id": 563580227, "nodes": [5430933722, 5430933723, 5430932918, 5430933724, 5430933725, 5430933726, 5430933722], "tags": {"amenity": "school", "name": "St. Xavier's High School & Jr. College"}}, {"type": "way", "id": 563580230, "nodes": [5430933726, 5430933725, 5430933727, 5430933726], "tags": {"leisure": "park"}}, {"type": "way", "id": 563580234, "nodes": [5430779497, 5430933733, 5430933734, 8230345924, 7728961740, 5430933735, 5430779489, 5430779497], "tags": {"amenity": "school", "name": "St. Augustines High School"}}, {"type": "way", "id": 563580236, "nodes": [5430933736, 5430933737, 5430933738, 5430933739, 5430933736], "tags": {"leisure": "park", "name": "Rajmata Jijau Park", "name:etymology:wikidata": "Q6192525"}}, {"type": "way", "id": 563580238, "nodes": [5430933740, 5430933741, 5430933742, 5430933743, 5430933740], "tags": {"leisure": "park", "name": "Sector-4 Park"}}, {"type": "way", "id": 566008163, "nodes": [3448175282, 4637019766, 6091869581, 4637019767, 3448176705, 3448175282], "tags": {"leisure": "park", "name": "Meenatai Thackrey Park", "name:etymology:wikidata": "Q22081679"}}, {"type": "way", "id": 566076853, "nodes": [5450694469, 5450694470, 5450694471, 5450694472, 5450694473, 5511120967, 5450694474, 5450694469], "tags": {"amenity": "school", "name": "Modern School"}}, {"type": "way", "id": 566095593, "nodes": [5450807810, 5450807811, 5450807812, 5450807813, 5450807810], "tags": {"amenity": "school", "name": "Sacred Heart High School & Jr. College"}}, {"type": "way", "id": 572818162, "nodes": [5502973470, 5502973471, 5502973472, 5502973473, 5502973470], "tags": {"amenity": "school", "name": "Delhi Public World School and NR Bhagat school"}}, {"type": "way", "id": 572820086, "nodes": [5502994953, 5502994954, 5502994955, 5502994956, 5502994953], "tags": {"amenity": "school", "name": "NMMC School - Sarsole"}}, {"type": "way", "id": 573403994, "nodes": [5507274423, 5507274424, 5507274425, 9376944325, 9376944324, 5507274426, 5507274423], "tags": {"amenity": "school", "name": "I.E.S High School - Navi Mumbai"}}, {"type": "way", "id": 573411518, "nodes": [5507313295, 5507313296, 5507313297, 5507313298, 5507313295], "tags": {"amenity": "school", "name": "Anjuman-I-Islam High School"}}, {"type": "way", "id": 573411521, "nodes": [5507313299, 5507313300, 5507313301, 5507313302, 5507313299], "tags": {"amenity": "school", "name": "ICL Monami High School"}}, {"type": "way", "id": 573585813, "nodes": [5508334424, 12328669413, 5508334425, 5508334426, 5508334427, 5508334424], "tags": {"amenity": "school"}}, {"type": "way", "id": 574007906, "nodes": [2246851087, 2246851061, 2246851035, 2246851018, 2246850998, 5511120959, 5511120960, 2246851000, 2246851022, 2246851037, 2246851050, 5511120961, 4812853609, 2246851087], "tags": {"leisure": "park", "name": "Gyankalash Park"}}, {"type": "way", "id": 574007911, "nodes": [5511120967, 2246851092, 2246851066, 2246851051, 5511120968, 9891102580, 5511120969, 2246851039, 5511120971, 2246851031, 2246851048, 5511120972, 2246851064, 2246851088, 5511120973, 5511120967], "tags": {"leisure": "garden"}}, {"type": "way", "id": 574007925, "nodes": [5511120985, 5511120986, 5511120987, 5511120988, 5511120989, 5511120990, 5511120991, 5511120985], "tags": {"leisure": "park"}}, {"type": "way", "id": 575018131, "nodes": [5518334374, 5518334375, 5518334376, 5518334377, 5518334378, 5518334379, 5518334380, 5518334381, 5518334374], "tags": {"amenity": "school", "name": "Amrita Vidyalayam School & Jr. College"}}, {"type": "way", "id": 575018135, "nodes": [5518334375, 5518334376, 5518334377, 5518334382, 5518334383, 5518334375], "tags": {"leisure": "park", "name": "Dr. Babasaheb Ambedkar Park", "name:etymology:wikidata": "Q231690", "opening_hours": "MON-SUN {MORNING 6-10} {EVENING 5-9}"}}, {"type": "way", "id": 575018140, "nodes": [5518334388, 5518334389, 5518334390, 5518334391, 5518334388], "tags": {"amenity": "school", "name": "NMMC School"}}, {"type": "way", "id": 575018144, "nodes": [5518334397, 5518334398, 5518334399, 5518334400, 5518334401, 5518334402, 5518334403, 5518334404, 5518334405, 5518334397], "tags": {"leisure": "park", "name": "Nehru Park", "name:etymology:wikidata": "Q1047"}}, {"type": "way", "id": 578325210, "nodes": [5541844964, 6986966477, 5541844969, 5541844965, 5541844964], "tags": {"leisure": "park", "name": "Children's Park"}}, {"type": "way", "id": 578325213, "nodes": [5541844966, 5541844965, 8894174512, 5541844971, 5541844972, 5541844973, 5541844966], "tags": {"leisure": "park", "name": "Samaj Mandir Park"}}, {"type": "way", "id": 578746045, "nodes": [5544516302, 5544516303, 5544516304, 5544516305, 5544516302], "tags": {"amenity": "school", "name": "Dr. SV Samant High School & Jr. College"}}, {"type": "way", "id": 578746046, "nodes": [5544516303, 5544516306, 5544516307, 5544516302, 5544516303], "tags": {"amenity": "school", "name": "NMMC School"}}, {"type": "way", "id": 578746055, "nodes": [5544516318, 5544516319, 5544516320, 5544516621, 5544516622, 5544516623, 5544516624, 5544516625, 5544516318], "tags": {"amenity": "school", "name": "Swami Vivekanand Sankul School", "name:etymology:wikidata": "Q47478"}}, {"type": "way", "id": 578746056, "nodes": [5544516318, 5544516626, 5544516627, 5544516628, 5544516629, 5544516631, 5544516630, 5544516625, 5544516318], "tags": {"leisure": "park", "name": "Swami Mohananand Giriji Maharaj Park"}}, {"type": "way", "id": 578746063, "nodes": [5544516644, 5544516641, 5544516646, 5544516644], "tags": {"leisure": "park"}}, {"type": "way", "id": 578746064, "nodes": [5544516641, 5544516645, 5544516642, 5544516641], "tags": {"leisure": "park"}}, {"type": "way", "id": 578746066, "nodes": [5544516646, 5544516647, 5544516643, 5544516646], "tags": {"leisure": "park"}}, {"type": "way", "id": 578746067, "nodes": [5544516643, 5544516648, 5544516642, 5544516643], "tags": {"leisure": "park"}}, {"type": "way", "id": 578746074, "nodes": [5544516662, 5544733070, 5544516663, 5544516664, 5544516665, 5544516666, 5544516667, 5544516662], "tags": {"amenity": "school", "name": "Ryan International School - Sanpada"}}, {"type": "way", "id": 578783773, "nodes": [5544732577, 5544732578, 5544732579, 5544732580, 5544732577], "tags": {"leisure": "park"}}, {"type": "way", "id": 578783774, "nodes": [5544732576, 5544732581, 5544732582, 5544732583, 5544732584, 5544732585, 5544732586, 5544732575, 5544732576], "tags": {"amenity": "school", "name": "NMMC School"}}, {"type": "way", "id": 578783782, "nodes": [5544732599, 5544732614, 5544732615, 5544732616, 5544732599], "tags": {"leisure": "park"}}, {"type": "way", "id": 578783795, "nodes": [5544733061, 5544733062, 5544733063, 5544733064, 5544733061], "tags": {"leisure": "park", "name": "Sector-4 Park"}}, {"type": "way", "id": 578790409, "nodes": [5544775979, 5544775980, 5544775981, 3674750670, 5544775979], "tags": {"amenity": "school", "name": "Jaipuriar School"}}, {"type": "way", "id": 578793270, "nodes": [5544791016, 5544791017, 5544791018, 5544791019, 5544791016], "tags": {"amenity": "school", "name": "Sadhu Vaswani International School", "name:etymology:wikidata": "Q3634783"}}, {"type": "way", "id": 578800858, "nodes": [5544831695, 5544831696, 5544831697, 5544831698, 5544831699, 5544831700, 5544831695], "tags": {"leisure": "park"}}, {"type": "way", "id": 592383853, "nodes": [5653898719, 7781000005, 5653898720, 5653898821, 7655366385, 5653898826, 5653898822, 5653898823, 7655361182, 5653898825, 7655361181, 5653898824, 7655361183, 7655361184, 5653898719], "tags": {"barrier": "wall", "leisure": "park", "name": "Nanasaheb Dharmadhikari Park", "name:etymology:wikidata": "Q6962286"}}, {"type": "way", "id": 603270961, "nodes": [5727570447, 5727570448, 5727570449, 5727570450, 5727570447], "tags": {"leisure": "park"}}, {"type": "way", "id": 642845770, "nodes": [6050884359, 6091712997, 6050884360, 6050884362, 6050884363, 6050884364, 6050884365, 6050884366, 6050884367, 6050884368, 6050884369, 6050884370, 6050884359], "tags": {"addr:city": "Navi Mumbai", "addr:postcode": "400706", "addr:street": "Juinagar Station Road", "alt_name": "Jui Nagar", "building": "retail", "internet_access": "yes", "layer": "1", "name": "Juinagar", "network": "Mumbai Suburban Railway Network", "operator": "Cental Railways", "platforms": "6", "public_transport": "station", "railway": "station", "ref": "JNJ", "train": "yes", "wheelchair": "limited", "wikidata": "Q15229831", "wikipedia": "en:Juinagar railway station"}}, {"type": "way", "id": 643686510, "nodes": [6056883513, 6056883514, 6056883515, 7005644704, 7005644706, 6056883516, 7005644707, 7005644705, 6056883513], "tags": {"leisure": "park", "name": "Sector-6 Park"}}, {"type": "way", "id": 707832924, "nodes": [6651081020, 6651081021, 6651081022, 6651081023, 6651081020], "tags": {"layer": "0", "leisure": "park", "name": "SIES Lawn"}}, {"type": "way", "id": 749128446, "nodes": [7005564236, 7005564237, 7005564238, 7005564239, 7005564236], "tags": {"leisure": "park"}}, {"type": "way", "id": 749128447, "nodes": [7005564240, 12969027379, 5430795640, 7005564241, 7005564242, 7005564240], "tags": {"leisure": "park"}}, {"type": "way", "id": 806093575, "nodes": [7538177726, 7538177728, 3596166693, 7538177727, 7538177726], "tags": {"layer": "0", "leisure": "park"}}, {"type": "way", "id": 825118116, "nodes": [7704464157, 7704464158, 7704464159, 7704464160, 7704464157], "tags": {"leisure": "park"}}, {"type": "way", "id": 825118117, "nodes": [7704464162, 7704464163, 7704464164, 7704464165, 7704464162], "tags": {"leisure": "park"}}, {"type": "way", "id": 825118122, "nodes": [7704464179, 7723518214, 7723518216, 7704464180, 7723518215, 7704464181, 7723518217, 7704464182, 7704464183, 7704464179], "tags": {"leisure": "park", "name": "Sensory Park", "wheelchair": "yes"}}, {"type": "way", "id": 827280982, "nodes": [7723518190, 7723518191, 7709978834, 7709978837, 7723518192, 7723518190], "tags": {"leisure": "park"}}, {"type": "way", "id": 827825789, "nodes": [7728274548, 7728274549, 7728274550, 7728274551, 7728274548], "tags": {"amenity": "food_court", "building": "no"}}, {"type": "way", "id": 827825790, "nodes": [7728274552, 7728274553, 7728274559, 7728274558, 7728274552], "tags": {"amenity": "food_court", "building": "no"}}, {"type": "way", "id": 827825791, "nodes": [7728274554, 7728274555, 7728274556, 7728274557, 7728274554], "tags": {"amenity": "food_court", "building": "no"}}, {"type": "way", "id": 827825792, "nodes": [7723518198, 7723518201, 7728274561, 7728274560, 7723518198], "tags": {"amenity": "food_court", "building": "no"}}, {"type": "way", "id": 827825802, "nodes": [7728274574, 7728274573, 7728274570, 7728274569, 7728274574], "tags": {"amenity": "food_court", "building": "no"}}, {"type": "way", "id": 827825803, "nodes": [7728274578, 7728274577, 7728274572, 7728274571, 7728274578], "tags": {"amenity": "food_court", "building": "no"}}, {"type": "way", "id": 827825804, "nodes": [7728278686, 7728278685, 7728278688, 7728278687, 7728278686], "tags": {"amenity": "food_court", "building": "no"}}, {"type": "way", "id": 827825805, "nodes": [7728274582, 7728274581, 7728274584, 7728274583, 7728274582], "tags": {"amenity": "food_court", "building": "no"}}, {"type": "way", "id": 827899827, "nodes": [7728934345, 7728934346, 7728934347, 7728934348, 7728934349, 7728934350, 7728934345], "tags": {"leisure": "park"}}, {"type": "way", "id": 827899828, "nodes": [7728934354, 7728934355, 7728934356, 7728934357, 7728934358, 7728934359, 7728934360, 7728934354], "tags": {"amenity": "school", "name": "NMMC School - Vashi Gaon", "operator": "NMMC"}}, {"type": "way", "id": 827899838, "nodes": [7728961690, 7728961691, 7728961692, 7728961693, 7728961690], "tags": {"leisure": "park"}}, {"type": "way", "id": 827899844, "nodes": [7728961722, 7728961723, 7728961724, 7728961725, 7728961722], "tags": {"leisure": "park"}}, {"type": "way", "id": 1013345586, "nodes": [9349022672, 9349022674, 9349022673, 9349022671, 9349022672], "tags": {"leisure": "garden"}}, {"type": "way", "id": 1013444765, "nodes": [9350085423, 9350085422, 9350085421, 9350085420, 9350085423], "tags": {"leisure": "garden"}}, {"type": "way", "id": 1050561441, "nodes": [9654119337, 9654119338, 9654119339, 9654119340, 9654119337], "tags": {"leisure": "garden"}}, {"type": "way", "id": 1080490014, "nodes": [9903671909, 9903671910, 9903671911, 9903671912, 9903671913, 9903671914, 9903671915, 9903671916, 9903705117, 9903705118, 9903671909], "tags": {"leisure": "park"}}, {"type": "way", "id": 1259091510, "nodes": [11704499929, 11704499930, 11704499931, 11704499932, 5430795639, 11704499933, 11704499934, 11704499935, 11704499936, 11704499937, 11704499938, 11704499929], "tags": {"leisure": "garden"}}, {"type": "way", "id": 1335983035, "nodes": [12358341714, 12358341715, 12358341716, 12358341717, 12358341718, 12358341714], "tags": {"amenity": "school", "area": "yes", "name": "ST. XAVIERS"}}]}